{"type":"FeatureCollection","features":[{"type":"Feature","properties":{"geoid":"36001","name":"Albany","n":114,"inprog":0,"completed":0,"juris":19,"nyc":0},"geometry":{"type":"Polygon","coordinates":[[[-74.1065,42.7392],[-73.8096,42.775],[-73.8094,42.7789],[-73.798,42.7795],[-73.7825,42.7918],[-73.7667,42.7861],[-73.7502,42.8014],[-73.7377,42.8189],[-73.7267,42.8226],[-73.7227,42.8207],[-73.7214,42.8131],[-73.7167,42.8082],[-73.7199,42.8013],[-73.7114,42.7952],[-73.709,42.7877],[-73.7032,42.7825],[-73.6892,42.7754],[-73.6812,42.783],[-73.6768,42.7833],[-73.6838,42.7667],[-73.689,42.7383],[-73.6972,42.7288],[-73.7036,42.7095],[-73.7025,42.7],[-73.7291,42.6651],[-73.7418,42.6544],[-73.7613,42.6104],[-73.7522,42.5666],[-73.7613,42.5258],[-73.7855,42.4872],[-73.7837,42.4642],[-74.2635,42.4071],[-74.2649,42.4199],[-74.2445,42.4703],[-74.2264,42.4992],[-74.2256,42.5264],[-74.2416,42.5508],[-74.234,42.5757],[-74.2203,42.5854],[-74.2152,42.5974],[-74.1935,42.619],[-74.1926,42.6271],[-74.1793,42.6464],[-74.1697,42.6674],[-74.1695,42.6914],[-74.1647,42.7172],[-74.1803,42.73],[-74.1065,42.7392]]]}},{"type":"Feature","properties":{"geoid":"36003","name":"Allegany","n":1052,"inprog":0,"completed":0,"juris":41,"nyc":0},"geometry":{"type":"Polygon","coordinates":[[[-78.3092,42.2611],[-78.3088,42.5212],[-78.0383,42.5215],[-78.0434,42.5185],[-77.8407,42.5178],[-77.8402,42.4746],[-77.723,42.4712],[-77.7261,42.404],[-77.7311,42.4041],[-77.7499,41.9987],[-78.3081,41.9992],[-78.3092,42.2611]]]}},{"type":"Feature","properties":{"geoid":"36005","name":"New York City","n":1293,"inprog":16,"completed":239,"juris":8,"nyc":1},"geometry":{"type":"Polygon","coordinates":[[[-73.9338,40.8822],[-73.9183,40.9177],[-73.8594,40.9004],[-73.8543,40.909],[-73.8511,40.91],[-73.8535,40.9075],[-73.8414,40.9042],[-73.8384,40.8941],[-73.7481,40.8717],[-73.7578,40.8457],[-73.7802,40.8264],[-73.779,40.8117],[-73.7879,40.8004],[-73.8174,40.8058],[-73.8531,40.8001],[-73.863,40.7977],[-73.8716,40.7868],[-73.8783,40.7854],[-73.9125,40.7961],[-73.9272,40.8026],[-73.9323,40.8086],[-73.933,40.8357],[-73.907,40.8735],[-73.9095,40.8789],[-73.9152,40.8756],[-73.9338,40.8822]]]}},{"type":"Feature","properties":{"geoid":"36007","name":"Broome","n":511,"inprog":5,"completed":0,"juris":24,"nyc":0},"geometry":{"type":"Polygon","coordinates":[[[-75.9866,42.41],[-75.864,42.4157],[-75.8521,42.3453],[-75.8438,42.2597],[-75.8363,42.2441],[-75.8194,42.249],[-75.6383,42.2487],[-75.6371,42.1956],[-75.4184,42.195],[-75.4218,42.0416],[-75.41,42.0298],[-75.4032,42.0121],[-75.3966,42.0066],[-75.3792,42.0022],[-75.3654,42.0084],[-75.3596,41.9996],[-76.1058,41.9989],[-76.1048,42.0316],[-76.1115,42.1012],[-76.1072,42.102],[-76.1076,42.1124],[-76.1115,42.1123],[-76.1162,42.1856],[-76.0867,42.1869],[-76.0873,42.1936],[-76.0837,42.1938],[-76.0856,42.2108],[-76.0814,42.211],[-76.0811,42.2305],[-76.0845,42.2305],[-76.0909,42.2496],[-76.0963,42.2495],[-76.0966,42.2574],[-76.0807,42.258],[-76.0877,42.2788],[-76.1006,42.2784],[-76.1012,42.2873],[-76.1066,42.2874],[-76.1066,42.2935],[-76.0988,42.2937],[-76.0991,42.3034],[-76.1016,42.3033],[-76.1016,42.3104],[-76.1063,42.3103],[-76.1064,42.3187],[-76.1124,42.3186],[-76.1124,42.3265],[-76.1164,42.3266],[-76.1167,42.3372],[-76.1093,42.3373],[-76.1099,42.3473],[-76.1119,42.3573],[-76.1146,42.3573],[-76.1146,42.3671],[-76.1224,42.3672],[-76.1229,42.3808],[-76.1202,42.3807],[-76.1245,42.402],[-76.1297,42.402],[-76.1302,42.4103],[-76.0222,42.4128],[-76.0214,42.409],[-75.9866,42.41]]]}},{"type":"Feature","properties":{"geoid":"36009","name":"Cattaraugus","n":572,"inprog":66,"completed":26,"juris":45,"nyc":0},"geometry":{"type":"Polygon","coordinates":[[[-79.0607,42.3479],[-79.0608,42.5379],[-79.0407,42.5374],[-79.0331,42.5433],[-79.0134,42.5347],[-79.0067,42.5358],[-78.9953,42.5318],[-78.9864,42.5191],[-78.9878,42.5134],[-78.9828,42.5116],[-78.9861,42.505],[-78.9802,42.5062],[-78.9666,42.4937],[-78.9612,42.494],[-78.9634,42.4866],[-78.957,42.4724],[-78.9503,42.4682],[-78.9389,42.468],[-78.9193,42.454],[-78.9204,42.4426],[-78.9124,42.448],[-78.9055,42.4462],[-78.9002,42.4492],[-78.8947,42.4396],[-78.8875,42.4423],[-78.8838,42.438],[-78.8777,42.4417],[-78.8711,42.4395],[-78.8453,42.445],[-78.8381,42.4428],[-78.8321,42.4489],[-78.8273,42.4484],[-78.8264,42.4518],[-78.8218,42.4507],[-78.8097,42.4589],[-78.7971,42.4627],[-78.7814,42.4552],[-78.7716,42.4571],[-78.7704,42.4596],[-78.7771,42.461],[-78.7767,42.4638],[-78.7716,42.465],[-78.7637,42.4614],[-78.7583,42.464],[-78.7645,42.4704],[-78.7514,42.4683],[-78.7498,42.4737],[-78.7381,42.4733],[-78.7383,42.4805],[-78.731,42.4787],[-78.7288,42.4825],[-78.7181,42.4837],[-78.7151,42.4869],[-78.7124,42.4836],[-78.701,42.4856],[-78.7002,42.4746],[-78.6933,42.4718],[-78.6918,42.4764],[-78.6828,42.4779],[-78.6819,42.4836],[-78.6752,42.4837],[-78.6702,42.4887],[-78.6672,42.4872],[-78.6624,42.4924],[-78.6444,42.4911],[-78.6387,42.4981],[-78.627,42.4974],[-78.6232,42.5039],[-78.612,42.5028],[-78.5977,42.5125],[-78.5873,42.509],[-78.5813,42.5142],[-78.5733,42.5106],[-78.5687,42.5128],[-78.5637,42.5088],[-78.5603,42.5132],[-78.5557,42.5111],[-78.5473,42.5154],[-78.5481,42.5178],[-78.5393,42.5139],[-78.5315,42.5211],[-78.5191,42.5192],[-78.5118,42.5277],[-78.4912,42.5301],[-78.4883,42.5349],[-78.469,42.5333],[-78.4639,42.5363],[-78.4646,42.5192],[-78.3088,42.5212],[-78.3081,41.9992],[-79.0613,41.9994],[-79.0591,42.0869],[-79.0607,42.3479]]]}},{"type":"Feature","properties":{"geoid":"36011","name":"Cayuga","n":198,"inprog":0,"completed":0,"juris":32,"nyc":0},"geometry":{"type":"Polygon","coordinates":[[[-76.738,42.9613],[-76.7367,42.9703],[-76.7276,42.9781],[-76.7288,42.9878],[-76.7207,42.9954],[-76.7217,43.0079],[-76.7112,43.018],[-76.7186,43.0331],[-76.7178,43.0626],[-76.7059,43.0708],[-76.7023,43.0804],[-76.7147,43.2658],[-76.7535,43.6843],[-76.7347,43.7081],[-76.6447,43.7035],[-76.6162,43.4109],[-76.605,43.2536],[-76.4811,43.2566],[-76.4731,43.146],[-76.4863,43.1432],[-76.4761,43.1251],[-76.4718,43.105],[-76.4912,43.1063],[-76.4978,43.1027],[-76.4993,43.0977],[-76.4919,43.005],[-76.463,43.0063],[-76.4507,42.8458],[-76.357,42.8494],[-76.3058,42.8133],[-76.2862,42.7944],[-76.2753,42.7805],[-76.2656,42.6236],[-76.4585,42.6186],[-76.4587,42.6274],[-76.6143,42.6221],[-76.6145,42.6252],[-76.6665,42.6235],[-76.6879,42.6748],[-76.7234,42.7041],[-76.7335,42.7279],[-76.7401,42.7894],[-76.7195,42.8254],[-76.7172,42.8388],[-76.7212,42.8696],[-76.7375,42.9021],[-76.7392,42.9168],[-76.7343,42.9448],[-76.7394,42.9545],[-76.738,42.9613]]]}},{"type":"Feature","properties":{"geoid":"36013","name":"Chautauqua","n":626,"inprog":0,"completed":0,"juris":45,"nyc":0},"geometry":{"type":"Polygon","coordinates":[[[-79.1369,42.5698],[-79.1258,42.5651],[-79.1078,42.57],[-79.1037,42.5676],[-79.1052,42.5633],[-79.0951,42.5642],[-79.0917,42.5564],[-79.0809,42.5554],[-79.0901,42.5502],[-79.0608,42.5379],[-79.0591,42.0869],[-79.0613,41.9994],[-79.762,41.9988],[-79.7624,42.5161],[-79.3121,42.6868],[-79.1369,42.5698]]]}},{"type":"Feature","properties":{"geoid":"36015","name":"Chemung","n":183,"inprog":76,"completed":28,"juris":31,"nyc":0},"geometry":{"type":"Polygon","coordinates":[[[-76.9654,42.1992],[-76.9648,42.2874],[-76.8429,42.2938],[-76.7339,42.2937],[-76.7327,42.2481],[-76.6858,42.2483],[-76.6857,42.2376],[-76.6481,42.2381],[-76.6423,42.2337],[-76.6195,42.2487],[-76.6193,42.2829],[-76.5383,42.2818],[-76.5358,42.2501],[-76.5365,42.1554],[-76.5627,42.1559],[-76.5636,42.1525],[-76.5579,42.1453],[-76.5586,42.1364],[-76.5542,42.1315],[-76.5594,42.1313],[-76.5562,42.1267],[-76.5506,42.0796],[-76.5415,42.0517],[-76.5613,42.0095],[-76.5577,42.0001],[-76.9658,42.0011],[-76.9654,42.1992]]]}},{"type":"Feature","properties":{"geoid":"36017","name":"Chenango","n":122,"inprog":1,"completed":0,"juris":30,"nyc":0},"geometry":{"type":"Polygon","coordinates":[[[-75.8823,42.6377],[-75.8898,42.7238],[-75.4287,42.7454],[-75.428,42.7381],[-75.2959,42.7441],[-75.2928,42.7378],[-75.3003,42.7291],[-75.2959,42.7282],[-75.2965,42.7187],[-75.3069,42.7056],[-75.3134,42.6895],[-75.327,42.6803],[-75.3269,42.6746],[-75.3304,42.6744],[-75.3275,42.6724],[-75.3309,42.6715],[-75.3307,42.6661],[-75.3277,42.6636],[-75.3312,42.6612],[-75.328,42.6483],[-75.323,42.6438],[-75.3236,42.6341],[-75.3301,42.631],[-75.323,42.623],[-75.3372,42.6134],[-75.339,42.6085],[-75.3363,42.5943],[-75.3252,42.5886],[-75.3303,42.581],[-75.3273,42.5809],[-75.3292,42.5794],[-75.3268,42.5773],[-75.3324,42.573],[-75.33,42.5676],[-75.3352,42.5664],[-75.3397,42.5609],[-75.3481,42.5604],[-75.3543,42.5541],[-75.3561,42.5563],[-75.3616,42.5525],[-75.3647,42.5546],[-75.3726,42.5369],[-75.378,42.5357],[-75.3869,42.5235],[-75.384,42.5202],[-75.3894,42.5108],[-75.4036,42.5092],[-75.3959,42.5065],[-75.399,42.4987],[-75.3952,42.4867],[-75.4045,42.4796],[-75.4004,42.4741],[-75.3999,42.4624],[-75.3945,42.4593],[-75.3865,42.4459],[-75.3851,42.4318],[-75.3766,42.4242],[-75.3791,42.4165],[-75.3746,42.416],[-75.3799,42.4047],[-75.394,42.3998],[-75.4067,42.3808],[-75.4023,42.3751],[-75.4048,42.371],[-75.4032,42.3653],[-75.3994,42.3603],[-75.3927,42.3586],[-75.3945,42.3531],[-75.4025,42.3485],[-75.398,42.3364],[-75.4104,42.3254],[-75.4076,42.3196],[-75.4142,42.3204],[-75.4169,42.3141],[-75.4184,42.195],[-75.6371,42.1956],[-75.6383,42.2487],[-75.8194,42.249],[-75.8364,42.2442],[-75.8438,42.2597],[-75.8521,42.3453],[-75.8624,42.3978],[-75.8823,42.6377]]]}},{"type":"Feature","properties":{"geoid":"36019","name":"Clinton","n":105,"inprog":1,"completed":0,"juris":20,"nyc":0},"geometry":{"type":"Polygon","coordinates":[[[-73.9931,44.7578],[-74.0067,44.8369],[-74.0079,44.8956],[-74.0274,44.9957],[-73.8414,45.0021],[-73.6502,45.003],[-73.3432,45.0107],[-73.3546,44.9874],[-73.3502,44.9762],[-73.3382,44.9648],[-73.339,44.9177],[-73.3562,44.9045],[-73.3691,44.8667],[-73.3798,44.857],[-73.3816,44.8494],[-73.3795,44.838],[-73.335,44.8041],[-73.3332,44.7888],[-73.3357,44.7821],[-73.3471,44.773],[-73.3544,44.7553],[-73.3656,44.7418],[-73.366,44.6976],[-73.3613,44.6945],[-73.3701,44.6849],[-73.3672,44.6785],[-73.3718,44.677],[-73.3727,44.6687],[-73.3697,44.6635],[-73.3746,44.6619],[-73.3791,44.6568],[-73.3783,44.6522],[-73.3845,44.6467],[-73.3786,44.6415],[-73.3868,44.6364],[-73.3865,44.6269],[-73.3902,44.6184],[-73.3829,44.6122],[-73.3768,44.5996],[-73.3818,44.5893],[-73.3757,44.582],[-73.375,44.5758],[-73.3568,44.5579],[-73.3429,44.5519],[-73.3386,44.5468],[-73.4638,44.5377],[-73.4649,44.5338],[-73.4611,44.5303],[-73.4634,44.5251],[-73.4594,44.5232],[-73.4596,44.52],[-73.471,44.5146],[-73.4708,44.5078],[-73.4796,44.5067],[-73.4904,44.4979],[-73.4966,44.4861],[-73.5165,44.4881],[-73.5244,44.4932],[-73.5269,44.488],[-73.555,44.4825],[-73.562,44.471],[-73.5731,44.4646],[-73.5907,44.4611],[-73.5968,44.4631],[-73.6139,44.4544],[-73.629,44.4584],[-73.6693,44.4414],[-73.7003,44.4405],[-73.7007,44.4456],[-73.9097,44.4297],[-73.9329,44.5762],[-73.9459,44.5749],[-73.9661,44.7091],[-73.9864,44.7078],[-73.9931,44.7578]]]}},{"type":"Feature","properties":{"geoid":"36021","name":"Columbia","n":85,"inprog":0,"completed":0,"juris":23,"nyc":0},"geometry":{"type":"Polygon","coordinates":[[[-73.718,42.4708],[-73.3524,42.51],[-73.5082,42.0861],[-73.497,42.0496],[-73.5214,42.05],[-73.5271,41.978],[-73.7109,42.0055],[-73.9032,42.0781],[-73.9156,42.0809],[-73.9171,42.0765],[-73.9296,42.0788],[-73.9215,42.11],[-73.9018,42.1409],[-73.8931,42.1588],[-73.8923,42.1675],[-73.8748,42.1739],[-73.8553,42.1914],[-73.8495,42.2096],[-73.8513,42.2206],[-73.8478,42.2303],[-73.8326,42.2441],[-73.803,42.2537],[-73.7868,42.273],[-73.7806,42.3057],[-73.7843,42.3201],[-73.7833,42.3317],[-73.7933,42.3562],[-73.7905,42.3632],[-73.7943,42.378],[-73.7758,42.4299],[-73.7737,42.444],[-73.7785,42.4589],[-73.7756,42.4609],[-73.7837,42.4642],[-73.718,42.4708]]]}},{"type":"Feature","properties":{"geoid":"36023","name":"Cortland","n":171,"inprog":0,"completed":0,"juris":20,"nyc":0},"geometry":{"type":"Polygon","coordinates":[[[-76.2656,42.6254],[-76.2747,42.7713],[-75.8961,42.791],[-75.864,42.4157],[-76.0177,42.4091],[-76.0214,42.409],[-76.0222,42.4128],[-76.2534,42.4076],[-76.2656,42.6254]]]}},{"type":"Feature","properties":{"geoid":"36025","name":"Delaware","n":361,"inprog":0,"completed":0,"juris":34,"nyc":0},"geometry":{"type":"Polygon","coordinates":[[[-75.0591,42.4306],[-75.0198,42.429],[-75.018,42.4542],[-75.0154,42.4502],[-75.0032,42.449],[-75.0013,42.4428],[-74.993,42.4401],[-74.9893,42.4433],[-74.9909,42.4466],[-74.9841,42.4439],[-74.9749,42.4675],[-74.9592,42.4704],[-74.9579,42.4628],[-74.8441,42.5126],[-74.7711,42.5044],[-74.7516,42.5145],[-74.7339,42.5139],[-74.7283,42.5176],[-74.7116,42.5178],[-74.6189,42.4244],[-74.4282,42.3491],[-74.5373,42.2014],[-74.4517,42.1692],[-74.504,42.1449],[-74.531,42.1465],[-74.5536,42.1215],[-75.1515,41.8491],[-75.164,41.8513],[-75.1683,41.8587],[-75.1684,41.8693],[-75.1741,41.8726],[-75.1854,41.8601],[-75.1954,41.8678],[-75.2046,41.8699],[-75.215,41.8673],[-75.2245,41.8576],[-75.2411,41.8673],[-75.25,41.8622],[-75.258,41.8621],[-75.2643,41.8695],[-75.2575,41.8761],[-75.2596,41.8823],[-75.2717,41.8884],[-75.273,41.8966],[-75.2673,41.9061],[-75.2766,41.9222],[-75.2788,41.9387],[-75.2895,41.9432],[-75.292,41.9533],[-75.3005,41.9538],[-75.3026,41.948],[-75.3178,41.9537],[-75.3196,41.9603],[-75.328,41.9679],[-75.3421,41.9727],[-75.3375,41.9846],[-75.3406,41.9924],[-75.3624,42.001],[-75.3642,42.0082],[-75.3792,42.0022],[-75.3966,42.0066],[-75.4032,42.0121],[-75.41,42.0298],[-75.4218,42.0416],[-75.4153,42.3142],[-75.3982,42.315],[-75.3902,42.3199],[-75.3828,42.3152],[-75.3767,42.3224],[-75.3712,42.3158],[-75.3535,42.3192],[-75.3414,42.3148],[-75.3233,42.3211],[-75.3073,42.3213],[-75.2927,42.3395],[-75.2815,42.3427],[-75.2787,42.3473],[-75.2691,42.3512],[-75.2728,42.3572],[-75.2614,42.3668],[-75.2361,42.3643],[-75.2171,42.3675],[-75.2096,42.3765],[-75.191,42.3799],[-75.1972,42.3583],[-75.1471,42.3857],[-75.1431,42.3814],[-75.1222,42.3941],[-75.1268,42.3986],[-75.0934,42.4206],[-75.0591,42.4306]]]}},{"type":"Feature","properties":{"geoid":"36027","name":"Dutchess","n":270,"inprog":3,"completed":0,"juris":33,"nyc":0},"geometry":{"type":"Polygon","coordinates":[[[-73.9404,41.873],[-73.9622,41.901],[-73.9644,41.9131],[-73.958,41.9211],[-73.9528,41.9571],[-73.9334,42.0157],[-73.9373,42.0298],[-73.9327,42.0608],[-73.9263,42.0706],[-73.9296,42.0788],[-73.9171,42.0765],[-73.9156,42.0809],[-73.9032,42.0781],[-73.7109,42.0055],[-73.5271,41.978],[-73.5214,42.05],[-73.4873,42.0495],[-73.5301,41.5272],[-73.5798,41.5265],[-73.6927,41.5122],[-73.9338,41.4883],[-73.9815,41.4389],[-73.9978,41.4522],[-74.0001,41.4583],[-73.9948,41.4983],[-73.9979,41.5035],[-73.9965,41.5226],[-73.987,41.5441],[-73.9619,41.5681],[-73.9536,41.5865],[-73.9526,41.6252],[-73.9474,41.6675],[-73.9425,41.6841],[-73.9467,41.6994],[-73.9411,41.7327],[-73.9408,41.7543],[-73.9516,41.7706],[-73.9524,41.788],[-73.9483,41.8157],[-73.9489,41.8486],[-73.9403,41.8623],[-73.9404,41.873]]]}},{"type":"Feature","properties":{"geoid":"36029","name":"Erie","n":399,"inprog":3,"completed":1,"juris":45,"nyc":0},"geometry":{"type":"Polygon","coordinates":[[[-78.9569,42.8327],[-78.9306,42.8501],[-78.9058,42.9],[-78.9057,42.9234],[-78.9189,42.9469],[-78.9324,42.9559],[-78.9618,42.9578],[-78.9751,42.9688],[-79.0116,42.9853],[-79.02,42.9948],[-79.0233,43.0164],[-79.0117,43.029],[-78.9994,43.0561],[-79.0071,43.0658],[-79.0192,43.068],[-78.9453,43.067],[-78.9115,43.0547],[-78.8963,43.0442],[-78.8902,43.022],[-78.8611,43.0229],[-78.8417,43.0189],[-78.8254,43.0337],[-78.8321,43.0469],[-78.8304,43.0508],[-78.8068,43.0536],[-78.8044,43.0558],[-78.8068,43.0623],[-78.8008,43.0663],[-78.7786,43.0654],[-78.7683,43.0701],[-78.7449,43.0699],[-78.7352,43.083],[-78.728,43.0862],[-78.719,43.0811],[-78.7095,43.0826],[-78.7073,43.0869],[-78.6912,43.0887],[-78.6828,43.0803],[-78.6795,43.0848],[-78.6642,43.0864],[-78.6475,43.0806],[-78.649,43.0873],[-78.647,43.0898],[-78.6411,43.0891],[-78.6411,43.0974],[-78.6365,43.0933],[-78.6303,43.0939],[-78.6327,43.091],[-78.6267,43.0851],[-78.6191,43.0875],[-78.6125,43.0836],[-78.6171,43.0783],[-78.6161,43.0742],[-78.6123,43.0779],[-78.6018,43.0766],[-78.6068,43.0728],[-78.5953,43.0725],[-78.5945,43.0694],[-78.5911,43.0761],[-78.5867,43.073],[-78.5827,43.0752],[-78.5844,43.0764],[-78.5802,43.0804],[-78.5851,43.0852],[-78.5825,43.0887],[-78.5782,43.0879],[-78.575,43.0799],[-78.5724,43.082],[-78.5764,43.0887],[-78.565,43.0884],[-78.564,43.0948],[-78.56,43.0973],[-78.5548,43.0951],[-78.5604,43.0899],[-78.5507,43.0929],[-78.5502,43.0966],[-78.5453,43.0986],[-78.5411,43.0937],[-78.5465,43.0932],[-78.5468,43.0901],[-78.5428,43.0887],[-78.5415,43.0911],[-78.54,43.0857],[-78.5276,43.0906],[-78.5267,43.0875],[-78.5142,43.0902],[-78.5152,43.0947],[-78.5101,43.0981],[-78.5091,43.0933],[-78.507,43.0943],[-78.5037,43.0931],[-78.5061,43.0897],[-78.5007,43.0891],[-78.5028,43.0866],[-78.497,43.0866],[-78.4996,43.0835],[-78.4973,43.0819],[-78.4758,43.0863],[-78.4721,43.0815],[-78.4644,43.0887],[-78.4644,42.8675],[-78.4863,42.8677],[-78.4881,42.7807],[-78.4632,42.7805],[-78.4639,42.5363],[-78.469,42.5333],[-78.4885,42.5348],[-78.4912,42.5301],[-78.5118,42.5277],[-78.5191,42.5192],[-78.5315,42.5211],[-78.5393,42.5139],[-78.5481,42.5178],[-78.5473,42.5154],[-78.5557,42.5111],[-78.5603,42.5132],[-78.5637,42.5088],[-78.5687,42.5128],[-78.5733,42.5106],[-78.5813,42.5142],[-78.5873,42.509],[-78.5977,42.5125],[-78.612,42.5028],[-78.6232,42.5039],[-78.627,42.4974],[-78.6387,42.4981],[-78.6444,42.4911],[-78.6624,42.4924],[-78.6672,42.4872],[-78.6702,42.4887],[-78.6752,42.4837],[-78.6819,42.4836],[-78.6828,42.4779],[-78.6918,42.4764],[-78.6937,42.4717],[-78.7002,42.4746],[-78.701,42.4856],[-78.7124,42.4836],[-78.7151,42.4869],[-78.7181,42.4837],[-78.7288,42.4825],[-78.731,42.4787],[-78.7383,42.4805],[-78.7381,42.4733],[-78.7498,42.4737],[-78.7514,42.4683],[-78.7645,42.4704],[-78.7585,42.4636],[-78.7643,42.4614],[-78.7756,42.4644],[-78.7772,42.4611],[-78.7702,42.4581],[-78.7798,42.4552],[-78.7961,42.4628],[-78.8097,42.4589],[-78.8218,42.4507],[-78.8264,42.4518],[-78.8273,42.4484],[-78.8321,42.4489],[-78.8387,42.4427],[-78.8453,42.445],[-78.8707,42.4395],[-78.8777,42.4417],[-78.8838,42.438],[-78.8875,42.4423],[-78.8947,42.4396],[-78.9002,42.4492],[-78.9055,42.4462],[-78.9124,42.448],[-78.9198,42.4424],[-78.9221,42.4449],[-78.9183,42.4498],[-78.9193,42.454],[-78.9389,42.468],[-78.9503,42.4682],[-78.957,42.4724],[-78.9634,42.4866],[-78.9612,42.494],[-78.9666,42.4937],[-78.9802,42.5062],[-78.9861,42.505],[-78.9828,42.5116],[-78.9878,42.5134],[-78.9864,42.5191],[-78.9953,42.5318],[-79.0067,42.5358],[-79.0134,42.5347],[-79.0331,42.5433],[-79.0407,42.5374],[-79.0613,42.538],[-79.0901,42.5502],[-79.0809,42.5554],[-79.0917,42.5564],[-79.0951,42.5642],[-79.1052,42.5633],[-79.1037,42.5676],[-79.1078,42.57],[-79.1258,42.5651],[-79.1342,42.5682],[-79.3121,42.6868],[-78.9998,42.8044],[-78.9569,42.8327]]]}},{"type":"Feature","properties":{"geoid":"36031","name":"Essex","n":67,"inprog":0,"completed":0,"juris":21,"nyc":0},"geometry":{"type":"Polygon","coordinates":[[[-73.6145,44.4544],[-73.6023,44.4581],[-73.5968,44.4631],[-73.5907,44.4611],[-73.5713,44.4653],[-73.562,44.471],[-73.555,44.4825],[-73.5269,44.488],[-73.5244,44.4932],[-73.5165,44.4881],[-73.4966,44.4861],[-73.4904,44.4979],[-73.4796,44.5067],[-73.4708,44.5078],[-73.471,44.5146],[-73.4596,44.52],[-73.4594,44.5232],[-73.4634,44.5251],[-73.4611,44.5303],[-73.4649,44.5338],[-73.4638,44.5377],[-73.3386,44.5468],[-73.3295,44.5292],[-73.322,44.5253],[-73.3208,44.5136],[-73.3067,44.5003],[-73.2992,44.4729],[-73.3001,44.4547],[-73.2938,44.4382],[-73.315,44.3885],[-73.3336,44.3723],[-73.3349,44.3644],[-73.3346,44.3569],[-73.324,44.3338],[-73.3242,44.31],[-73.3122,44.2801],[-73.3127,44.2654],[-73.3237,44.2442],[-73.3304,44.2443],[-73.3434,44.2382],[-73.3428,44.2344],[-73.3505,44.2299],[-73.3623,44.2085],[-73.3906,44.1911],[-73.3898,44.1818],[-73.3972,44.1738],[-73.3958,44.1663],[-73.403,44.145],[-73.4161,44.1324],[-73.4115,44.112],[-73.4297,44.0786],[-73.4379,44.0451],[-73.4104,44.0265],[-73.4061,44.0164],[-73.4125,43.9822],[-73.4057,43.9559],[-73.4086,43.9319],[-73.3962,43.9033],[-73.3837,43.8913],[-73.3742,43.8762],[-73.3823,43.8561],[-73.3726,43.8454],[-73.3767,43.8394],[-73.3882,43.8327],[-73.3928,43.8228],[-73.3793,43.8085],[-74.057,43.7445],[-74.0588,43.7478],[-74.0547,43.7682],[-74.0461,43.7812],[-74.0512,43.7882],[-74.0471,43.7963],[-74.0857,43.8089],[-74.0917,43.8043],[-74.1185,43.8095],[-74.1387,43.8177],[-74.1395,43.8264],[-74.1491,43.8296],[-74.2012,43.8212],[-74.2137,43.8109],[-74.3368,43.9252],[-74.256,43.9698],[-74.2819,44.1206],[-74.0935,44.1376],[-74.1414,44.4073],[-73.7482,44.4428],[-73.7007,44.4456],[-73.7003,44.4405],[-73.6745,44.4406],[-73.6596,44.4435],[-73.6548,44.4484],[-73.629,44.4584],[-73.6145,44.4544]]]}},{"type":"Feature","properties":{"geoid":"36033","name":"Franklin","n":53,"inprog":0,"completed":0,"juris":26,"nyc":0},"geometry":{"type":"Polygon","coordinates":[[[-74.6895,44.9529],[-74.7203,44.953],[-74.7262,44.9949],[-74.7226,44.9981],[-74.702,45.0033],[-74.684,44.9997],[-74.6733,45.0008],[-74.6705,45.0063],[-74.6631,44.9989],[-74.4654,44.9972],[-74.3365,44.992],[-74.1501,44.9914],[-74.0274,44.9957],[-74.0073,44.8907],[-74.0067,44.8369],[-73.9864,44.7078],[-73.9661,44.7091],[-73.9459,44.5749],[-73.9329,44.5762],[-73.9097,44.4297],[-74.1414,44.4073],[-74.0935,44.1376],[-74.5352,44.0992],[-74.5445,44.1694],[-74.5257,44.1706],[-74.6089,44.7135],[-74.6419,44.9526],[-74.6895,44.9529]]]}},{"type":"Feature","properties":{"geoid":"36035","name":"Fulton","n":132,"inprog":0,"completed":0,"juris":20,"nyc":0},"geometry":{"type":"Polygon","coordinates":[[[-74.7198,43.1483],[-74.7079,43.1501],[-74.7115,43.1528],[-74.7098,43.156],[-74.7183,43.1602],[-74.7176,43.1653],[-74.7082,43.1725],[-74.7023,43.1713],[-74.696,43.1742],[-74.713,43.289],[-74.5347,43.2281],[-74.3264,43.2416],[-74.3224,43.2147],[-74.2209,43.2214],[-74.2242,43.2482],[-74.1401,43.254],[-74.0975,42.9829],[-74.5424,42.9855],[-74.7599,43.0474],[-74.7632,43.0531],[-74.762,43.0596],[-74.7698,43.0657],[-74.7702,43.0749],[-74.7742,43.0785],[-74.7737,43.0834],[-74.7658,43.0901],[-74.7699,43.1133],[-74.7585,43.1141],[-74.7587,43.1198],[-74.7397,43.1202],[-74.7383,43.1244],[-74.7284,43.1252],[-74.7353,43.1429],[-74.7198,43.1483]]]}},{"type":"Feature","properties":{"geoid":"36037","name":"Genesee","n":181,"inprog":0,"completed":0,"juris":21,"nyc":0},"geometry":{"type":"Polygon","coordinates":[[[-78.4635,43.033],[-78.4655,43.1286],[-77.9059,43.1336],[-77.951,43.0395],[-77.9041,43.0371],[-77.9094,43.0025],[-77.9114,42.9451],[-77.9342,42.9456],[-77.9352,42.9053],[-77.9555,42.9059],[-77.955,42.8628],[-78.0742,42.8637],[-78.0742,42.8702],[-78.4644,42.8675],[-78.4635,43.033]]]}},{"type":"Feature","properties":{"geoid":"36039","name":"Greene","n":208,"inprog":26,"completed":2,"juris":39,"nyc":0},"geometry":{"type":"Polygon","coordinates":[[[-74.4797,42.2795],[-74.4282,42.3491],[-74.4435,42.355],[-74.3791,42.3739],[-74.3572,42.3647],[-74.3461,42.3557],[-74.321,42.3607],[-74.3126,42.3571],[-74.2995,42.3626],[-74.2766,42.3633],[-74.2592,42.3791],[-74.2447,42.3772],[-74.2543,42.4082],[-73.9333,42.4448],[-73.8368,42.4586],[-73.7837,42.4642],[-73.7755,42.4607],[-73.7785,42.4592],[-73.774,42.4506],[-73.7747,42.4343],[-73.7943,42.3772],[-73.7905,42.3632],[-73.7933,42.3562],[-73.7833,42.3317],[-73.7843,42.3201],[-73.7806,42.3057],[-73.7868,42.273],[-73.803,42.2537],[-73.8326,42.2441],[-73.8478,42.2303],[-73.8513,42.2206],[-73.8495,42.2096],[-73.8553,42.1914],[-73.8748,42.1739],[-73.8916,42.1685],[-73.8938,42.1569],[-73.9107,42.1273],[-73.9184,42.1289],[-74.0024,42.177],[-74.0036,42.1634],[-74.0249,42.1621],[-74.0424,42.1704],[-74.0748,42.0966],[-74.3076,42.1143],[-74.5373,42.2014],[-74.4797,42.2795]]]}},{"type":"Feature","properties":{"geoid":"36041","name":"Hamilton","n":53,"inprog":0,"completed":0,"juris":13,"nyc":0},"geometry":{"type":"Polygon","coordinates":[[[-74.8201,43.8185],[-74.8542,44.0701],[-74.2819,44.1206],[-74.256,43.9698],[-74.3368,43.9252],[-74.2137,43.8109],[-74.2012,43.8212],[-74.1491,43.8296],[-74.1395,43.8264],[-74.1387,43.8177],[-74.1185,43.8095],[-74.0917,43.8043],[-74.0857,43.8089],[-74.0469,43.7953],[-74.0512,43.7882],[-74.0461,43.7812],[-74.0547,43.7682],[-74.0588,43.7478],[-74.057,43.7445],[-74.2146,43.7287],[-74.1401,43.254],[-74.2242,43.2482],[-74.2209,43.2214],[-74.2749,43.2178],[-74.3224,43.2147],[-74.3264,43.2416],[-74.5347,43.2281],[-74.8677,43.3398],[-74.7756,43.4867],[-74.8201,43.8185]]]}},{"type":"Feature","properties":{"geoid":"36043","name":"Herkimer","n":330,"inprog":1,"completed":0,"juris":26,"nyc":0},"geometry":{"type":"Polygon","coordinates":[[[-75.0692,43.2273],[-75.0738,43.2295],[-75.07,43.233],[-75.0715,43.2345],[-75.0922,43.2306],[-75.1227,43.241],[-75.1239,43.2465],[-75.1364,43.2487],[-75.1432,43.2552],[-75.151,43.2469],[-75.1528,43.2583],[-75.1604,43.2558],[-75.1626,43.2601],[-75.1587,43.2642],[-75.1585,43.2731],[-75.1521,43.2868],[-75.1479,43.29],[-75.1456,43.2986],[-75.148,43.3052],[-75.125,43.3072],[-75.1203,43.3042],[-75.1192,43.3105],[-75.1076,43.3117],[-75.0998,43.3252],[-75.0929,43.3231],[-75.0917,43.3286],[-75.0766,43.3307],[-75.1702,44.097],[-75.0628,44.0504],[-74.8542,44.0701],[-74.7756,43.4867],[-74.8677,43.3398],[-74.7126,43.2861],[-74.696,43.1779],[-74.6963,43.1735],[-74.7082,43.1725],[-74.718,43.1647],[-74.7183,43.1602],[-74.7098,43.156],[-74.7115,43.1528],[-74.7081,43.1497],[-74.735,43.1434],[-74.7282,43.1253],[-74.7383,43.1244],[-74.7397,43.1202],[-74.7587,43.1198],[-74.7582,43.1143],[-74.7701,43.1129],[-74.7673,43.1097],[-74.7697,43.1016],[-74.7658,43.0901],[-74.7737,43.0834],[-74.7742,43.0785],[-74.7702,43.0749],[-74.7698,43.0657],[-74.7619,43.0594],[-74.7632,43.0531],[-74.7592,43.0426],[-74.7461,43.0344],[-74.7403,43.018],[-74.7437,42.9994],[-74.7402,42.9977],[-74.7633,42.8632],[-74.8788,42.8983],[-74.8909,42.8414],[-74.8947,42.8321],[-74.9067,42.8249],[-75.101,42.9084],[-75.1399,42.8598],[-75.2106,42.8565],[-75.2122,42.88],[-75.2014,42.8807],[-75.2191,43.0525],[-75.1957,43.0777],[-75.1823,43.0753],[-75.1779,43.0825],[-75.1841,43.0833],[-75.1817,43.0877],[-75.1855,43.0884],[-75.1394,43.1404],[-75.0692,43.2273]]]}},{"type":"Feature","properties":{"geoid":"36045","name":"Jefferson","n":89,"inprog":0,"completed":0,"juris":8,"nyc":0},"geometry":{"type":"Polygon","coordinates":[[[-76.3997,44.1123],[-76.3527,44.1347],[-76.3126,44.199],[-76.2865,44.2038],[-76.2455,44.2037],[-76.1913,44.2212],[-76.1643,44.2396],[-76.1618,44.2808],[-76.1309,44.2966],[-76.1181,44.2948],[-76.0974,44.2995],[-76.0452,44.3317],[-76.001,44.3475],[-75.9783,44.3469],[-75.9702,44.3428],[-75.9495,44.3491],[-75.9295,44.3596],[-75.9217,44.3689],[-75.913,44.3681],[-75.86,44.4033],[-75.4461,44.2177],[-75.5459,44.103],[-75.4845,44.0742],[-75.5027,44.0513],[-75.4933,44.0468],[-75.502,44.0363],[-75.5018,44.0096],[-75.55,44.0082],[-75.5429,43.9678],[-75.5772,43.9653],[-75.5814,43.9685],[-75.5967,43.9666],[-75.6037,43.9714],[-75.7582,43.8788],[-75.8406,43.884],[-75.8505,43.7919],[-75.7868,43.7883],[-75.7746,43.6889],[-76.0251,43.707],[-76.022,43.6681],[-76.1409,43.677],[-76.7347,43.7081],[-76.4989,44.0001],[-76.4383,44.0942],[-76.3997,44.1123]]]}},{"type":"Feature","properties":{"geoid":"36047","name":"New York City","n":1293,"inprog":16,"completed":239,"juris":8,"nyc":1},"geometry":{"type":"Polygon","coordinates":[[[-74.0565,40.6317],[-74.0557,40.6515],[-74.0354,40.6851],[-74.0193,40.6795],[-74.001,40.6901],[-73.9927,40.7055],[-73.981,40.7054],[-73.9728,40.7094],[-73.9696,40.7076],[-73.9676,40.7165],[-73.9615,40.7239],[-73.9626,40.7365],[-73.9539,40.7394],[-73.9278,40.7265],[-73.9219,40.7094],[-73.9043,40.6957],[-73.9058,40.6941],[-73.8965,40.6824],[-73.8689,40.6952],[-73.866,40.6819],[-73.8604,40.6713],[-73.8576,40.6717],[-73.8557,40.6639],[-73.8632,40.6583],[-73.8549,40.6426],[-73.8483,40.6435],[-73.833,40.6283],[-73.8345,40.6072],[-73.8499,40.5887],[-73.8792,40.5747],[-74.0363,40.551],[-74.0345,40.5762],[-74.0414,40.6031],[-74.0566,40.6273],[-74.0565,40.6317]]]}},{"type":"Feature","properties":{"geoid":"36049","name":"Lewis","n":208,"inprog":0,"completed":0,"juris":26,"nyc":0},"geometry":{"type":"Polygon","coordinates":[[[-75.502,44.0362],[-75.4933,44.0468],[-75.5027,44.0513],[-75.4845,44.0742],[-75.5459,44.103],[-75.4461,44.2177],[-75.1702,44.097],[-75.1102,43.6152],[-75.5335,43.4198],[-75.7562,43.4704],[-75.7668,43.6251],[-75.7868,43.7883],[-75.8505,43.7919],[-75.8406,43.884],[-75.7582,43.8788],[-75.6037,43.9714],[-75.5967,43.9666],[-75.5814,43.9685],[-75.5772,43.9653],[-75.5429,43.9678],[-75.55,44.0082],[-75.5018,44.0096],[-75.502,44.0362]]]}},{"type":"Feature","properties":{"geoid":"36051","name":"Livingston","n":189,"inprog":0,"completed":0,"juris":23,"nyc":0},"geometry":{"type":"Polygon","coordinates":[[[-77.9349,42.9194],[-77.9342,42.9456],[-77.9114,42.9451],[-77.9098,42.9878],[-77.731,42.9884],[-77.7325,42.9813],[-77.7207,42.9792],[-77.7178,42.9734],[-77.7246,42.9713],[-77.725,42.9592],[-77.7284,42.953],[-77.7345,42.9548],[-77.7312,42.9469],[-77.7594,42.9445],[-77.7591,42.9405],[-77.6375,42.94],[-77.635,42.9445],[-77.5804,42.944],[-77.5729,42.9354],[-77.5672,42.9362],[-77.5672,42.9289],[-77.5604,42.9217],[-77.5631,42.9176],[-77.5596,42.9181],[-77.5619,42.9152],[-77.5583,42.9078],[-77.5605,42.9002],[-77.5543,42.8979],[-77.5573,42.8949],[-77.5524,42.8927],[-77.5566,42.8903],[-77.5533,42.89],[-77.5543,42.886],[-77.5494,42.8794],[-77.554,42.8744],[-77.5478,42.8745],[-77.5523,42.8693],[-77.5474,42.8697],[-77.5462,42.8661],[-77.5494,42.8643],[-77.5509,42.8674],[-77.5508,42.864],[-77.555,42.8632],[-77.5519,42.8541],[-77.588,42.854],[-77.5882,42.763],[-77.6117,42.7632],[-77.5988,42.672],[-77.4869,42.6703],[-77.4909,42.5773],[-77.6599,42.5804],[-77.6613,42.5351],[-77.7206,42.5351],[-77.723,42.4712],[-77.8402,42.4746],[-77.8407,42.5178],[-78.0434,42.5185],[-78.0383,42.5215],[-78.0404,42.5286],[-78.0481,42.528],[-78.0426,42.5352],[-78.05,42.5386],[-78.0589,42.5322],[-78.0609,42.5364],[-78.0493,42.5439],[-78.052,42.5477],[-78.048,42.5579],[-78.0355,42.5673],[-78.028,42.5677],[-78.0338,42.5737],[-78.0463,42.5702],[-78.0508,42.576],[-78.0365,42.5877],[-78.0224,42.5849],[-78.012,42.5869],[-78.0049,42.5924],[-78.0058,42.5987],[-78.0146,42.5997],[-78.0219,42.5961],[-78.0269,42.5981],[-78.0294,42.6033],[-78.016,42.6074],[-78.0137,42.6121],[-78.0066,42.6101],[-77.9965,42.6161],[-77.9904,42.6149],[-77.9873,42.6194],[-77.988,42.6279],[-77.9814,42.6311],[-77.9831,42.636],[-77.9766,42.6378],[-77.9773,42.6452],[-77.9712,42.6482],[-77.9744,42.6554],[-77.9684,42.663],[-77.9626,42.662],[-77.9563,42.6673],[-77.9555,42.9059],[-77.9352,42.9053],[-77.9349,42.9194]]]}},{"type":"Feature","properties":{"geoid":"36053","name":"Madison","n":77,"inprog":0,"completed":0,"juris":27,"nyc":0},"geometry":{"type":"Polygon","coordinates":[[[-75.8986,42.8255],[-75.9172,43.0859],[-75.9199,43.0899],[-75.9268,43.0906],[-75.9287,43.0872],[-75.9311,43.0902],[-75.9395,43.0867],[-75.9471,43.089],[-75.9487,43.0868],[-75.9504,43.0896],[-75.9618,43.0855],[-75.9608,43.089],[-75.964,43.0867],[-75.9674,43.0899],[-75.9675,43.0876],[-75.9716,43.0889],[-75.9711,43.0925],[-75.9754,43.0909],[-75.9764,43.103],[-75.9715,43.1049],[-75.9655,43.1197],[-75.9601,43.1154],[-75.9544,43.1169],[-75.9606,43.1233],[-75.9501,43.1349],[-75.9576,43.1363],[-75.9574,43.1337],[-75.9638,43.1336],[-75.9722,43.1405],[-75.9773,43.1362],[-75.9773,43.1405],[-75.9718,43.1438],[-75.9712,43.1546],[-75.9771,43.1576],[-75.9744,43.1632],[-75.981,43.1677],[-75.9815,43.1728],[-75.99,43.1715],[-75.9926,43.1738],[-75.9896,43.1792],[-75.9926,43.1852],[-75.98,43.1774],[-75.9594,43.1804],[-75.9587,43.1751],[-75.9527,43.1711],[-75.9329,43.1767],[-75.9254,43.1617],[-75.8862,43.1561],[-75.8746,43.1528],[-75.8678,43.1466],[-75.8574,43.1497],[-75.8533,43.1564],[-75.84,43.1605],[-75.7934,43.16],[-75.7864,43.1668],[-75.7785,43.1681],[-75.7763,43.1734],[-75.7499,43.1579],[-75.7384,43.1648],[-75.7314,43.1606],[-75.7272,43.1621],[-75.7255,43.1571],[-75.7244,43.1627],[-75.7202,43.1612],[-75.7189,43.1585],[-75.7226,43.1558],[-75.7144,43.1529],[-75.7161,43.1506],[-75.7066,43.1511],[-75.7088,43.1468],[-75.7068,43.137],[-75.6946,43.1396],[-75.6965,43.1369],[-75.6936,43.1335],[-75.6874,43.1337],[-75.6865,43.1294],[-75.6783,43.1275],[-75.6853,43.1248],[-75.6805,43.1235],[-75.6812,43.121],[-75.6727,43.1217],[-75.6738,43.1183],[-75.6697,43.1152],[-75.6531,43.1141],[-75.6558,43.1096],[-75.6512,43.1054],[-75.6466,43.1063],[-75.646,43.101],[-75.6393,43.0972],[-75.6418,43.0903],[-75.6388,43.082],[-75.6417,43.0818],[-75.6363,43.075],[-75.6311,43.0769],[-75.6223,43.0739],[-75.616,43.0663],[-75.6044,43.0649],[-75.5995,43.0614],[-75.608,43.0531],[-75.5983,43.0438],[-75.5969,43.0354],[-75.5528,43.0376],[-75.5428,42.9318],[-75.4442,42.9331],[-75.4372,42.8633],[-75.248,42.8716],[-75.2447,42.8688],[-75.2475,42.8645],[-75.2439,42.8616],[-75.2478,42.845],[-75.242,42.8432],[-75.2431,42.8386],[-75.2395,42.8343],[-75.2503,42.8244],[-75.2459,42.8171],[-75.242,42.8176],[-75.2491,42.8117],[-75.2503,42.7972],[-75.2533,42.7956],[-75.2499,42.7921],[-75.2531,42.7874],[-75.251,42.7849],[-75.2576,42.7827],[-75.2557,42.7809],[-75.259,42.7809],[-75.2587,42.7771],[-75.2628,42.7756],[-75.2641,42.7778],[-75.2728,42.7728],[-75.274,42.7653],[-75.2797,42.764],[-75.2802,42.7543],[-75.2851,42.7508],[-75.2909,42.7515],[-75.2959,42.7441],[-75.428,42.7381],[-75.4287,42.7454],[-75.8898,42.7238],[-75.8986,42.8255]]]}},{"type":"Feature","properties":{"geoid":"36055","name":"Monroe","n":336,"inprog":114,"completed":0,"juris":32,"nyc":0},"geometry":{"type":"Polygon","coordinates":[[[-77.9969,43.2195],[-77.994,43.6312],[-77.388,43.6315],[-77.3762,43.3452],[-77.3715,43.0347],[-77.4854,43.0346],[-77.4825,42.9432],[-77.635,42.9445],[-77.6375,42.94],[-77.7591,42.9405],[-77.7594,42.9445],[-77.7312,42.9469],[-77.7345,42.9548],[-77.7284,42.953],[-77.725,42.9592],[-77.7246,42.9713],[-77.7178,42.9734],[-77.7207,42.9792],[-77.7325,42.9813],[-77.731,42.9884],[-77.9098,42.9878],[-77.9041,43.0371],[-77.951,43.0395],[-77.9059,43.1336],[-77.9973,43.133],[-77.9969,43.2195]]]}},{"type":"Feature","properties":{"geoid":"36057","name":"Montgomery","n":239,"inprog":0,"completed":0,"juris":22,"nyc":0},"geometry":{"type":"Polygon","coordinates":[[[-74.7401,42.9983],[-74.7437,42.9994],[-74.7402,43.0145],[-74.7438,43.0307],[-74.7588,43.042],[-74.7599,43.0474],[-74.5424,42.9855],[-74.0975,42.9829],[-74.0839,42.8974],[-74.2568,42.8122],[-74.2553,42.8061],[-74.2647,42.7997],[-74.2633,42.7965],[-74.2894,42.7838],[-74.4549,42.773],[-74.5625,42.8129],[-74.6507,42.8301],[-74.7633,42.8632],[-74.7401,42.9983]]]}},{"type":"Feature","properties":{"geoid":"36059","name":"Nassau","n":244,"inprog":2,"completed":4,"juris":53,"nyc":0},"geometry":{"type":"Polygon","coordinates":[[[-73.6944,40.903],[-73.6129,40.9509],[-73.4319,40.989],[-73.4296,40.9282],[-73.4376,40.935],[-73.4644,40.9376],[-73.4846,40.9469],[-73.4937,40.9407],[-73.4974,40.9238],[-73.4879,40.9158],[-73.4773,40.8992],[-73.4761,40.8771],[-73.4623,40.8667],[-73.4641,40.8596],[-73.4554,40.8426],[-73.4233,40.6705],[-73.4256,40.6563],[-73.4253,40.5343],[-73.4865,40.5205],[-73.6246,40.5345],[-73.7688,40.5337],[-73.7583,40.5554],[-73.7555,40.5854],[-73.7445,40.5929],[-73.7372,40.593],[-73.7383,40.6026],[-73.7455,40.6119],[-73.76,40.6113],[-73.7667,40.615],[-73.7688,40.6243],[-73.7433,40.638],[-73.74,40.6351],[-73.7414,40.6469],[-73.7251,40.6523],[-73.7283,40.663],[-73.7256,40.6796],[-73.7269,40.71],[-73.7303,40.7222],[-73.7079,40.7278],[-73.7002,40.7395],[-73.7016,40.7525],[-73.7637,40.7938],[-73.779,40.8117],[-73.7802,40.8264],[-73.7578,40.8457],[-73.748,40.8719],[-73.6944,40.903]]]}},{"type":"Feature","properties":{"geoid":"36061","name":"New York City","n":1293,"inprog":16,"completed":239,"juris":8,"nyc":1},"geometry":{"type":"Polygon","coordinates":[[[-74.0354,40.6851],[-74.0264,40.7001],[-74.014,40.7576],[-73.9636,40.8266],[-73.9528,40.8511],[-73.9338,40.8822],[-73.9152,40.8756],[-73.9095,40.8789],[-73.9071,40.873],[-73.9281,40.8456],[-73.9335,40.8332],[-73.9323,40.8086],[-73.9272,40.8026],[-73.9125,40.7961],[-73.9103,40.7907],[-73.9286,40.7766],[-73.9364,40.7769],[-73.9353,40.7705],[-73.9592,40.746],[-73.9626,40.739],[-73.9615,40.7239],[-73.9676,40.7165],[-73.9696,40.7076],[-73.9728,40.7094],[-73.981,40.7054],[-73.9927,40.7055],[-74.001,40.6901],[-74.0193,40.6795],[-74.0354,40.6851]],[[-74.0472,40.6909],[-74.0439,40.6902],[-74.0436,40.6888],[-74.0462,40.6893],[-74.0472,40.6909]],[[-74.0407,40.7002],[-74.0389,40.6997],[-74.0384,40.6987],[-74.0399,40.6986],[-74.0407,40.7002]]]}},{"type":"Feature","properties":{"geoid":"36063","name":"Niagara","n":125,"inprog":17,"completed":4,"juris":22,"nyc":0},"geometry":{"type":"Polygon","coordinates":[[[-79.0759,43.2702],[-79.2009,43.4504],[-78.7498,43.6093],[-78.6883,43.6347],[-78.4687,43.6334],[-78.4643,43.5001],[-78.4664,43.3028],[-78.4604,43.2162],[-78.4658,43.1383],[-78.4644,43.0887],[-78.4679,43.0878],[-78.4652,43.086],[-78.4696,43.0829],[-78.4746,43.0828],[-78.4756,43.0863],[-78.4816,43.0838],[-78.4848,43.0862],[-78.4889,43.0827],[-78.4978,43.082],[-78.4996,43.0836],[-78.497,43.0866],[-78.5028,43.0866],[-78.5007,43.0891],[-78.5061,43.0897],[-78.5037,43.0931],[-78.5091,43.0933],[-78.5099,43.0981],[-78.5152,43.0947],[-78.5142,43.0902],[-78.5267,43.0875],[-78.528,43.0906],[-78.5361,43.0855],[-78.5403,43.0859],[-78.5417,43.0911],[-78.5428,43.0887],[-78.5468,43.0901],[-78.5465,43.0932],[-78.5411,43.0937],[-78.5453,43.0986],[-78.5502,43.0966],[-78.5507,43.0929],[-78.5604,43.0899],[-78.5548,43.0951],[-78.5598,43.0974],[-78.564,43.0948],[-78.565,43.0884],[-78.5764,43.0887],[-78.5724,43.082],[-78.575,43.0799],[-78.5782,43.0879],[-78.5825,43.0887],[-78.5851,43.0852],[-78.5802,43.0804],[-78.5844,43.0764],[-78.5827,43.0752],[-78.5867,43.073],[-78.5911,43.0761],[-78.5947,43.0694],[-78.5953,43.0725],[-78.6068,43.0728],[-78.6018,43.0766],[-78.6123,43.0779],[-78.6161,43.0742],[-78.6171,43.0783],[-78.6125,43.0836],[-78.6191,43.0875],[-78.6267,43.0851],[-78.6327,43.091],[-78.6303,43.0939],[-78.6365,43.0933],[-78.6411,43.0974],[-78.6411,43.0891],[-78.647,43.0898],[-78.649,43.0873],[-78.6475,43.0806],[-78.6642,43.0864],[-78.6795,43.0848],[-78.6828,43.0803],[-78.6912,43.0887],[-78.7073,43.0869],[-78.7095,43.0826],[-78.719,43.0811],[-78.728,43.0862],[-78.7352,43.083],[-78.7449,43.0699],[-78.7683,43.0701],[-78.7786,43.0654],[-78.8008,43.0663],[-78.8068,43.0623],[-78.8044,43.0558],[-78.8068,43.0536],[-78.8304,43.0508],[-78.8321,43.0469],[-78.8254,43.0337],[-78.8417,43.0189],[-78.8611,43.0229],[-78.8902,43.022],[-78.8963,43.0442],[-78.9115,43.0547],[-78.9453,43.067],[-79.0192,43.068],[-79.0745,43.0779],[-79.0754,43.0814],[-79.066,43.0911],[-79.058,43.107],[-79.0602,43.1136],[-79.0696,43.1203],[-79.0568,43.1269],[-79.0441,43.138],[-79.0424,43.1437],[-79.0465,43.1623],[-79.0529,43.1735],[-79.0487,43.1997],[-79.0571,43.2107],[-79.0529,43.2221],[-79.0561,43.2542],[-79.0705,43.2625],[-79.0759,43.2702]]]}},{"type":"Feature","properties":{"geoid":"36065","name":"Oneida","n":225,"inprog":18,"completed":24,"juris":45,"nyc":0},"geometry":{"type":"Polygon","coordinates":[[[-75.8629,43.3192],[-75.8868,43.325],[-75.8146,43.4836],[-75.5335,43.4198],[-75.1102,43.6152],[-75.0766,43.3307],[-75.0917,43.3286],[-75.0929,43.3231],[-75.0998,43.3252],[-75.1076,43.3117],[-75.1192,43.3105],[-75.1203,43.3042],[-75.125,43.3072],[-75.148,43.3052],[-75.1456,43.2986],[-75.1479,43.29],[-75.1521,43.2868],[-75.1585,43.2731],[-75.1587,43.2642],[-75.1626,43.2601],[-75.1604,43.2558],[-75.1528,43.2583],[-75.151,43.2469],[-75.1432,43.2552],[-75.1364,43.2487],[-75.1239,43.2465],[-75.1227,43.241],[-75.0922,43.2306],[-75.0715,43.2345],[-75.07,43.233],[-75.0738,43.2295],[-75.0692,43.2273],[-75.1394,43.1404],[-75.1855,43.0884],[-75.1817,43.0877],[-75.1841,43.0833],[-75.1779,43.0825],[-75.1823,43.0753],[-75.1957,43.0777],[-75.2191,43.0525],[-75.2014,42.8807],[-75.2427,42.8779],[-75.248,42.8716],[-75.4372,42.8633],[-75.4442,42.9331],[-75.5428,42.9318],[-75.5528,43.0376],[-75.5969,43.0354],[-75.5983,43.0438],[-75.608,43.0531],[-75.5995,43.0614],[-75.6044,43.0649],[-75.616,43.0663],[-75.6223,43.0739],[-75.6311,43.0769],[-75.6363,43.075],[-75.6417,43.0818],[-75.6388,43.082],[-75.6418,43.0903],[-75.6393,43.0972],[-75.646,43.101],[-75.6466,43.1063],[-75.6512,43.1054],[-75.6558,43.1096],[-75.6531,43.1141],[-75.6697,43.1152],[-75.6738,43.1183],[-75.6727,43.1217],[-75.6812,43.121],[-75.6805,43.1235],[-75.6853,43.1248],[-75.6783,43.1275],[-75.6865,43.1294],[-75.6874,43.1337],[-75.6936,43.1335],[-75.6965,43.1369],[-75.6946,43.1396],[-75.7068,43.137],[-75.7088,43.1468],[-75.7066,43.1511],[-75.7161,43.1506],[-75.7144,43.1529],[-75.7226,43.1558],[-75.7189,43.1585],[-75.72,43.1611],[-75.7244,43.1627],[-75.7255,43.1571],[-75.7272,43.1621],[-75.7314,43.1606],[-75.7384,43.1648],[-75.7499,43.1579],[-75.7763,43.1734],[-75.7785,43.1681],[-75.7864,43.1668],[-75.7934,43.16],[-75.84,43.1605],[-75.8533,43.1564],[-75.8567,43.1502],[-75.8631,43.147],[-75.8683,43.1467],[-75.8746,43.1528],[-75.8835,43.1549],[-75.8629,43.3192]]]}},{"type":"Feature","properties":{"geoid":"36067","name":"Onondaga","n":285,"inprog":0,"completed":0,"juris":36,"nyc":0},"geometry":{"type":"Polygon","coordinates":[[[-76.4719,43.1068],[-76.4761,43.1251],[-76.4863,43.1432],[-76.4731,43.146],[-76.4792,43.2275],[-76.3446,43.2327],[-76.3075,43.2308],[-76.289,43.2185],[-76.281,43.2011],[-76.2714,43.204],[-76.2621,43.2185],[-76.2678,43.2328],[-76.2756,43.2388],[-76.2729,43.2402],[-76.2574,43.2369],[-76.2446,43.2146],[-76.2338,43.2124],[-76.2244,43.205],[-76.2179,43.2048],[-76.2083,43.208],[-76.2106,43.2106],[-76.2062,43.2166],[-76.1987,43.2126],[-76.1942,43.2171],[-76.2025,43.2223],[-76.205,43.2374],[-76.2134,43.24],[-76.2106,43.244],[-76.213,43.2567],[-76.2088,43.2636],[-76.2119,43.2671],[-76.2029,43.2716],[-76.169,43.2467],[-76.1485,43.2396],[-76.1398,43.2404],[-76.1305,43.2345],[-76.116,43.2336],[-76.1064,43.2243],[-76.0993,43.2249],[-76.0845,43.2168],[-76.0803,43.2158],[-76.08,43.2181],[-76.0791,43.2186],[-76.0787,43.2155],[-76.0694,43.2147],[-76.0681,43.2126],[-76.0852,43.2131],[-76.0769,43.2084],[-76.0825,43.2068],[-76.0789,43.1995],[-76.0554,43.1992],[-76.0526,43.2029],[-76.0477,43.2026],[-76.032,43.1909],[-76.0118,43.1856],[-76.0028,43.1795],[-76.0057,43.1778],[-76.0039,43.1768],[-75.9914,43.1832],[-75.9896,43.1792],[-75.9926,43.1738],[-75.99,43.1715],[-75.9815,43.1728],[-75.981,43.1677],[-75.9744,43.1632],[-75.9771,43.1576],[-75.9712,43.1546],[-75.9718,43.1438],[-75.9773,43.1405],[-75.9773,43.1362],[-75.9722,43.1405],[-75.9638,43.1336],[-75.9574,43.1337],[-75.9576,43.1363],[-75.9501,43.1349],[-75.9606,43.1233],[-75.9544,43.1169],[-75.9601,43.1154],[-75.9655,43.1197],[-75.9715,43.1049],[-75.9764,43.103],[-75.9754,43.0909],[-75.9711,43.0925],[-75.9716,43.0889],[-75.9675,43.0876],[-75.9674,43.0899],[-75.964,43.0867],[-75.9608,43.089],[-75.9618,43.0855],[-75.9504,43.0896],[-75.9487,43.0868],[-75.9471,43.089],[-75.9395,43.0867],[-75.9311,43.0902],[-75.9287,43.0872],[-75.9268,43.0906],[-75.9199,43.0899],[-75.9172,43.0859],[-75.8961,42.791],[-76.2747,42.7713],[-76.2753,42.7805],[-76.2988,42.8075],[-76.357,42.8494],[-76.4507,42.8458],[-76.463,43.0063],[-76.4919,43.005],[-76.4992,43.0998],[-76.4912,43.1063],[-76.4736,43.104],[-76.4719,43.1068]]]}},{"type":"Feature","properties":{"geoid":"36069","name":"Ontario","n":600,"inprog":0,"completed":0,"juris":25,"nyc":0},"geometry":{"type":"Polygon","coordinates":[[[-77.4825,42.9432],[-77.4854,43.0346],[-77.2468,43.0347],[-77.2466,43.0398],[-77.1343,43.0399],[-77.1334,43.0125],[-76.9639,43.0132],[-76.9634,42.8729],[-76.9756,42.8706],[-76.9813,42.8613],[-76.9729,42.8371],[-76.9783,42.829],[-76.9755,42.8234],[-76.9769,42.8147],[-76.9741,42.8121],[-76.977,42.7981],[-76.9747,42.7828],[-76.9781,42.7742],[-76.9714,42.7642],[-77.313,42.7613],[-77.3367,42.734],[-77.3466,42.7164],[-77.3544,42.6972],[-77.3574,42.668],[-77.3671,42.6679],[-77.3665,42.5764],[-77.4909,42.5773],[-77.4869,42.6703],[-77.5988,42.672],[-77.6117,42.7613],[-77.5882,42.763],[-77.588,42.854],[-77.5519,42.8541],[-77.555,42.8632],[-77.5508,42.864],[-77.5509,42.8674],[-77.5494,42.8643],[-77.5462,42.8659],[-77.5474,42.8697],[-77.5523,42.8693],[-77.5478,42.8745],[-77.554,42.8744],[-77.5493,42.8792],[-77.5543,42.886],[-77.5533,42.89],[-77.5566,42.8903],[-77.5524,42.8927],[-77.5573,42.8949],[-77.5543,42.8979],[-77.5605,42.9002],[-77.5583,42.9078],[-77.5619,42.9152],[-77.5596,42.9181],[-77.563,42.9174],[-77.5634,42.9202],[-77.5604,42.9218],[-77.5672,42.9289],[-77.567,42.9361],[-77.5729,42.9354],[-77.5804,42.944],[-77.4825,42.9432]]]}},{"type":"Feature","properties":{"geoid":"36071","name":"Orange","n":448,"inprog":0,"completed":0,"juris":41,"nyc":0},"geometry":{"type":"Polygon","coordinates":[[[-74.5298,41.5024],[-74.4756,41.504],[-74.4761,41.5104],[-74.4656,41.5169],[-74.4657,41.523],[-74.4571,41.5275],[-74.4545,41.5334],[-74.4446,41.5372],[-74.4454,41.544],[-74.4392,41.543],[-74.4386,41.5474],[-74.4348,41.5464],[-74.4362,41.5511],[-74.4261,41.5562],[-74.4298,41.5585],[-74.4197,41.5624],[-74.4181,41.5698],[-74.4083,41.5683],[-74.4111,41.571],[-74.4086,41.5749],[-74.4066,41.5722],[-74.3976,41.5751],[-74.3904,41.5864],[-74.3861,41.5831],[-74.3659,41.5914],[-74.3535,41.5917],[-74.3504,41.5986],[-74.3409,41.5944],[-74.332,41.5967],[-74.33,41.6014],[-74.3202,41.603],[-74.312,41.6113],[-74.306,41.609],[-74.3043,41.6157],[-74.2957,41.6197],[-74.2923,41.6183],[-74.2641,41.6327],[-74.2502,41.6293],[-74.2516,41.6054],[-74.1875,41.5908],[-74.1854,41.5941],[-74.1264,41.5825],[-74.1345,41.6157],[-74.0987,41.6073],[-74.0899,41.5986],[-74.0681,41.606],[-74.0538,41.5861],[-74.0537,41.5806],[-73.9533,41.59],[-73.9594,41.5716],[-73.9859,41.5456],[-73.9965,41.5226],[-73.9979,41.5035],[-73.9948,41.4983],[-74.0001,41.4565],[-73.9815,41.4389],[-73.9666,41.4174],[-73.9618,41.4028],[-73.9493,41.3982],[-73.9475,41.3933],[-73.9568,41.3722],[-73.9613,41.3485],[-73.9814,41.3247],[-74.2343,41.143],[-74.3464,41.1927],[-74.4579,41.2484],[-74.6956,41.3576],[-74.6898,41.3617],[-74.6914,41.3674],[-74.708,41.3787],[-74.7164,41.393],[-74.7346,41.3974],[-74.7414,41.4057],[-74.7347,41.4225],[-74.737,41.4295],[-74.7431,41.4309],[-74.7546,41.4249],[-74.7564,41.428],[-74.7519,41.4325],[-74.7561,41.4339],[-74.7626,41.4455],[-74.7586,41.4545],[-74.7598,41.4608],[-74.7504,41.4643],[-74.7542,41.4785],[-74.7596,41.4819],[-74.762,41.4889],[-74.7524,41.4937],[-74.5298,41.5024]]]}},{"type":"Feature","properties":{"geoid":"36073","name":"Orleans","n":176,"inprog":0,"completed":0,"juris":14,"nyc":0},"geometry":{"type":"Polygon","coordinates":[[[-78.4664,43.3028],[-78.4643,43.5001],[-78.4687,43.6334],[-77.994,43.6312],[-77.9973,43.133],[-78.4655,43.1286],[-78.4604,43.2162],[-78.4664,43.3028]]]}},{"type":"Feature","properties":{"geoid":"36075","name":"Oswego","n":121,"inprog":0,"completed":0,"juris":33,"nyc":0},"geometry":{"type":"Polygon","coordinates":[[[-76.6176,43.4239],[-76.6447,43.7035],[-76.1409,43.677],[-76.022,43.6681],[-76.0251,43.707],[-75.7746,43.6889],[-75.7668,43.6251],[-75.7562,43.4704],[-75.8146,43.4836],[-75.8868,43.325],[-75.8629,43.3193],[-75.8843,43.1556],[-75.9254,43.1617],[-75.9329,43.1767],[-75.9527,43.1711],[-75.9587,43.1751],[-75.9594,43.1804],[-75.98,43.1774],[-75.9925,43.1852],[-76.0039,43.1768],[-76.0057,43.1778],[-76.0028,43.1795],[-76.0118,43.1856],[-76.032,43.1909],[-76.0477,43.2026],[-76.0526,43.2029],[-76.0554,43.1992],[-76.0789,43.1995],[-76.0825,43.2068],[-76.0769,43.2084],[-76.0852,43.2131],[-76.0681,43.2126],[-76.0694,43.2147],[-76.0787,43.2155],[-76.0791,43.2186],[-76.0803,43.2158],[-76.0845,43.2168],[-76.0993,43.2249],[-76.1064,43.2243],[-76.116,43.2336],[-76.1305,43.2345],[-76.1398,43.2404],[-76.1485,43.2396],[-76.169,43.2467],[-76.2029,43.2716],[-76.2119,43.2671],[-76.2088,43.2636],[-76.213,43.2567],[-76.2106,43.244],[-76.2134,43.24],[-76.205,43.2374],[-76.2025,43.2223],[-76.1942,43.2171],[-76.1987,43.2126],[-76.2062,43.2166],[-76.2106,43.2106],[-76.2083,43.208],[-76.2244,43.205],[-76.2338,43.2124],[-76.2446,43.2146],[-76.2581,43.2374],[-76.2741,43.2402],[-76.2756,43.2388],[-76.2629,43.2252],[-76.2621,43.2185],[-76.2714,43.204],[-76.281,43.2011],[-76.289,43.2185],[-76.3075,43.2308],[-76.3446,43.2327],[-76.4792,43.2275],[-76.4811,43.2566],[-76.605,43.2536],[-76.6176,43.4239]]]}},{"type":"Feature","properties":{"geoid":"36077","name":"Otsego","n":220,"inprog":0,"completed":0,"juris":34,"nyc":0},"geometry":{"type":"Polygon","coordinates":[[[-75.3288,42.6547],[-75.3312,42.6616],[-75.3277,42.6636],[-75.3312,42.6681],[-75.3308,42.6716],[-75.3275,42.6724],[-75.3304,42.6745],[-75.327,42.6745],[-75.3276,42.6797],[-75.3134,42.6895],[-75.3069,42.7056],[-75.2965,42.7187],[-75.2959,42.7282],[-75.3003,42.7291],[-75.2928,42.7378],[-75.2958,42.7443],[-75.2909,42.7515],[-75.2851,42.7508],[-75.2802,42.7543],[-75.2797,42.764],[-75.274,42.7653],[-75.2726,42.773],[-75.2641,42.7778],[-75.2628,42.7756],[-75.2587,42.7771],[-75.259,42.7809],[-75.2557,42.7809],[-75.2576,42.7827],[-75.251,42.7849],[-75.2531,42.7874],[-75.2499,42.7921],[-75.2533,42.7956],[-75.2503,42.7972],[-75.2491,42.8117],[-75.242,42.8176],[-75.2459,42.8171],[-75.2503,42.8244],[-75.2395,42.8343],[-75.2431,42.8386],[-75.242,42.8432],[-75.2478,42.8451],[-75.2439,42.8616],[-75.2475,42.8645],[-75.2447,42.8688],[-75.2483,42.8722],[-75.2427,42.8779],[-75.2122,42.88],[-75.2106,42.8565],[-75.1399,42.8598],[-75.101,42.9084],[-74.9067,42.8249],[-74.8947,42.8321],[-74.8909,42.8414],[-74.8788,42.8983],[-74.6483,42.8296],[-74.6654,42.7919],[-74.6675,42.7507],[-74.6358,42.652],[-74.6306,42.6267],[-74.672,42.5648],[-74.7115,42.517],[-74.7516,42.5145],[-74.7711,42.5044],[-74.8441,42.5126],[-74.9579,42.4628],[-74.9592,42.4704],[-74.9749,42.4675],[-74.9841,42.4439],[-74.9909,42.4466],[-74.9893,42.4433],[-74.993,42.4401],[-75.0013,42.4428],[-75.0032,42.449],[-75.0154,42.4502],[-75.018,42.4542],[-75.0198,42.429],[-75.0591,42.4306],[-75.0934,42.4206],[-75.1268,42.3986],[-75.1222,42.3941],[-75.1431,42.3814],[-75.1471,42.3857],[-75.1972,42.3583],[-75.191,42.3799],[-75.2096,42.3765],[-75.2171,42.3675],[-75.2361,42.3643],[-75.2616,42.3667],[-75.2728,42.3572],[-75.2691,42.3512],[-75.2787,42.3473],[-75.2815,42.3427],[-75.2927,42.3395],[-75.3073,42.3213],[-75.3233,42.3211],[-75.3414,42.3148],[-75.3535,42.3192],[-75.3712,42.3158],[-75.3767,42.3224],[-75.3828,42.3152],[-75.3902,42.3199],[-75.3982,42.315],[-75.4088,42.3164],[-75.4168,42.3139],[-75.4142,42.3204],[-75.4074,42.3198],[-75.4104,42.3254],[-75.398,42.3364],[-75.4025,42.3485],[-75.3945,42.3531],[-75.3927,42.3586],[-75.3994,42.3603],[-75.4032,42.3653],[-75.4048,42.371],[-75.4022,42.3745],[-75.4065,42.3813],[-75.394,42.3998],[-75.3811,42.4035],[-75.3803,42.4076],[-75.3749,42.4108],[-75.3747,42.4162],[-75.3792,42.4169],[-75.3768,42.4245],[-75.3856,42.4329],[-75.3865,42.4459],[-75.3945,42.4593],[-75.3999,42.4624],[-75.4004,42.4741],[-75.4045,42.4796],[-75.3952,42.4867],[-75.399,42.4987],[-75.3959,42.5065],[-75.4036,42.5092],[-75.3894,42.5108],[-75.384,42.5202],[-75.3869,42.5235],[-75.378,42.5357],[-75.3726,42.5369],[-75.3647,42.5546],[-75.3616,42.5525],[-75.3561,42.5563],[-75.3543,42.5541],[-75.3481,42.5604],[-75.3397,42.5609],[-75.3352,42.5664],[-75.33,42.5676],[-75.3324,42.573],[-75.3268,42.5773],[-75.3292,42.5794],[-75.3273,42.5809],[-75.3303,42.581],[-75.3252,42.5886],[-75.3363,42.5943],[-75.339,42.6085],[-75.3372,42.6134],[-75.323,42.623],[-75.3301,42.631],[-75.3236,42.6341],[-75.323,42.6386],[-75.3288,42.6547]]]}},{"type":"Feature","properties":{"geoid":"36079","name":"Putnam","n":81,"inprog":0,"completed":0,"juris":9,"nyc":0},"geometry":{"type":"Polygon","coordinates":[[[-73.8384,41.4981],[-73.5798,41.5265],[-73.5301,41.5272],[-73.5447,41.3665],[-73.9825,41.3218],[-73.9613,41.3485],[-73.9568,41.3722],[-73.9473,41.3948],[-73.9618,41.4028],[-73.9666,41.4174],[-73.9816,41.439],[-73.9338,41.4883],[-73.8384,41.4981]]]}},{"type":"Feature","properties":{"geoid":"36081","name":"New York City","n":1293,"inprog":16,"completed":239,"juris":8,"nyc":1},"geometry":{"type":"Polygon","coordinates":[[[-74.0381,40.5383],[-74.0363,40.551],[-73.8792,40.5747],[-73.8499,40.5887],[-73.8345,40.6072],[-73.833,40.6283],[-73.8483,40.6435],[-73.8549,40.6426],[-73.8632,40.6583],[-73.8557,40.6639],[-73.8576,40.6717],[-73.8604,40.6713],[-73.866,40.6819],[-73.8689,40.6952],[-73.8965,40.6824],[-73.9058,40.6941],[-73.9043,40.6957],[-73.9219,40.7094],[-73.9291,40.7277],[-73.9525,40.7392],[-73.9625,40.7368],[-73.9587,40.7466],[-73.9353,40.7705],[-73.9364,40.7769],[-73.9286,40.7766],[-73.9172,40.7842],[-73.9103,40.7907],[-73.9125,40.7961],[-73.8908,40.7902],[-73.8883,40.787],[-73.8735,40.7857],[-73.863,40.7977],[-73.8174,40.8058],[-73.7879,40.8004],[-73.779,40.8117],[-73.7503,40.7825],[-73.7016,40.7525],[-73.7002,40.7395],[-73.7079,40.7278],[-73.7303,40.7222],[-73.7269,40.71],[-73.7256,40.6796],[-73.7283,40.663],[-73.7251,40.6523],[-73.7414,40.6469],[-73.74,40.6351],[-73.7433,40.638],[-73.7688,40.6243],[-73.7667,40.615],[-73.76,40.6113],[-73.7455,40.6119],[-73.7383,40.6026],[-73.7372,40.593],[-73.7445,40.5929],[-73.7555,40.5854],[-73.7583,40.5554],[-73.7688,40.5337],[-73.8262,40.5229],[-73.8548,40.512],[-73.8768,40.5011],[-73.8896,40.4865],[-73.9779,40.5191],[-74.0423,40.5081],[-74.0381,40.5383]]]}},{"type":"Feature","properties":{"geoid":"36083","name":"Rensselaer","n":361,"inprog":0,"completed":0,"juris":23,"nyc":0},"geometry":{"type":"Polygon","coordinates":[[[-73.4506,42.9446],[-73.4493,42.9512],[-73.4306,42.9586],[-73.4212,42.9549],[-73.4082,42.9569],[-73.4032,42.9512],[-73.3935,42.9531],[-73.3889,42.9482],[-73.3797,42.9478],[-73.3802,42.9437],[-73.2743,42.9437],[-73.2787,42.8334],[-73.2854,42.8341],[-73.2871,42.8201],[-73.2837,42.8139],[-73.2909,42.8019],[-73.2764,42.746],[-73.2648,42.7459],[-73.3524,42.51],[-73.7837,42.4642],[-73.7855,42.4872],[-73.7613,42.5258],[-73.7522,42.5666],[-73.7613,42.6104],[-73.7418,42.6544],[-73.7291,42.6651],[-73.7025,42.7],[-73.7036,42.7095],[-73.6972,42.7288],[-73.689,42.7383],[-73.6838,42.7667],[-73.6726,42.7954],[-73.6623,42.802],[-73.6585,42.8091],[-73.6597,42.819],[-73.6706,42.8397],[-73.6759,42.8586],[-73.6732,42.8753],[-73.6845,42.8917],[-73.6789,42.9123],[-73.6597,42.9334],[-73.6355,42.9413],[-73.4506,42.9446]]]}},{"type":"Feature","properties":{"geoid":"36085","name":"New York City","n":1293,"inprog":16,"completed":239,"juris":8,"nyc":1},"geometry":{"type":"Polygon","coordinates":[[[-74.2588,40.5001],[-74.2541,40.5157],[-74.246,40.521],[-74.2503,40.5423],[-74.2475,40.5494],[-74.2314,40.5592],[-74.218,40.5571],[-74.2146,40.5605],[-74.2072,40.5879],[-74.1996,40.5978],[-74.2048,40.6061],[-74.2024,40.6316],[-74.1914,40.642],[-74.1816,40.6465],[-74.126,40.6422],[-74.087,40.6515],[-74.0557,40.6515],[-74.0566,40.6273],[-74.0414,40.6031],[-74.0345,40.5762],[-74.0423,40.5081],[-74.2253,40.4766],[-74.253,40.4867],[-74.2588,40.5001]]]}},{"type":"Feature","properties":{"geoid":"36087","name":"Rockland","n":450,"inprog":0,"completed":0,"juris":34,"nyc":0},"geometry":{"type":"Polygon","coordinates":[[[-74.0988,41.2408],[-73.9814,41.3247],[-73.9833,41.3174],[-73.981,41.3142],[-73.9645,41.2997],[-73.9466,41.291],[-73.9475,41.2846],[-73.9697,41.2632],[-73.972,41.2515],[-73.9613,41.242],[-73.9614,41.2342],[-73.9315,41.205],[-73.9093,41.1644],[-73.8954,41.154],[-73.8895,41.1451],[-73.8872,41.1331],[-73.8949,41.0824],[-73.8894,41.0376],[-73.894,40.9972],[-73.9027,40.9973],[-74.2343,41.143],[-74.0988,41.2408]]]}},{"type":"Feature","properties":{"geoid":"36089","name":"St. Lawrence","n":124,"inprog":0,"completed":0,"juris":45,"nyc":0},"geometry":{"type":"Polygon","coordinates":[[[-74.9394,44.9844],[-74.9079,44.9834],[-74.9007,44.9928],[-74.8878,45],[-74.8666,45.0005],[-74.8626,45.0046],[-74.8564,45.0045],[-74.8347,45.0147],[-74.8266,45.0159],[-74.8172,45.0117],[-74.8016,45.0146],[-74.7931,45.0046],[-74.7634,45.0056],[-74.7602,44.9949],[-74.7446,44.9906],[-74.7313,44.9904],[-74.7262,44.9949],[-74.7203,44.953],[-74.6419,44.9526],[-74.6089,44.7135],[-74.5257,44.1706],[-74.5445,44.1694],[-74.5352,44.0992],[-75.0628,44.0504],[-75.3159,44.1593],[-75.86,44.4033],[-75.8208,44.4322],[-75.8078,44.4716],[-75.7662,44.5158],[-75.6624,44.5919],[-75.6184,44.6196],[-75.5059,44.7051],[-75.4776,44.7202],[-75.4239,44.7563],[-75.4138,44.7725],[-75.397,44.7735],[-75.3874,44.78],[-75.37,44.7829],[-75.3698,44.7881],[-75.3445,44.8091],[-75.3337,44.8064],[-75.302,44.8266],[-75.3076,44.8368],[-75.2831,44.8491],[-75.2555,44.8577],[-75.2413,44.8669],[-75.2286,44.8679],[-75.2186,44.8776],[-75.203,44.8775],[-75.1651,44.8933],[-75.1399,44.8967],[-75.1344,44.9151],[-75.1176,44.9213],[-75.1051,44.9195],[-75.0967,44.9271],[-75.0648,44.9294],[-75.06,44.9346],[-75.0271,44.9466],[-75.0052,44.9584],[-74.9993,44.9661],[-74.9993,44.9716],[-74.9927,44.9775],[-74.9725,44.9834],[-74.9394,44.9844]]]}},{"type":"Feature","properties":{"geoid":"36091","name":"Saratoga","n":564,"inprog":0,"completed":0,"juris":31,"nyc":0},"geometry":{"type":"Polygon","coordinates":[[[-74.1243,43.1539],[-74.1601,43.3715],[-73.8833,43.398],[-73.871,43.3725],[-73.8751,43.3619],[-73.8648,43.3542],[-73.864,43.3455],[-73.8533,43.3378],[-73.8586,43.3281],[-73.8432,43.3189],[-73.8369,43.3066],[-73.8246,43.3043],[-73.8275,43.2846],[-73.8252,43.2775],[-73.8356,43.2658],[-73.8349,43.251],[-73.8259,43.2456],[-73.8154,43.251],[-73.7929,43.2462],[-73.7675,43.2221],[-73.7602,43.2319],[-73.744,43.2427],[-73.7376,43.2552],[-73.74,43.2647],[-73.7317,43.2703],[-73.711,43.2738],[-73.7046,43.2794],[-73.6963,43.2785],[-73.6902,43.2841],[-73.685,43.2809],[-73.6808,43.2674],[-73.6765,43.2635],[-73.6696,43.2639],[-73.6611,43.2729],[-73.6752,43.2851],[-73.6713,43.2932],[-73.6507,43.2896],[-73.6419,43.2933],[-73.6428,43.3042],[-73.6368,43.3069],[-73.6281,43.3039],[-73.5997,43.3068],[-73.5922,43.304],[-73.5885,43.2994],[-73.6,43.2798],[-73.601,43.2694],[-73.5924,43.2671],[-73.5872,43.2597],[-73.5879,43.2535],[-73.5975,43.241],[-73.5942,43.2334],[-73.586,43.2274],[-73.5792,43.2097],[-73.5858,43.1924],[-73.581,43.1825],[-73.5898,43.1705],[-73.5833,43.1656],[-73.5802,43.1529],[-73.5911,43.1375],[-73.5856,43.1237],[-73.5757,43.116],[-73.5733,43.1001],[-73.5783,43.0897],[-73.5753,43.0825],[-73.5818,43.0702],[-73.5778,43.0573],[-73.5864,43.0485],[-73.5931,43.0154],[-73.6067,42.9992],[-73.6089,42.9828],[-73.6311,42.9706],[-73.6287,42.9592],[-73.6323,42.9444],[-73.6597,42.9334],[-73.6831,42.9038],[-73.6844,42.8916],[-73.6732,42.8753],[-73.6759,42.8586],[-73.6706,42.8397],[-73.6597,42.819],[-73.6585,42.8091],[-73.6623,42.802],[-73.6722,42.7962],[-73.6768,42.7833],[-73.6812,42.783],[-73.6892,42.7754],[-73.7032,42.7825],[-73.709,42.7877],[-73.7114,42.7952],[-73.7199,42.8013],[-73.7167,42.8082],[-73.7214,42.8131],[-73.7227,42.8207],[-73.7267,42.8226],[-73.7377,42.8189],[-73.7502,42.8014],[-73.7667,42.7861],[-73.78,42.7922],[-73.7995,42.7789],[-73.8222,42.7803],[-73.8277,42.7838],[-73.8322,42.7931],[-73.8416,42.7979],[-73.8668,42.8284],[-73.8759,42.8343],[-73.8818,42.8509],[-73.8959,42.8511],[-73.9044,42.9112],[-73.9185,42.9104],[-73.9555,42.8973],[-73.9648,42.9021],[-73.9768,42.9159],[-74.0065,42.9341],[-74.0555,42.9533],[-74.093,42.9559],[-74.1243,43.1539]]]}},{"type":"Feature","properties":{"geoid":"36093","name":"Schenectady","n":168,"inprog":67,"completed":11,"juris":12,"nyc":0},"geometry":{"type":"Polygon","coordinates":[[[-73.9068,42.7634],[-74.1803,42.73],[-74.1842,42.7125],[-74.2027,42.7108],[-74.2398,42.7189],[-74.2723,42.7143],[-74.2708,42.7195],[-74.2778,42.7195],[-74.3067,42.7501],[-74.2898,42.7563],[-74.2635,42.7556],[-74.2528,42.7635],[-74.2546,42.7753],[-74.2479,42.7864],[-74.2533,42.7902],[-74.2544,42.7953],[-74.2619,42.7955],[-74.2648,42.7989],[-74.2553,42.8061],[-74.2568,42.8122],[-74.0839,42.8974],[-74.093,42.9559],[-74.0555,42.9533],[-74.0065,42.9341],[-73.9768,42.9159],[-73.9648,42.9021],[-73.9555,42.8973],[-73.9185,42.9104],[-73.9044,42.9112],[-73.8959,42.8511],[-73.8818,42.8509],[-73.8759,42.8343],[-73.8585,42.82],[-73.8416,42.7979],[-73.8291,42.7902],[-73.8277,42.7838],[-73.8094,42.7789],[-73.8096,42.775],[-73.9068,42.7634]]]}},{"type":"Feature","properties":{"geoid":"36095","name":"Schoharie","n":84,"inprog":0,"completed":0,"juris":16,"nyc":0},"geometry":{"type":"Polygon","coordinates":[[[-74.6307,42.6268],[-74.6358,42.652],[-74.6675,42.7507],[-74.6654,42.7919],[-74.6483,42.8296],[-74.5625,42.8129],[-74.4549,42.773],[-74.2894,42.7838],[-74.2633,42.7965],[-74.2554,42.7957],[-74.2477,42.7855],[-74.2547,42.7747],[-74.2515,42.7656],[-74.2588,42.7571],[-74.2898,42.7563],[-74.3066,42.7506],[-74.2778,42.7195],[-74.2708,42.7195],[-74.2723,42.7143],[-74.2398,42.7189],[-74.2027,42.7108],[-74.1842,42.7125],[-74.1803,42.73],[-74.1647,42.7172],[-74.1695,42.6914],[-74.1686,42.6739],[-74.1735,42.6571],[-74.1926,42.6271],[-74.1935,42.619],[-74.2152,42.5974],[-74.2203,42.5854],[-74.234,42.5757],[-74.2416,42.5508],[-74.2256,42.5264],[-74.2264,42.4992],[-74.2445,42.4703],[-74.2649,42.4199],[-74.2635,42.4071],[-74.2543,42.4082],[-74.2447,42.3772],[-74.2592,42.3791],[-74.2735,42.365],[-74.284,42.3618],[-74.2995,42.3626],[-74.3126,42.3571],[-74.321,42.3607],[-74.3461,42.3557],[-74.3572,42.3647],[-74.3791,42.3739],[-74.4435,42.355],[-74.6189,42.4244],[-74.7116,42.5178],[-74.672,42.5648],[-74.6307,42.6268]]]}},{"type":"Feature","properties":{"geoid":"36097","name":"Schuyler","n":99,"inprog":0,"completed":0,"juris":13,"nyc":0},"geometry":{"type":"Polygon","coordinates":[[[-76.7339,42.2937],[-76.8429,42.2938],[-76.9648,42.2874],[-76.965,42.2785],[-77.0997,42.2724],[-77.1072,42.4838],[-76.9893,42.4848],[-76.9879,42.4632],[-76.9645,42.4642],[-76.964,42.4592],[-76.8898,42.4631],[-76.9008,42.4938],[-76.8956,42.5415],[-76.6967,42.5468],[-76.6857,42.3751],[-76.6906,42.3732],[-76.6914,42.2843],[-76.6193,42.2829],[-76.6195,42.2487],[-76.6423,42.2337],[-76.6481,42.2381],[-76.6857,42.2376],[-76.6858,42.2483],[-76.7327,42.2481],[-76.7339,42.2937]]]}},{"type":"Feature","properties":{"geoid":"36099","name":"Seneca","n":63,"inprog":0,"completed":0,"juris":15,"nyc":0},"geometry":{"type":"Polygon","coordinates":[[[-76.9636,42.9465],[-76.9639,43.0132],[-76.7138,43.024],[-76.7112,43.018],[-76.7217,43.0079],[-76.7207,42.9954],[-76.7288,42.9878],[-76.7276,42.9781],[-76.7367,42.9703],[-76.7394,42.9545],[-76.7343,42.9448],[-76.7392,42.9168],[-76.7375,42.9021],[-76.7212,42.8696],[-76.7172,42.8388],[-76.7195,42.8254],[-76.7401,42.7894],[-76.7316,42.7207],[-76.7234,42.7041],[-76.6879,42.6748],[-76.6636,42.6171],[-76.6502,42.5974],[-76.6182,42.5667],[-76.586,42.5499],[-76.8956,42.5415],[-76.8945,42.6292],[-76.8971,42.6636],[-76.9375,42.7191],[-76.945,42.7373],[-76.9474,42.7644],[-76.9714,42.7642],[-76.9781,42.774],[-76.9747,42.7828],[-76.977,42.7981],[-76.9741,42.8121],[-76.9769,42.8147],[-76.9755,42.8234],[-76.9783,42.829],[-76.9729,42.8371],[-76.9813,42.8613],[-76.9756,42.8706],[-76.9634,42.8729],[-76.9636,42.9465]]]}},{"type":"Feature","properties":{"geoid":"36101","name":"Steuben","n":154,"inprog":0,"completed":0,"juris":33,"nyc":0},"geometry":{"type":"Polygon","coordinates":[[[-77.4231,42.5766],[-77.1438,42.5769],[-77.1496,42.5539],[-77.1469,42.5321],[-77.1495,42.5001],[-77.1439,42.4947],[-77.1348,42.4948],[-77.1218,42.5009],[-77.1148,42.5083],[-77.1076,42.5058],[-77.0997,42.2724],[-76.965,42.2785],[-76.9658,42.0011],[-77.7499,41.9987],[-77.7311,42.4041],[-77.7261,42.404],[-77.7206,42.5351],[-77.6613,42.5351],[-77.6599,42.5804],[-77.4231,42.5766]]]}},{"type":"Feature","properties":{"geoid":"36103","name":"Suffolk","n":1095,"inprog":2,"completed":24,"juris":54,"nyc":0},"geometry":{"type":"Polygon","coordinates":[[[-72.8637,41.1134],[-72.0818,41.2622],[-72.0192,41.2906],[-71.9295,41.3104],[-71.9073,41.3045],[-71.791,41.1841],[-71.7906,41.1018],[-71.7819,41.0962],[-71.7775,41.0673],[-71.7941,41.037],[-71.8371,41.0109],[-71.8701,40.997],[-71.9317,40.9825],[-72.3745,40.8186],[-72.6245,40.7456],[-72.7495,40.7134],[-72.8286,40.6869],[-72.8745,40.675],[-73.014,40.6251],[-73.1246,40.5984],[-73.2496,40.5626],[-73.274,40.5513],[-73.3263,40.5569],[-73.4253,40.5343],[-73.4256,40.6563],[-73.4233,40.6705],[-73.4554,40.8426],[-73.4641,40.8596],[-73.4625,40.8673],[-73.4674,40.8681],[-73.4761,40.8771],[-73.4773,40.8992],[-73.4879,40.9158],[-73.4974,40.9232],[-73.4932,40.9415],[-73.4846,40.9469],[-73.4644,40.9376],[-73.4376,40.935],[-73.4296,40.9282],[-73.4319,40.989],[-73.2496,41.0259],[-72.9995,41.0871],[-72.8637,41.1134]]]}},{"type":"Feature","properties":{"geoid":"36105","name":"Sullivan","n":475,"inprog":23,"completed":41,"juris":26,"nyc":0},"geometry":{"type":"Polygon","coordinates":[[[-75.054,41.7301],[-75.053,41.7518],[-75.0612,41.7648],[-75.0764,41.7717],[-75.1006,41.7691],[-75.1046,41.7738],[-75.1009,41.7889],[-75.092,41.797],[-75.0767,41.7985],[-75.0722,41.8141],[-75.0899,41.8117],[-75.1006,41.8189],[-75.1127,41.8224],[-75.115,41.8445],[-75.131,41.8453],[-75.1399,41.8521],[-75.1447,41.8517],[-74.7807,42.0164],[-74.4537,41.8756],[-74.4869,41.8353],[-74.5751,41.7453],[-74.3951,41.6449],[-74.3868,41.6286],[-74.386,41.6179],[-74.3759,41.6046],[-74.376,41.598],[-74.3643,41.594],[-74.3701,41.5886],[-74.38,41.5874],[-74.3849,41.5834],[-74.3905,41.5863],[-74.3976,41.5751],[-74.4066,41.5722],[-74.4086,41.5749],[-74.4111,41.571],[-74.4083,41.5683],[-74.4183,41.5697],[-74.4197,41.5624],[-74.4298,41.5585],[-74.4261,41.5562],[-74.4362,41.5511],[-74.4348,41.5464],[-74.4386,41.5474],[-74.4392,41.543],[-74.4454,41.544],[-74.4446,41.5372],[-74.4545,41.5334],[-74.4571,41.5275],[-74.4657,41.523],[-74.4656,41.5169],[-74.4761,41.5104],[-74.4756,41.504],[-74.7524,41.4937],[-74.7621,41.4885],[-74.7596,41.4819],[-74.7542,41.4785],[-74.7504,41.4643],[-74.7598,41.4608],[-74.7586,41.4545],[-74.7625,41.4495],[-74.7561,41.4339],[-74.7519,41.4325],[-74.7564,41.428],[-74.7546,41.4249],[-74.7586,41.4233],[-74.7727,41.4263],[-74.7931,41.4224],[-74.8014,41.4387],[-74.8094,41.4431],[-74.832,41.4304],[-74.8577,41.4442],[-74.8926,41.4386],[-74.8964,41.4422],[-74.8892,41.4511],[-74.8902,41.4556],[-74.9066,41.4609],[-74.9092,41.4724],[-74.913,41.476],[-74.9429,41.4836],[-74.9582,41.4766],[-74.9828,41.4805],[-74.9856,41.4859],[-74.9823,41.4987],[-74.9842,41.5065],[-74.988,41.5089],[-75.0036,41.5083],[-75.0007,41.5186],[-75.0032,41.5235],[-75.0245,41.5346],[-75.0247,41.5401],[-75.016,41.5442],[-75.0188,41.5524],[-75.0281,41.5643],[-75.0405,41.5697],[-75.0472,41.5837],[-75.06,41.5908],[-75.0746,41.6063],[-75.0697,41.6101],[-75.0597,41.6104],[-75.0597,41.6176],[-75.0467,41.6156],[-75.0442,41.6181],[-75.0436,41.6233],[-75.0486,41.633],[-75.0495,41.6603],[-75.0595,41.6723],[-75.0513,41.68],[-75.0526,41.6881],[-75.069,41.7093],[-75.0662,41.7128],[-75.0498,41.7131],[-75.054,41.7301]]]}},{"type":"Feature","properties":{"geoid":"36107","name":"Tioga","n":138,"inprog":0,"completed":0,"juris":16,"nyc":0},"geometry":{"type":"Polygon","coordinates":[[[-76.2473,42.3343],[-76.2455,42.3419],[-76.2377,42.3513],[-76.2421,42.3637],[-76.2796,42.38],[-76.2986,42.3817],[-76.2963,42.3896],[-76.2984,42.3958],[-76.2932,42.4066],[-76.1302,42.4103],[-76.1297,42.402],[-76.1245,42.402],[-76.1202,42.3807],[-76.1229,42.3808],[-76.1224,42.3672],[-76.1146,42.3671],[-76.1146,42.3573],[-76.1119,42.3573],[-76.1099,42.3473],[-76.1093,42.3373],[-76.1167,42.3372],[-76.1164,42.3266],[-76.1124,42.3265],[-76.1124,42.3186],[-76.1064,42.3187],[-76.1063,42.3103],[-76.1016,42.3104],[-76.1016,42.3033],[-76.0991,42.3034],[-76.0988,42.2937],[-76.1066,42.2935],[-76.1066,42.2874],[-76.1012,42.2873],[-76.1006,42.2784],[-76.0877,42.2788],[-76.0807,42.258],[-76.0966,42.2574],[-76.0963,42.2495],[-76.0909,42.2496],[-76.0845,42.2305],[-76.0811,42.2305],[-76.0814,42.211],[-76.0856,42.2108],[-76.0837,42.1938],[-76.0873,42.1936],[-76.0867,42.1869],[-76.1162,42.1856],[-76.1115,42.1123],[-76.1076,42.1124],[-76.1072,42.102],[-76.1115,42.1012],[-76.1048,42.0316],[-76.1058,41.9989],[-76.5577,42.0001],[-76.5613,42.0095],[-76.5415,42.0517],[-76.5506,42.0796],[-76.5562,42.1267],[-76.5594,42.1313],[-76.5542,42.1315],[-76.5586,42.1364],[-76.5579,42.1453],[-76.5636,42.1525],[-76.5627,42.1559],[-76.5365,42.1554],[-76.5358,42.2501],[-76.5383,42.2818],[-76.474,42.2811],[-76.4745,42.2638],[-76.4162,42.263],[-76.4153,42.3184],[-76.3509,42.3183],[-76.3506,42.3084],[-76.2882,42.3082],[-76.2882,42.2968],[-76.2501,42.2967],[-76.2514,42.3249],[-76.247,42.3291],[-76.2473,42.3343]]]}},{"type":"Feature","properties":{"geoid":"36109","name":"Tompkins","n":130,"inprog":1,"completed":0,"juris":17,"nyc":0},"geometry":{"type":"Polygon","coordinates":[[[-76.586,42.5499],[-76.6122,42.5629],[-76.6268,42.5739],[-76.6562,42.6048],[-76.6665,42.6235],[-76.6145,42.6252],[-76.6143,42.6221],[-76.4587,42.6274],[-76.4585,42.6186],[-76.2656,42.6236],[-76.2534,42.4076],[-76.2932,42.4066],[-76.2984,42.3958],[-76.2963,42.3896],[-76.2996,42.3845],[-76.2955,42.3801],[-76.2807,42.3803],[-76.2653,42.3753],[-76.2423,42.3638],[-76.2399,42.3599],[-76.2377,42.3511],[-76.2455,42.3419],[-76.247,42.3291],[-76.2514,42.325],[-76.2501,42.2967],[-76.2882,42.2968],[-76.2882,42.3082],[-76.3506,42.3084],[-76.3509,42.3183],[-76.4153,42.3184],[-76.4162,42.263],[-76.4745,42.2638],[-76.474,42.2811],[-76.6914,42.2843],[-76.6906,42.3732],[-76.6857,42.3751],[-76.6967,42.5468],[-76.586,42.5499]]]}},{"type":"Feature","properties":{"geoid":"36111","name":"Ulster","n":214,"inprog":15,"completed":0,"juris":16,"nyc":0},"geometry":{"type":"Polygon","coordinates":[[[-74.674,41.9717],[-74.7807,42.0164],[-74.5536,42.1215],[-74.531,42.1465],[-74.504,42.1449],[-74.4517,42.1692],[-74.3076,42.1143],[-74.0748,42.0966],[-74.0424,42.1704],[-74.0249,42.1621],[-74.0036,42.1634],[-74.0024,42.177],[-73.9999,42.1757],[-73.9184,42.1289],[-73.9107,42.1273],[-73.9215,42.11],[-73.9291,42.0817],[-73.9301,42.0762],[-73.9263,42.0706],[-73.9327,42.0608],[-73.9373,42.0298],[-73.9334,42.0157],[-73.9528,41.9571],[-73.958,41.9211],[-73.9644,41.9131],[-73.9622,41.901],[-73.9451,41.8815],[-73.9393,41.8669],[-73.9489,41.8486],[-73.9483,41.8157],[-73.9524,41.788],[-73.9516,41.7706],[-73.9408,41.7543],[-73.9411,41.7327],[-73.9467,41.6994],[-73.9425,41.6841],[-73.9474,41.6675],[-73.9526,41.6252],[-73.9533,41.59],[-74.0537,41.5806],[-74.0538,41.5861],[-74.0681,41.606],[-74.0899,41.5986],[-74.0987,41.6073],[-74.1345,41.6157],[-74.1264,41.5825],[-74.1854,41.5941],[-74.1875,41.5908],[-74.2516,41.6054],[-74.2502,41.6293],[-74.2641,41.6327],[-74.2923,41.6183],[-74.2957,41.6197],[-74.3043,41.6157],[-74.306,41.609],[-74.312,41.6113],[-74.3202,41.603],[-74.33,41.6014],[-74.332,41.5967],[-74.3409,41.5944],[-74.3504,41.5986],[-74.3535,41.5917],[-74.3683,41.5914],[-74.3643,41.594],[-74.376,41.598],[-74.3759,41.6046],[-74.386,41.6179],[-74.3868,41.6286],[-74.3951,41.6449],[-74.5751,41.7453],[-74.4869,41.8353],[-74.4537,41.8756],[-74.674,41.9717]]]}},{"type":"Feature","properties":{"geoid":"36113","name":"Warren","n":303,"inprog":0,"completed":0,"juris":14,"nyc":0},"geometry":{"type":"Polygon","coordinates":[[[-74.1826,43.5209],[-74.2146,43.7287],[-73.4955,43.7993],[-73.4367,43.8018],[-73.4709,43.7758],[-73.4713,43.7717],[-73.4603,43.7689],[-73.4573,43.7652],[-73.4578,43.7616],[-73.4667,43.7581],[-73.4632,43.758],[-73.4601,43.7473],[-73.4599,43.7371],[-73.4629,43.739],[-73.4644,43.7334],[-73.4593,43.7297],[-73.4646,43.7309],[-73.4639,43.7258],[-73.4673,43.7252],[-73.4667,43.7212],[-73.471,43.7208],[-73.4701,43.7162],[-73.4749,43.711],[-73.4719,43.7069],[-73.4821,43.6962],[-73.4867,43.6795],[-73.4921,43.6729],[-73.4965,43.6731],[-73.4962,43.6702],[-73.4925,43.6699],[-73.493,43.6628],[-73.4967,43.6617],[-73.4934,43.6552],[-73.499,43.6507],[-73.5024,43.652],[-73.5021,43.6451],[-73.5035,43.6471],[-73.5041,43.644],[-73.5125,43.6435],[-73.5161,43.6397],[-73.5143,43.6374],[-73.5271,43.6359],[-73.539,43.6257],[-73.5552,43.6046],[-73.565,43.5982],[-73.5665,43.5908],[-73.5751,43.5821],[-73.5815,43.581],[-73.5819,43.5786],[-73.5771,43.5794],[-73.5809,43.5736],[-73.6132,43.5631],[-73.611,43.5605],[-73.6141,43.5561],[-73.607,43.5519],[-73.6171,43.5373],[-73.619,43.5206],[-73.6268,43.5213],[-73.6251,43.5191],[-73.6289,43.5188],[-73.6324,43.512],[-73.6325,43.5012],[-73.6362,43.5001],[-73.6316,43.4973],[-73.6368,43.4969],[-73.6322,43.4938],[-73.6283,43.484],[-73.595,43.3061],[-73.6281,43.3039],[-73.6368,43.3069],[-73.6428,43.3042],[-73.6419,43.2933],[-73.6507,43.2896],[-73.6713,43.2932],[-73.6752,43.2851],[-73.6611,43.2729],[-73.6696,43.2639],[-73.6765,43.2635],[-73.6808,43.2674],[-73.685,43.2809],[-73.6902,43.2841],[-73.6963,43.2785],[-73.7046,43.2794],[-73.711,43.2738],[-73.7347,43.2689],[-73.74,43.2647],[-73.7376,43.2552],[-73.744,43.2427],[-73.7602,43.2319],[-73.7664,43.2222],[-73.7727,43.2247],[-73.7795,43.2349],[-73.7929,43.2462],[-73.8154,43.251],[-73.8259,43.2456],[-73.8349,43.251],[-73.8356,43.2658],[-73.8252,43.2775],[-73.8275,43.2846],[-73.8246,43.3043],[-73.8369,43.3066],[-73.8432,43.3189],[-73.8586,43.3281],[-73.8533,43.3378],[-73.864,43.3455],[-73.8648,43.3542],[-73.8751,43.3619],[-73.871,43.3725],[-73.8833,43.398],[-74.1601,43.3715],[-74.1826,43.5209]]]}},{"type":"Feature","properties":{"geoid":"36115","name":"Washington","n":163,"inprog":0,"completed":0,"juris":24,"nyc":0},"geometry":{"type":"Polygon","coordinates":[[[-73.4839,43.6906],[-73.4806,43.6988],[-73.4764,43.6996],[-73.4764,43.7037],[-73.472,43.7068],[-73.4749,43.711],[-73.4701,43.7162],[-73.471,43.7208],[-73.4667,43.7212],[-73.4673,43.7252],[-73.4639,43.7258],[-73.4646,43.7309],[-73.4593,43.7297],[-73.4644,43.7334],[-73.4629,43.739],[-73.4599,43.7371],[-73.4601,43.7473],[-73.4632,43.758],[-73.4667,43.7581],[-73.4578,43.7616],[-73.4573,43.7652],[-73.4603,43.7689],[-73.4713,43.7717],[-73.4698,43.7774],[-73.4579,43.7833],[-73.448,43.7942],[-73.437,43.8006],[-73.4381,43.8037],[-73.3793,43.8085],[-73.3768,43.7992],[-73.3582,43.7865],[-73.3508,43.7714],[-73.3699,43.7439],[-73.3706,43.7253],[-73.3859,43.7113],[-73.3955,43.6968],[-73.4047,43.6902],[-73.4041,43.6813],[-73.4155,43.6525],[-73.4265,43.6426],[-73.4284,43.6355],[-73.4177,43.6217],[-73.4237,43.6124],[-73.4216,43.603],[-73.4309,43.587],[-73.3958,43.5681],[-73.3833,43.5772],[-73.3853,43.5833],[-73.3825,43.5866],[-73.3869,43.5908],[-73.3821,43.5918],[-73.3835,43.5974],[-73.3774,43.5984],[-73.3725,43.6048],[-73.3764,43.6088],[-73.3698,43.6194],[-73.3719,43.6245],[-73.3543,43.6262],[-73.3488,43.6215],[-73.3445,43.6263],[-73.3401,43.6246],[-73.3342,43.628],[-73.3277,43.6259],[-73.3178,43.6285],[-73.3112,43.6241],[-73.3064,43.6283],[-73.3026,43.6257],[-73.3004,43.6178],[-73.3028,43.6098],[-73.298,43.61],[-73.291,43.5992],[-73.2969,43.5873],[-73.2921,43.5845],[-73.2973,43.5794],[-73.2953,43.5768],[-73.2849,43.5793],[-73.2809,43.5736],[-73.2679,43.5722],[-73.269,43.5699],[-73.2586,43.5649],[-73.2526,43.5569],[-73.2545,43.5556],[-73.2486,43.5539],[-73.2504,43.5504],[-73.2478,43.5451],[-73.2501,43.5434],[-73.2416,43.535],[-73.2419,43.5294],[-73.2477,43.5232],[-73.2565,43.2601],[-73.2743,42.9437],[-73.3802,42.9437],[-73.3797,42.9478],[-73.3889,42.9482],[-73.3935,42.9531],[-73.4032,42.9512],[-73.4082,42.9569],[-73.4212,42.9549],[-73.4306,42.9586],[-73.4493,42.9512],[-73.4506,42.9446],[-73.6355,42.9413],[-73.6293,42.9515],[-73.6311,42.9706],[-73.6093,42.9822],[-73.6067,42.9992],[-73.5931,43.0154],[-73.5864,43.0485],[-73.5779,43.0569],[-73.5818,43.0702],[-73.5756,43.0813],[-73.5782,43.0906],[-73.5733,43.1005],[-73.5764,43.1179],[-73.5856,43.1237],[-73.5909,43.1351],[-73.5899,43.141],[-73.5802,43.1529],[-73.5833,43.1656],[-73.5898,43.1705],[-73.581,43.1825],[-73.5858,43.1924],[-73.5792,43.2097],[-73.586,43.2274],[-73.5942,43.2334],[-73.5975,43.241],[-73.5879,43.2535],[-73.5872,43.2597],[-73.5924,43.2671],[-73.601,43.2698],[-73.6,43.2798],[-73.5885,43.2994],[-73.595,43.3061],[-73.6283,43.484],[-73.6322,43.4938],[-73.6368,43.4969],[-73.6316,43.4973],[-73.6362,43.5001],[-73.6325,43.5012],[-73.6324,43.512],[-73.6289,43.5188],[-73.6251,43.5191],[-73.6268,43.5213],[-73.619,43.5206],[-73.6171,43.5373],[-73.607,43.5519],[-73.6141,43.5561],[-73.611,43.5605],[-73.6132,43.5631],[-73.5809,43.5736],[-73.5771,43.5794],[-73.5819,43.5786],[-73.5815,43.581],[-73.5751,43.5821],[-73.5665,43.5908],[-73.565,43.5982],[-73.5552,43.6046],[-73.539,43.6257],[-73.5271,43.6359],[-73.5143,43.6374],[-73.5161,43.6397],[-73.5125,43.6435],[-73.5012,43.6458],[-73.5024,43.652],[-73.4961,43.652],[-73.4929,43.6571],[-73.4967,43.6617],[-73.493,43.6628],[-73.4925,43.6699],[-73.4966,43.6729],[-73.4921,43.6729],[-73.4871,43.6789],[-73.4839,43.6906]]]}},{"type":"Feature","properties":{"geoid":"36117","name":"Wayne","n":150,"inprog":0,"completed":0,"juris":25,"nyc":0},"geometry":{"type":"Polygon","coordinates":[[[-77.3733,43.1234],[-77.3762,43.3452],[-77.388,43.6315],[-76.7762,43.6295],[-76.7535,43.6843],[-76.7147,43.2658],[-76.7023,43.0804],[-76.7059,43.0708],[-76.7178,43.0626],[-76.7191,43.0371],[-76.7138,43.024],[-76.9639,43.0132],[-77.1334,43.0125],[-77.1343,43.0399],[-77.2466,43.0398],[-77.2468,43.0347],[-77.3715,43.0347],[-77.3733,43.1234]]]}},{"type":"Feature","properties":{"geoid":"36119","name":"Westchester","n":554,"inprog":21,"completed":4,"juris":45,"nyc":0},"geometry":{"type":"Polygon","coordinates":[[[-73.9093,41.1644],[-73.9315,41.205],[-73.9614,41.2342],[-73.9613,41.242],[-73.9708,41.2479],[-73.9723,41.2562],[-73.9697,41.2632],[-73.9475,41.2846],[-73.9459,41.2895],[-73.967,41.3017],[-73.981,41.3142],[-73.9825,41.3218],[-73.5447,41.3665],[-73.551,41.2954],[-73.4827,41.2128],[-73.7278,41.1007],[-73.6553,41.0122],[-73.6603,41.0005],[-73.6572,40.9909],[-73.6597,40.9879],[-73.6129,40.9509],[-73.7481,40.8717],[-73.8384,40.8941],[-73.8414,40.9042],[-73.8535,40.9075],[-73.8511,40.91],[-73.8543,40.909],[-73.8594,40.9004],[-73.9183,40.9177],[-73.8961,40.9819],[-73.8895,41.0341],[-73.8949,41.0824],[-73.8875,41.1383],[-73.8925,41.1506],[-73.9093,41.1644]]]}},{"type":"Feature","properties":{"geoid":"36121","name":"Wyoming","n":240,"inprog":0,"completed":0,"juris":22,"nyc":0},"geometry":{"type":"Polygon","coordinates":[[[-78.4638,42.6939],[-78.4632,42.7805],[-78.4881,42.7807],[-78.4863,42.8677],[-78.0742,42.8702],[-78.0742,42.8637],[-78.0006,42.865],[-77.9547,42.8625],[-77.9563,42.6673],[-77.9626,42.662],[-77.9684,42.663],[-77.9744,42.6554],[-77.9712,42.6482],[-77.9773,42.6452],[-77.9766,42.6378],[-77.9831,42.636],[-77.9814,42.6311],[-77.988,42.6279],[-77.9873,42.6194],[-77.9904,42.6149],[-77.9965,42.6161],[-78.0066,42.6101],[-78.0137,42.6121],[-78.016,42.6074],[-78.0294,42.6033],[-78.0269,42.5981],[-78.0219,42.5961],[-78.0146,42.5997],[-78.0058,42.5987],[-78.0049,42.5924],[-78.012,42.5869],[-78.0224,42.5849],[-78.0365,42.5877],[-78.0508,42.576],[-78.0463,42.5702],[-78.0344,42.5738],[-78.0281,42.568],[-78.0355,42.5673],[-78.048,42.5579],[-78.052,42.5477],[-78.0493,42.5439],[-78.061,42.5359],[-78.0589,42.5322],[-78.05,42.5386],[-78.0426,42.5352],[-78.048,42.5269],[-78.041,42.5291],[-78.0383,42.5215],[-78.4646,42.5192],[-78.462,42.625],[-78.4638,42.6939]]]}},{"type":"Feature","properties":{"geoid":"36123","name":"Yates","n":68,"inprog":0,"completed":0,"juris":13,"nyc":0},"geometry":{"type":"Polygon","coordinates":[[[-77.1232,42.7617],[-76.9474,42.7644],[-76.945,42.7373],[-76.9387,42.7215],[-76.8987,42.6666],[-76.8953,42.6563],[-76.8944,42.5576],[-76.9008,42.4938],[-76.8898,42.4631],[-76.964,42.4592],[-76.9645,42.4642],[-76.9879,42.4632],[-76.9893,42.4848],[-77.1072,42.4838],[-77.1076,42.5058],[-77.1148,42.5083],[-77.1273,42.4973],[-77.1439,42.4947],[-77.1495,42.5001],[-77.1501,42.5079],[-77.1469,42.5321],[-77.1496,42.5539],[-77.1438,42.5769],[-77.3665,42.5764],[-77.3671,42.6679],[-77.3574,42.668],[-77.3544,42.6972],[-77.3466,42.7164],[-77.3367,42.734],[-77.313,42.7613],[-77.1232,42.7617]]]}}]}