{"type":"FeatureCollection","features":[{"type":"Feature","geometry":{"type":"Point","coordinates":[-74.79697,41.9387]},"properties":{"s":0,"p":3,"j":"Rockland (Town)","n":"Rockland - Acquire Generators for Critical Facilities","id":"1100333"}},{"type":"Feature","geometry":{"type":"Point","coordinates":[-74.9299,41.77989]},"properties":{"s":0,"p":3,"j":"Jeffersonville (Village)","n":"Jeffersonville - Laundry Brook and Callicoon Creek Intersection Flooding","id":"1100334"}},{"type":"Feature","geometry":{"type":"Point","coordinates":[-74.44376,41.55195]},"properties":{"s":0,"p":3,"j":"Bloomingburg (Village)","n":"Increase Capacity To Manage Snow On Pedestrian Walkways","id":"1100335"}},{"type":"Feature","geometry":{"type":"Point","coordinates":[-74.59106,41.87202]},"properties":{"s":0,"p":3,"j":"Neversink (Town)","n":"Neversink - Communication Tower Back Generation","id":"1100336"}},{"type":"Feature","geometry":{"type":"Point","coordinates":[-74.49556,41.58636]},"properties":{"s":0,"p":3,"j":"Mamakating (Town)","n":"Mamakating - Landslide","id":"1100337"}},{"type":"Feature","geometry":{"type":"Point","coordinates":[-75.00357,41.75965]},"properties":{"s":0,"p":3,"j":"Delaware (Town)","n":"Delaware - Welch Rd Bridge","id":"1100338"}},{"type":"Feature","geometry":{"type":"Point","coordinates":[-74.69666,41.54681]},"properties":{"s":0,"p":3,"j":"Forestburgh (Town)","n":"Forestburgh - Gallagan Rd Flooding Issues/Washout","id":"1100339"}},{"type":"Feature","geometry":{"type":"Point","coordinates":[-74.57407,41.7121]},"properties":{"s":0,"p":3,"j":"Woodridge (Village)","n":"Woodridge - Acquire New Generator for Village Hall","id":"1100340"}},{"type":"Feature","geometry":{"type":"Point","coordinates":[-74.57407,41.7121]},"properties":{"s":0,"p":3,"j":"Woodridge (Village)","n":"Upsize Greenfield Rd Bridge","id":"1100341"}},{"type":"Feature","geometry":{"type":"Point","coordinates":[-74.76811,41.71642]},"properties":{"s":1,"p":4,"j":"Sullivan (County)","n":"Sullivan County - County Road 164 Mitigation","id":"1100342"}},{"type":"Feature","geometry":{"type":"Point","coordinates":[-74.48565,41.57609]},"properties":{"s":0,"p":3,"j":"Wurtsboro (Village)","n":"Improve Stormwater Drainage System","id":"1100343"}},{"type":"Feature","geometry":{"type":"Point","coordinates":[-74.48565,41.57609]},"properties":{"s":0,"p":3,"j":"Wurtsboro (Village)","n":"Implement Maintenance Program for Debris Removal","id":"1100344"}},{"type":"Feature","geometry":{"type":"Point","coordinates":[-74.98297,41.58366]},"properties":{"s":0,"p":3,"j":"Tusten (Town)","n":"Tusten - Narrowsburg Flats Flooding LFA","id":"1100345"}},{"type":"Feature","geometry":{"type":"Point","coordinates":[-74.67386,41.64719]},"properties":{"s":1,"p":3,"j":"Thompson (Town)","n":"Thompson - Wastewater System Infrastructure","id":"1100346"}},{"type":"Feature","geometry":{"type":"Point","coordinates":[-74.98297,41.58366]},"properties":{"s":0,"p":3,"j":"Tusten (Town)","n":"Tusten - 10 Mile Area Flooding LFA","id":"1100347"}},{"type":"Feature","geometry":{"type":"Point","coordinates":[-74.67386,41.64719]},"properties":{"s":0,"p":3,"j":"Thompson (Town)","n":"Thompson - Vegetation Cleanup/Maintenance","id":"1100348"}},{"type":"Feature","geometry":{"type":"Point","coordinates":[-74.98297,41.58366]},"properties":{"s":0,"p":3,"j":"Tusten (Town)","n":"Tusten - Replace/Rehab/Maintain Stone Arch Bridge","id":"1100349"}},{"type":"Feature","geometry":{"type":"Point","coordinates":[-74.48565,41.57609]},"properties":{"s":0,"p":3,"j":"Wurtsboro (Village)","n":"Installation of new storm drains","id":"1100350"}},{"type":"Feature","geometry":{"type":"Point","coordinates":[-74.79697,41.9387]},"properties":{"s":0,"p":3,"j":"Rockland (Town)","n":"Rockland - Cattail Creek Culvert/Bridge","id":"1100351"}},{"type":"Feature","geometry":{"type":"Point","coordinates":[-74.59106,41.87202]},"properties":{"s":0,"p":3,"j":"Neversink (Town)","n":"Neversink - Critical Facilities Backup Generator","id":"1100352"}},{"type":"Feature","geometry":{"type":"Point","coordinates":[-74.79697,41.9387]},"properties":{"s":0,"p":3,"j":"Rockland (Town)","n":"Rockland - Roscoe LFA","id":"1100353"}},{"type":"Feature","geometry":{"type":"Point","coordinates":[-74.68734,41.65214]},"properties":{"s":0,"p":3,"j":"Monticello (Village)","n":"Monticello - Sturgis Road Flood Mitigation","id":"1100354"}},{"type":"Feature","geometry":{"type":"Point","coordinates":[-74.68734,41.65214]},"properties":{"s":0,"p":3,"j":"Monticello (Village)","n":"Monticello - Lakewood Culvert Issues","id":"1100355"}},{"type":"Feature","geometry":{"type":"Point","coordinates":[-74.68734,41.65214]},"properties":{"s":0,"p":3,"j":"Monticello (Village)","n":"Monticello - Backup Generation for Village Hall/Ted Strobel Building","id":"1100356"}},{"type":"Feature","geometry":{"type":"Point","coordinates":[-74.49556,41.58636]},"properties":{"s":0,"p":3,"j":"Mamakating (Town)","n":"Mamakating - Wurtsboro Hills Secondary Access","id":"1100357"}},{"type":"Feature","geometry":{"type":"Point","coordinates":[-74.68734,41.65214]},"properties":{"s":0,"p":3,"j":"Monticello (Village)","n":"Monticello - Upgrade Monticello Street and Lawrence Ave Culvert","id":"1100358"}},{"type":"Feature","geometry":{"type":"Point","coordinates":[-74.49556,41.58636]},"properties":{"s":0,"p":3,"j":"Mamakating (Town)","n":"Mamakating - Route 209 Flooding Assessment","id":"1100359"}},{"type":"Feature","geometry":{"type":"Point","coordinates":[-74.81157,41.49371]},"properties":{"s":0,"p":3,"j":"Lumberland (Town)","n":"Lumberland - Rt 97 Flooding","id":"1100360"}},{"type":"Feature","geometry":{"type":"Point","coordinates":[-74.81157,41.49371]},"properties":{"s":0,"p":3,"j":"Lumberland (Town)","n":"Lumberland - Update Culverts (Hollow Road)","id":"1100361"}},{"type":"Feature","geometry":{"type":"Point","coordinates":[-74.74302,41.79627]},"properties":{"s":0,"p":3,"j":"Liberty (Village)","n":"Liberty (V) - 2020 Village of Liberty High Risk Culvert Collapse and Sanitary Sewer Failure Mitigation Project.","id":"1100362"}},{"type":"Feature","geometry":{"type":"Point","coordinates":[-74.74302,41.79627]},"properties":{"s":0,"p":3,"j":"Liberty (Village)","n":"Liberty (V) - Rt 52, South Main Culvert","id":"1100363"}},{"type":"Feature","geometry":{"type":"Point","coordinates":[-74.74302,41.79627]},"properties":{"s":0,"p":3,"j":"Liberty (Village)","n":"Liberty (V) - Hydrological Study/Daylighting","id":"1100364"}},{"type":"Feature","geometry":{"type":"Point","coordinates":[-74.74302,41.79627]},"properties":{"s":0,"p":3,"j":"Liberty (Village)","n":"Liberty (V) - Gas Pumps no backup generation","id":"1100365"}},{"type":"Feature","geometry":{"type":"Point","coordinates":[-74.77864,41.81376]},"properties":{"s":0,"p":3,"j":"Liberty (Town)","n":"Liberty - Update Liberty Town/Village Joint Comprehensive Plan","id":"1100366"}},{"type":"Feature","geometry":{"type":"Point","coordinates":[-74.77864,41.81376]},"properties":{"s":0,"p":3,"j":"Liberty (Town)","n":"Liberty (T) - Upsize Culvert on Aden Road","id":"1100367"}},{"type":"Feature","geometry":{"type":"Point","coordinates":[-74.77864,41.81376]},"properties":{"s":0,"p":3,"j":"Liberty (Town)","n":"Liberty (T) - Upsize Culvert on Airport Rd","id":"1100368"}},{"type":"Feature","geometry":{"type":"Point","coordinates":[-74.9299,41.77989]},"properties":{"s":0,"p":3,"j":"Jeffersonville (Village)","n":"Jeffersonville - The Island\" Flood Prone Properties\"","id":"1100369"}},{"type":"Feature","geometry":{"type":"Point","coordinates":[-74.9299,41.77989]},"properties":{"s":0,"p":3,"j":"Jeffersonville (Village)","n":"Jeffersonville - Lake Jeffersonville Dam Analysis","id":"1100370"}},{"type":"Feature","geometry":{"type":"Point","coordinates":[-74.8891,41.5387]},"properties":{"s":0,"p":3,"j":"Highland (Town)","n":"Acquire emergency generators for multiple critical facilities","id":"1100371"}},{"type":"Feature","geometry":{"type":"Point","coordinates":[-74.8891,41.5387]},"properties":{"s":0,"p":3,"j":"Highland (Town)","n":"Storm drain cleaning and maintenance","id":"1100372"}},{"type":"Feature","geometry":{"type":"Point","coordinates":[-75.02816,41.85956]},"properties":{"s":0,"p":3,"j":"Fremont (Town)","n":"Fremont - Newman Hill Rd. Culvert Flooding Issues","id":"1100373"}},{"type":"Feature","geometry":{"type":"Point","coordinates":[-75.02816,41.85956]},"properties":{"s":0,"p":3,"j":"Fremont (Town)","n":"Fremont - Long Eddy Crossing Flood Mitigation","id":"1100374"}},{"type":"Feature","geometry":{"type":"Point","coordinates":[-74.60446,41.73971]},"properties":{"s":2,"p":3,"j":"Fallsburg (Town)","n":"Fallsburg - Maplewood Ave Flooding/Culvert Issues","id":"1100375"}},{"type":"Feature","geometry":{"type":"Point","coordinates":[-74.60446,41.73971]},"properties":{"s":0,"p":3,"j":"Fallsburg (Town)","n":"Fallsburg - Marsh Rd. Aging Culverts/Flooding Issues","id":"1100376"}},{"type":"Feature","geometry":{"type":"Point","coordinates":[-74.69666,41.54681]},"properties":{"s":0,"p":3,"j":"Forestburgh (Town)","n":"Forestburgh - Vegetation Maintenance Program to Reduce Risk from Wind","id":"1100377"}},{"type":"Feature","geometry":{"type":"Point","coordinates":[-74.60446,41.73971]},"properties":{"s":0,"p":3,"j":"Fallsburg (Town)","n":"Fallsburg - Acquire generator for Mountaindale Fire District","id":"1100378"}},{"type":"Feature","geometry":{"type":"Point","coordinates":[-75.00357,41.75965]},"properties":{"s":1,"p":3,"j":"Delaware (Town)","n":"Delaware - Kohlertown Route 52, Culvert Issues","id":"1100379"}},{"type":"Feature","geometry":{"type":"Point","coordinates":[-74.76811,41.71642]},"properties":{"s":0,"p":4,"j":"Sullivan (County)","n":"Town Highway 17- Bridge #241 Replacement Including Flood Mit. Improvement","id":"1100380"}},{"type":"Feature","geometry":{"type":"Point","coordinates":[-75.00357,41.75965]},"properties":{"s":1,"p":3,"j":"Delaware (Town)","n":"Delaware - New Water District Well Concerns","id":"1100381"}},{"type":"Feature","geometry":{"type":"Point","coordinates":[-74.76811,41.71642]},"properties":{"s":0,"p":4,"j":"Sullivan (County)","n":"Town Highway 38- Bridge #261 Replacement Including Flood Mit. Improvements","id":"1100382"}},{"type":"Feature","geometry":{"type":"Point","coordinates":[-74.76811,41.71642]},"properties":{"s":0,"p":4,"j":"Sullivan (County)","n":"Sullivan County - Town Highway 61, Bridge 313 Mitigation","id":"1100383"}},{"type":"Feature","geometry":{"type":"Point","coordinates":[-74.76811,41.71642]},"properties":{"s":0,"p":4,"j":"Sullivan (County)","n":"Town Highway 21- Bridge #272 Replacement Including Flood Mit. Improvements","id":"1100384"}},{"type":"Feature","geometry":{"type":"Point","coordinates":[-74.76811,41.71642]},"properties":{"s":0,"p":4,"j":"Sullivan (County)","n":"Sullivan County - County Road 14 Culvert Upsizing","id":"1100385"}},{"type":"Feature","geometry":{"type":"Point","coordinates":[-74.76811,41.71642]},"properties":{"s":0,"p":4,"j":"Sullivan (County)","n":"Town Highway 22- Bridge #270 Replacement Including Flood Mit. Improvements","id":"1100386"}},{"type":"Feature","geometry":{"type":"Point","coordinates":[-74.76811,41.71642]},"properties":{"s":0,"p":4,"j":"Sullivan (County)","n":"Sullivan County - County Road 153 Mitigation","id":"1100387"}},{"type":"Feature","geometry":{"type":"Point","coordinates":[-74.92118,41.83459]},"properties":{"s":0,"p":3,"j":"Callicoon (Town)","n":"Callicoon - Dewitt Flats Rd. Flooding at County Owned Bridge","id":"1100388"}},{"type":"Feature","geometry":{"type":"Point","coordinates":[-74.92118,41.83459]},"properties":{"s":0,"p":3,"j":"Callicoon (Town)","n":"Callicoon - Fire Station Flooding Issues","id":"1100389"}},{"type":"Feature","geometry":{"type":"Point","coordinates":[-74.76811,41.71642]},"properties":{"s":0,"p":4,"j":"Sullivan (County)","n":"Sullivan County - County Road 121 Mitigation","id":"1100390"}},{"type":"Feature","geometry":{"type":"Point","coordinates":[-74.44376,41.55195]},"properties":{"s":0,"p":3,"j":"Bloomingburg (Village)","n":"Bloomingburg - Vegetation Maintenance/Trimming Plan","id":"1100391"}},{"type":"Feature","geometry":{"type":"Point","coordinates":[-74.44376,41.55195]},"properties":{"s":0,"p":3,"j":"Bloomingburg (Village)","n":"Bloomingburg - Comprehensive Plan","id":"1100392"}},{"type":"Feature","geometry":{"type":"Point","coordinates":[-74.85075,41.68771]},"properties":{"s":0,"p":3,"j":"Bethel (Town)","n":"Bethel - Upgrade Rt 141 / Rt 55 Culvert","id":"1100393"}},{"type":"Feature","geometry":{"type":"Point","coordinates":[-74.85075,41.68771]},"properties":{"s":0,"p":3,"j":"Bethel (Town)","n":"Bethel - Backup Power Generation to Provide Warming Centers for Influx of Long-term Summer Camp Populations","id":"1100394"}},{"type":"Feature","geometry":{"type":"Point","coordinates":[-74.76811,41.71642]},"properties":{"s":1,"p":4,"j":null,"n":"Livingston Manor","id":"1105512"}},{"type":"Feature","geometry":{"type":"Point","coordinates":[-74.85075,41.68771]},"properties":{"s":0,"p":3,"j":"Bethel (Town)","n":"Bethel - CES Storage (Gas Bulk Storage Tank)","id":"2144125"}},{"type":"Feature","geometry":{"type":"Point","coordinates":[-74.85075,41.68771]},"properties":{"s":0,"p":3,"j":"Bethel (Town)","n":"Bethel - Generators at Critical Facilities","id":"2144126"}},{"type":"Feature","geometry":{"type":"Point","coordinates":[-74.85075,41.68771]},"properties":{"s":0,"p":3,"j":"Bethel (Town)","n":"Bethel - Dam Assessment","id":"2144127"}},{"type":"Feature","geometry":{"type":"Point","coordinates":[-74.85075,41.68771]},"properties":{"s":0,"p":3,"j":"Bethel (Town)","n":"Bethel - Flooding Issues on White Lake Brook","id":"2144128"}},{"type":"Feature","geometry":{"type":"Point","coordinates":[-74.85075,41.68771]},"properties":{"s":0,"p":3,"j":"Bethel (Town)","n":"Bethel - Improve Brook Road","id":"2144129"}},{"type":"Feature","geometry":{"type":"Point","coordinates":[-74.85075,41.68771]},"properties":{"s":0,"p":3,"j":"Bethel (Town)","n":"Bethel - Improve West Shore Road","id":"2144130"}},{"type":"Feature","geometry":{"type":"Point","coordinates":[-74.85075,41.68771]},"properties":{"s":0,"p":3,"j":"Bethel (Town)","n":"Bethel - Performing Arts Traffic Congestion","id":"2144131"}},{"type":"Feature","geometry":{"type":"Point","coordinates":[-74.85075,41.68771]},"properties":{"s":0,"p":3,"j":"Bethel (Town)","n":"Bethel - Replace/Rehab Ballard Rd. Bridge","id":"2144132"}},{"type":"Feature","geometry":{"type":"Point","coordinates":[-74.85075,41.68771]},"properties":{"s":0,"p":3,"j":"Bethel (Town)","n":"Bethel - Replace/Rehab Burr Road Culvert","id":"2144133"}},{"type":"Feature","geometry":{"type":"Point","coordinates":[-74.85075,41.68771]},"properties":{"s":0,"p":3,"j":"Bethel (Town)","n":"Bethel - Replace/Rehab Wormuth Road Culvert & Bridge","id":"2144134"}},{"type":"Feature","geometry":{"type":"Point","coordinates":[-74.85075,41.68771]},"properties":{"s":0,"p":3,"j":"Bethel (Town)","n":"Bethel - Summer Influx Emergency Response and Management","id":"2144135"}},{"type":"Feature","geometry":{"type":"Point","coordinates":[-74.85075,41.68771]},"properties":{"s":0,"p":3,"j":"Bethel (Town)","n":"Bethel -Improve Laird Road","id":"2144136"}},{"type":"Feature","geometry":{"type":"Point","coordinates":[-74.44376,41.55195]},"properties":{"s":0,"p":3,"j":"Bloomingburg (Village)","n":"Bloomingburg - New Development Standards","id":"2144137"}},{"type":"Feature","geometry":{"type":"Point","coordinates":[-74.44376,41.55195]},"properties":{"s":0,"p":3,"j":"Bloomingburg (Village)","n":"Bloomingburg - Wind Events/Clean-up","id":"2144138"}},{"type":"Feature","geometry":{"type":"Point","coordinates":[-74.44376,41.55195]},"properties":{"s":0,"p":3,"j":"Bloomingburg (Village)","n":"Bloomingburg - Zoning Update","id":"2144139"}},{"type":"Feature","geometry":{"type":"Point","coordinates":[-74.92118,41.83459]},"properties":{"s":0,"p":3,"j":"Callicoon (Town)","n":"Callicoon - Acquire emergency generator(s)","id":"2144140"}},{"type":"Feature","geometry":{"type":"Point","coordinates":[-74.92118,41.83459]},"properties":{"s":0,"p":3,"j":"Callicoon (Town)","n":"Callicoon - Earl Myers Bridge Road Maintenance Program","id":"2144141"}},{"type":"Feature","geometry":{"type":"Point","coordinates":[-74.92118,41.83459]},"properties":{"s":0,"p":3,"j":"Callicoon (Town)","n":"Callicoon - Historic School - Flooding Issues","id":"2144142"}},{"type":"Feature","geometry":{"type":"Point","coordinates":[-74.92118,41.83459]},"properties":{"s":0,"p":3,"j":"Callicoon (Town)","n":"Callicoon - J Young Rd Culvert Erosion","id":"2144143"}},{"type":"Feature","geometry":{"type":"Point","coordinates":[-74.92118,41.83459]},"properties":{"s":0,"p":3,"j":"Callicoon (Town)","n":"Callicoon - North Branch Landslides","id":"2144144"}},{"type":"Feature","geometry":{"type":"Point","coordinates":[-74.92118,41.83459]},"properties":{"s":0,"p":3,"j":"Callicoon (Town)","n":"Callicoon - Panther Rock Bridge Flooding Concerns","id":"2144145"}},{"type":"Feature","geometry":{"type":"Point","coordinates":[-74.92118,41.83459]},"properties":{"s":0,"p":3,"j":"Callicoon (Town)","n":"Callicoon - Public Awareness/Education on Hazard Preparation","id":"2144146"}},{"type":"Feature","geometry":{"type":"Point","coordinates":[-74.92118,41.83459]},"properties":{"s":0,"p":3,"j":"Callicoon (Town)","n":"Callicoon - Replace/Rehab Rt 52 Bridge","id":"2144147"}},{"type":"Feature","geometry":{"type":"Point","coordinates":[-74.92118,41.83459]},"properties":{"s":2,"p":3,"j":"Callicoon (Town)","n":"Callicoon - Replace/Rehab Youngsville NYS Bridge","id":"2144148"}},{"type":"Feature","geometry":{"type":"Point","coordinates":[-74.92118,41.83459]},"properties":{"s":0,"p":3,"j":"Callicoon (Town)","n":"Callicoon - Rt 52 Culvert Flooding Concerns","id":"2144149"}},{"type":"Feature","geometry":{"type":"Point","coordinates":[-74.92118,41.83459]},"properties":{"s":2,"p":3,"j":"Callicoon (Town)","n":"Callicoon - Stormwater Management Plan","id":"2144150"}},{"type":"Feature","geometry":{"type":"Point","coordinates":[-74.92118,41.83459]},"properties":{"s":1,"p":3,"j":"Callicoon (Town)","n":"Callicoon - Vegetation Maintenance/Trimming","id":"2144151"}},{"type":"Feature","geometry":{"type":"Point","coordinates":[-74.92118,41.83459]},"properties":{"s":0,"p":3,"j":"Callicoon (Town)","n":"Callicoon - Water and Sewer Expansion","id":"2144152"}},{"type":"Feature","geometry":{"type":"Point","coordinates":[-74.92118,41.83459]},"properties":{"s":0,"p":3,"j":"Callicoon (Town)","n":"Callicoon - Weissman Rd","id":"2144153"}},{"type":"Feature","geometry":{"type":"Point","coordinates":[-74.92118,41.83459]},"properties":{"s":0,"p":3,"j":"Callicoon (Town)","n":"Callicoon, Schoolhouse Rd - flooding issues caused by recent School Athletic fields development","id":"2144154"}},{"type":"Feature","geometry":{"type":"Point","coordinates":[-74.99381,41.6794]},"properties":{"s":0,"p":3,"j":"Cochecton (Town)","n":"Acquire emergency generator(s)","id":"2144155"}},{"type":"Feature","geometry":{"type":"Point","coordinates":[-74.99381,41.6794]},"properties":{"s":0,"p":3,"j":"Cochecton (Town)","n":"Improve highway radio communication system","id":"2144156"}},{"type":"Feature","geometry":{"type":"Point","coordinates":[-74.99381,41.6794]},"properties":{"s":0,"p":3,"j":"Cochecton (Town)","n":"Regularly assess conditions of railroad infrastructure","id":"2144157"}},{"type":"Feature","geometry":{"type":"Point","coordinates":[-75.00357,41.75965]},"properties":{"s":0,"p":3,"j":"Delaware (Town)","n":"Construct New Wastewater Treatment Plant","id":"2144158"}},{"type":"Feature","geometry":{"type":"Point","coordinates":[-75.00357,41.75965]},"properties":{"s":0,"p":3,"j":"Delaware (Town)","n":"County Road 164 - Kohlertown Flood Mitigation Project","id":"2144159"}},{"type":"Feature","geometry":{"type":"Point","coordinates":[-75.00357,41.75965]},"properties":{"s":0,"p":3,"j":"Delaware (Town)","n":"Delaware - Beachwood Rd and Main St Flooding Issues","id":"2144160"}},{"type":"Feature","geometry":{"type":"Point","coordinates":[-75.00357,41.75965]},"properties":{"s":0,"p":3,"j":"Delaware (Town)","n":"Delaware - Broadband/Cellular Access","id":"2144161"}},{"type":"Feature","geometry":{"type":"Point","coordinates":[-75.00357,41.75965]},"properties":{"s":0,"p":3,"j":"Delaware (Town)","n":"Delaware - Callicoon Hamlet Flooding Issues","id":"2144162"}},{"type":"Feature","geometry":{"type":"Point","coordinates":[-75.00357,41.75965]},"properties":{"s":0,"p":3,"j":"Delaware (Town)","n":"Delaware - Comprehensive/Zoning Update","id":"2144163"}},{"type":"Feature","geometry":{"type":"Point","coordinates":[-75.00357,41.75965]},"properties":{"s":0,"p":3,"j":"Delaware (Town)","n":"Delaware - Dam Risk/Vulnerability Assessment","id":"2144164"}},{"type":"Feature","geometry":{"type":"Point","coordinates":[-75.00357,41.75965]},"properties":{"s":0,"p":3,"j":"Delaware (Town)","n":"Delaware - Designated Shelter Locations","id":"2144165"}},{"type":"Feature","geometry":{"type":"Point","coordinates":[-75.00357,41.75965]},"properties":{"s":0,"p":3,"j":"Delaware (Town)","n":"Delaware - Evacuation Routes/Public Safety","id":"2144166"}},{"type":"Feature","geometry":{"type":"Point","coordinates":[-75.00357,41.75965]},"properties":{"s":0,"p":3,"j":"Delaware (Town)","n":"Replace/rehab Main St/Beechwood Rd, CR 164 and CR 52 to reduce flooding issues","id":"2144167"}},{"type":"Feature","geometry":{"type":"Point","coordinates":[-74.60446,41.73971]},"properties":{"s":0,"p":3,"j":"Fallsburg (Town)","n":"Fallsburg - Generators at Critical Facilities","id":"2144168"}},{"type":"Feature","geometry":{"type":"Point","coordinates":[-74.66531,41.78223]},"properties":{"s":0,"p":2,"j":"Fallsburg (Town)","n":"Fallsburg - Bertholif Road Flooding/Bank Erosion","id":"2144169"}},{"type":"Feature","geometry":{"type":"Point","coordinates":[-74.60446,41.73971]},"properties":{"s":0,"p":3,"j":"Fallsburg (Town)","n":"Fallsburg - Clark Road Flooding Issues/Pipe Failure","id":"2144170"}},{"type":"Feature","geometry":{"type":"Point","coordinates":[-74.58808,41.78075]},"properties":{"s":0,"p":2,"j":"Fallsburg (Town)","n":"Fallsburg - Couziness Rd Washout/Flooding Issues","id":"2144171"}},{"type":"Feature","geometry":{"type":"Point","coordinates":[-74.60446,41.73971]},"properties":{"s":0,"p":3,"j":"Fallsburg (Town)","n":"Fallsburg - Goodwin Rd Flooding the entire road","id":"2144172"}},{"type":"Feature","geometry":{"type":"Point","coordinates":[-74.60446,41.73971]},"properties":{"s":0,"p":3,"j":"Fallsburg (Town)","n":"Fallsburg - Hamlet of Hurleyville Flooding","id":"2144173"}},{"type":"Feature","geometry":{"type":"Point","coordinates":[-74.60446,41.73971]},"properties":{"s":0,"p":3,"j":"Fallsburg (Town)","n":"Fallsburg - Hamlet of Woodburg Flooding","id":"2144174"}},{"type":"Feature","geometry":{"type":"Point","coordinates":[-74.60446,41.73971]},"properties":{"s":0,"p":3,"j":"Fallsburg (Town)","n":"Fallsburg - Hasbrouck Rd & Campground Flooding","id":"2144175"}},{"type":"Feature","geometry":{"type":"Point","coordinates":[-74.60446,41.73971]},"properties":{"s":0,"p":3,"j":"Fallsburg (Town)","n":"Fallsburg - McIntosh Road Flooding Issues","id":"2144176"}},{"type":"Feature","geometry":{"type":"Point","coordinates":[-74.6785,41.73555]},"properties":{"s":1,"p":2,"j":"Fallsburg (Town)","n":"Fallsburg - Monguap Road Flooding/Culvert Issues","id":"2144177"}},{"type":"Feature","geometry":{"type":"Point","coordinates":[-74.60446,41.73971]},"properties":{"s":0,"p":3,"j":"Fallsburg (Town)","n":"Fallsburg - Neversink Dam Emergency Response Plan Outreach","id":"2144178"}},{"type":"Feature","geometry":{"type":"Point","coordinates":[-74.50721,41.68633]},"properties":{"s":0,"p":2,"j":"Fallsburg (Town)","n":"Fallsburg - Park Hill Road Stream Erosion","id":"2144179"}},{"type":"Feature","geometry":{"type":"Point","coordinates":[-74.60446,41.73971]},"properties":{"s":0,"p":3,"j":"Fallsburg (Town)","n":"Fallsburg - Pleasant Valley Rd Flooding Issues","id":"2144180"}},{"type":"Feature","geometry":{"type":"Point","coordinates":[-74.60446,41.73971]},"properties":{"s":0,"p":3,"j":"Fallsburg (Town)","n":"Fallsburg - River Bank Erosion/Flooding Issues at River Avon Lodge Road","id":"2144181"}},{"type":"Feature","geometry":{"type":"Point","coordinates":[-74.60446,41.73971]},"properties":{"s":0,"p":3,"j":"Fallsburg (Town)","n":"Fallsburg - Rt 42 Traffic Congestion","id":"2144182"}},{"type":"Feature","geometry":{"type":"Point","coordinates":[-74.60446,41.73971]},"properties":{"s":0,"p":3,"j":"Fallsburg (Town)","n":"Fallsburg - Warning System Improvement/Outreach","id":"2144183"}},{"type":"Feature","geometry":{"type":"Point","coordinates":[-74.60446,41.73971]},"properties":{"s":0,"p":3,"j":"Fallsburg (Town)","n":"Fallsburg Sheltering Plan","id":"2144184"}},{"type":"Feature","geometry":{"type":"Point","coordinates":[-74.60446,41.73971]},"properties":{"s":0,"p":3,"j":"Fallsburg (Town)","n":"Fallusburg - Todd Road Seasonal Flooding/Road Damage","id":"2144185"}},{"type":"Feature","geometry":{"type":"Point","coordinates":[-74.69666,41.54681]},"properties":{"s":0,"p":3,"j":"Forestburgh (Town)","n":"Forestburgh - Burns Rd Flooding Issues/Washout","id":"2144186"}},{"type":"Feature","geometry":{"type":"Point","coordinates":[-74.69666,41.54681]},"properties":{"s":3,"p":3,"j":"Forestburgh (Town)","n":"Forestburgh - CR 44 & French St Debris/Flooding Issues","id":"2144187"}},{"type":"Feature","geometry":{"type":"Point","coordinates":[-74.69666,41.54681]},"properties":{"s":0,"p":3,"j":"Forestburgh (Town)","n":"Forestburgh - Create/Designate Evacuation Route","id":"2144188"}},{"type":"Feature","geometry":{"type":"Point","coordinates":[-74.69666,41.54681]},"properties":{"s":0,"p":3,"j":"Forestburgh (Town)","n":"Forestburgh - Dill Rd Flooding Issues/Washout","id":"2144189"}},{"type":"Feature","geometry":{"type":"Point","coordinates":[-74.69666,41.54681]},"properties":{"s":2,"p":3,"j":"Forestburgh (Town)","n":"Forestburgh - Lake Joseph Estates Associated Risks/Vulnerabilities","id":"2144190"}},{"type":"Feature","geometry":{"type":"Point","coordinates":[-74.69666,41.54681]},"properties":{"s":2,"p":3,"j":"Forestburgh (Town)","n":"Forestburgh - Mill Rd Flood Issues/Washout","id":"2144191"}},{"type":"Feature","geometry":{"type":"Point","coordinates":[-74.69666,41.54681]},"properties":{"s":0,"p":3,"j":"Forestburgh (Town)","n":"Forestburgh - Nord Rd Microbursts/Property Damage","id":"2144192"}},{"type":"Feature","geometry":{"type":"Point","coordinates":[-74.69666,41.54681]},"properties":{"s":0,"p":3,"j":"Forestburgh (Town)","n":"Forestburgh - Rod and Gun Club Rd River Crossing Flooding Issues","id":"2144193"}},{"type":"Feature","geometry":{"type":"Point","coordinates":[-74.69666,41.54681]},"properties":{"s":0,"p":3,"j":"Forestburgh (Town)","n":"Forestburgh - Rt 42/43 Crossing Flooding Issues","id":"2144194"}},{"type":"Feature","geometry":{"type":"Point","coordinates":[-74.69666,41.54681]},"properties":{"s":0,"p":3,"j":"Forestburgh (Town)","n":"Forestburgh - Saint Joseph Hill Rd Flooding Issues","id":"2144195"}},{"type":"Feature","geometry":{"type":"Point","coordinates":[-75.02816,41.85956]},"properties":{"s":2,"p":3,"j":"Fremont (Town)","n":"Fremont - Basket Creek Rd","id":"2144196"}},{"type":"Feature","geometry":{"type":"Point","coordinates":[-75.02816,41.85956]},"properties":{"s":0,"p":3,"j":"Fremont (Town)","n":"Fremont - Comprehensive Plan Update","id":"2144197"}},{"type":"Feature","geometry":{"type":"Point","coordinates":[-75.02816,41.85956]},"properties":{"s":0,"p":3,"j":"Fremont (Town)","n":"Fremont - Deer Lake Road Culvert Upgrade","id":"2144198"}},{"type":"Feature","geometry":{"type":"Point","coordinates":[-75.02816,41.85956]},"properties":{"s":0,"p":3,"j":"Fremont (Town)","n":"Fremont - Delaware River","id":"2144199"}},{"type":"Feature","geometry":{"type":"Point","coordinates":[-75.02816,41.85956]},"properties":{"s":0,"p":3,"j":"Fremont (Town)","n":"Fremont - Glen Ellyn Rd culvert issues","id":"2144200"}},{"type":"Feature","geometry":{"type":"Point","coordinates":[-75.02816,41.85956]},"properties":{"s":2,"p":3,"j":"Fremont (Town)","n":"Fremont - Muskoday Dam Assessment","id":"2144201"}},{"type":"Feature","geometry":{"type":"Point","coordinates":[-75.02816,41.85956]},"properties":{"s":0,"p":3,"j":"Fremont (Town)","n":"Fremont - Railroad Coordination","id":"2144202"}},{"type":"Feature","geometry":{"type":"Point","coordinates":[-75.02816,41.85956]},"properties":{"s":2,"p":3,"j":"Fremont (Town)","n":"Fremont - Replace/Rehab Buck Brook Road Bridge","id":"2144203"}},{"type":"Feature","geometry":{"type":"Point","coordinates":[-75.02816,41.85956]},"properties":{"s":2,"p":3,"j":"Fremont (Town)","n":"Fremont - Replace/Rehab Friendenstein Road Culvert","id":"2144204"}},{"type":"Feature","geometry":{"type":"Point","coordinates":[-75.02816,41.85956]},"properties":{"s":0,"p":3,"j":"Fremont (Town)","n":"Fremont - Replace/Rehab Town #10 Bridge","id":"2144205"}},{"type":"Feature","geometry":{"type":"Point","coordinates":[-74.8891,41.5387]},"properties":{"s":3,"p":3,"j":"Highland (Town)","n":"Culvert replacement to minimize flooding","id":"2144206"}},{"type":"Feature","geometry":{"type":"Point","coordinates":[-74.8891,41.5387]},"properties":{"s":3,"p":3,"j":"Highland (Town)","n":"Establish response communication syestem","id":"2144207"}},{"type":"Feature","geometry":{"type":"Point","coordinates":[-74.8891,41.5387]},"properties":{"s":0,"p":3,"j":"Highland (Town)","n":"Increase Broadband Capacity, Capability, and Home Business Use","id":"2144208"}},{"type":"Feature","geometry":{"type":"Point","coordinates":[-74.9299,41.77989]},"properties":{"s":0,"p":3,"j":"Jeffersonville (Village)","n":"Jeffersonville - Improve Emergency Vehicle Access/Response Time","id":"2144209"}},{"type":"Feature","geometry":{"type":"Point","coordinates":[-74.9299,41.77989]},"properties":{"s":2,"p":3,"j":"Jeffersonville (Village)","n":"Jeffersonville - Stormwater Drainage System","id":"2144210"}},{"type":"Feature","geometry":{"type":"Point","coordinates":[-74.9299,41.77989]},"properties":{"s":0,"p":3,"j":"Jeffersonville (Village)","n":"Jeffersonville - Upgrade Signage","id":"2144211"}},{"type":"Feature","geometry":{"type":"Point","coordinates":[-74.9299,41.77989]},"properties":{"s":0,"p":3,"j":"Jeffersonville (Village)","n":"Jeffersonville Fire Dept Flooding Issues - Critical Infrastructure","id":"2144212"}},{"type":"Feature","geometry":{"type":"Point","coordinates":[-74.77864,41.81376]},"properties":{"s":2,"p":3,"j":"Liberty (Town)","n":"Liberty (T) - Backup Generation for Liberty Fire Dept.","id":"2144213"}},{"type":"Feature","geometry":{"type":"Point","coordinates":[-74.77864,41.81376]},"properties":{"s":0,"p":3,"j":"Liberty (Town)","n":"Liberty (T) - Backup Generator for Town Barn","id":"2144214"}},{"type":"Feature","geometry":{"type":"Point","coordinates":[-74.77864,41.81376]},"properties":{"s":0,"p":3,"j":"Liberty (Town)","n":"Liberty (T) - Railroad Bank Flooding Issues","id":"2144215"}},{"type":"Feature","geometry":{"type":"Point","coordinates":[-74.77864,41.81376]},"properties":{"s":0,"p":3,"j":"Liberty (Town)","n":"Liberty (T) - Replace/Rehab Anderson Road","id":"2144216"}},{"type":"Feature","geometry":{"type":"Point","coordinates":[-74.77864,41.81376]},"properties":{"s":0,"p":3,"j":"Liberty (Town)","n":"Liberty (T) - Sewer District Capacity Increase","id":"2144217"}},{"type":"Feature","geometry":{"type":"Point","coordinates":[-74.77864,41.81376]},"properties":{"s":2,"p":3,"j":"Liberty (Town)","n":"Liberty (T) - Vegetation Maintenance","id":"2144218"}},{"type":"Feature","geometry":{"type":"Point","coordinates":[-74.77864,41.81376]},"properties":{"s":0,"p":3,"j":"Liberty (Town)","n":"Liberty (T) -Rt 55 and Stanton Corners Road Traffic Design Study","id":"2144219"}},{"type":"Feature","geometry":{"type":"Point","coordinates":[-74.77864,41.81376]},"properties":{"s":0,"p":3,"j":"Liberty (Town)","n":"Liberty (T) Swan Lake Dam Emergency Action Plan Coordination","id":"2144220"}},{"type":"Feature","geometry":{"type":"Point","coordinates":[-74.77864,41.81376]},"properties":{"s":0,"p":3,"j":"Liberty (Town)","n":"Liberty - Water Distribution Issues","id":"2144221"}},{"type":"Feature","geometry":{"type":"Point","coordinates":[-74.74302,41.79627]},"properties":{"s":0,"p":3,"j":"Liberty (Village)","n":"Liberty (V) - Generators at Critical Facilities","id":"2144222"}},{"type":"Feature","geometry":{"type":"Point","coordinates":[-74.74302,41.79627]},"properties":{"s":0,"p":3,"j":"Liberty (Village)","n":"Liberty (V) - Sewer Plant I&I Mitigation","id":"2144223"}},{"type":"Feature","geometry":{"type":"Point","coordinates":[-74.74302,41.79627]},"properties":{"s":0,"p":3,"j":"Liberty (Village)","n":"Liberty (V) - Monitor Privately Owned Dams","id":"2144224"}},{"type":"Feature","geometry":{"type":"Point","coordinates":[-74.74302,41.79627]},"properties":{"s":0,"p":3,"j":"Liberty (Village)","n":"Liberty (V) - Monitor Sewer Mains","id":"2144225"}},{"type":"Feature","geometry":{"type":"Point","coordinates":[-74.74302,41.79627]},"properties":{"s":0,"p":3,"j":"Liberty (Village)","n":"Liberty (V) - Private Box Culvert Maintenance","id":"2144226"}},{"type":"Feature","geometry":{"type":"Point","coordinates":[-74.74302,41.79627]},"properties":{"s":0,"p":3,"j":"Liberty (Village)","n":"Liberty (V) - Upgrade Park & Rec Culvert","id":"2144227"}},{"type":"Feature","geometry":{"type":"Point","coordinates":[-74.74302,41.79627]},"properties":{"s":3,"p":3,"j":"Liberty (Village)","n":"Liberty (V) - West Street Bridge","id":"2144228"}},{"type":"Feature","geometry":{"type":"Point","coordinates":[-74.81157,41.49371]},"properties":{"s":3,"p":3,"j":"Lumberland (Town)","n":"Educating the public about potential hazards","id":"2144229"}},{"type":"Feature","geometry":{"type":"Point","coordinates":[-74.81157,41.49371]},"properties":{"s":0,"p":3,"j":"Lumberland (Town)","n":"Lumberland - Critical Facilities Backup Generation","id":"2144230"}},{"type":"Feature","geometry":{"type":"Point","coordinates":[-74.81157,41.49371]},"properties":{"s":1,"p":3,"j":"Lumberland (Town)","n":"Lumberland - Ice Events/Damage","id":"2144231"}},{"type":"Feature","geometry":{"type":"Point","coordinates":[-74.81157,41.49371]},"properties":{"s":0,"p":3,"j":"Lumberland (Town)","n":"Lumberland - Microbursts/Wind Events","id":"2144232"}},{"type":"Feature","geometry":{"type":"Point","coordinates":[-74.81157,41.49371]},"properties":{"s":0,"p":3,"j":"Lumberland (Town)","n":"Lumberland - Small Brush Fire","id":"2144233"}},{"type":"Feature","geometry":{"type":"Point","coordinates":[-74.81157,41.49371]},"properties":{"s":3,"p":3,"j":"Lumberland (Town)","n":"Rio Dam analysis","id":"2144234"}},{"type":"Feature","geometry":{"type":"Point","coordinates":[-74.81157,41.49371]},"properties":{"s":3,"p":3,"j":"Lumberland (Town)","n":"Emergency generators needed for Town Hall","id":"2144235"}},{"type":"Feature","geometry":{"type":"Point","coordinates":[-74.49556,41.58636]},"properties":{"s":3,"p":3,"j":"Mamakating (Town)","n":"Flooding issues on Philipsport Rd Bridge","id":"2144236"}},{"type":"Feature","geometry":{"type":"Point","coordinates":[-74.49556,41.58636]},"properties":{"s":0,"p":3,"j":"Mamakating (Town)","n":"Internet/Cellphone Coverage Improvements","id":"2144237"}},{"type":"Feature","geometry":{"type":"Point","coordinates":[-74.49556,41.58636]},"properties":{"s":0,"p":3,"j":"Mamakating (Town)","n":"Mamakating - Lightning Strike","id":"2144238"}},{"type":"Feature","geometry":{"type":"Point","coordinates":[-74.49556,41.58636]},"properties":{"s":0,"p":3,"j":"Mamakating (Town)","n":"Mamakating - Vulnerable Populations","id":"2144239"}},{"type":"Feature","geometry":{"type":"Point","coordinates":[-74.49556,41.58636]},"properties":{"s":0,"p":3,"j":"Mamakating (Town)","n":"Mamakating - Winterton Flooding Issues","id":"2144240"}},{"type":"Feature","geometry":{"type":"Point","coordinates":[-74.68734,41.65214]},"properties":{"s":2,"p":3,"j":"Monticello (Village)","n":"Improve/upgrade stormwater drainage system from St. Johns Street to Spring Street:","id":"2144241"}},{"type":"Feature","geometry":{"type":"Point","coordinates":[-74.68734,41.65214]},"properties":{"s":0,"p":3,"j":"Monticello (Village)","n":"Monticello - Administrative Measures","id":"2144242"}},{"type":"Feature","geometry":{"type":"Point","coordinates":[-74.68734,41.65214]},"properties":{"s":0,"p":3,"j":"Monticello (Village)","n":"Monticello - Conduct Study of West Broadway and 17B Runoff","id":"2144243"}},{"type":"Feature","geometry":{"type":"Point","coordinates":[-74.68734,41.65214]},"properties":{"s":0,"p":3,"j":"Monticello (Village)","n":"Monticello - Fraser and Greenview Drainage Issues","id":"2144244"}},{"type":"Feature","geometry":{"type":"Point","coordinates":[-74.68734,41.65214]},"properties":{"s":0,"p":3,"j":"Monticello (Village)","n":"Monticello - Mitigate Apollo Mall Plot for Future Use","id":"2144245"}},{"type":"Feature","geometry":{"type":"Point","coordinates":[-74.68734,41.65214]},"properties":{"s":0,"p":3,"j":"Monticello (Village)","n":"Monticello - Relocate the DPW fuel storage tanks","id":"2144246"}},{"type":"Feature","geometry":{"type":"Point","coordinates":[-74.68734,41.65214]},"properties":{"s":0,"p":3,"j":"Monticello (Village)","n":"Monticello - Rita and Floral Swamp Flooding","id":"2144247"}},{"type":"Feature","geometry":{"type":"Point","coordinates":[-74.59106,41.87202]},"properties":{"s":3,"p":3,"j":"Neversink (Town)","n":"Educating the public on flood-proofing structures","id":"2144248"}},{"type":"Feature","geometry":{"type":"Point","coordinates":[-74.59106,41.87202]},"properties":{"s":3,"p":3,"j":"Neversink (Town)","n":"Improve highway/emergency response radio communication service","id":"2144249"}},{"type":"Feature","geometry":{"type":"Point","coordinates":[-74.59106,41.87202]},"properties":{"s":0,"p":3,"j":"Neversink (Town)","n":"Neversink - Flooding/Potential Road Washout","id":"2144250"}},{"type":"Feature","geometry":{"type":"Point","coordinates":[-74.59106,41.87202]},"properties":{"s":3,"p":3,"j":"Neversink (Town)","n":"Neversink - Funding/Implementation for Flooding Mitigation","id":"2144251"}},{"type":"Feature","geometry":{"type":"Point","coordinates":[-74.59106,41.87202]},"properties":{"s":0,"p":3,"j":"Neversink (Town)","n":"Neversink - Homeowners Flood Mitigation Strategy","id":"2144252"}},{"type":"Feature","geometry":{"type":"Point","coordinates":[-74.59106,41.87202]},"properties":{"s":0,"p":3,"j":"Neversink (Town)","n":"Neversink - Mutual Aid Agreement","id":"2144253"}},{"type":"Feature","geometry":{"type":"Point","coordinates":[-74.59106,41.87202]},"properties":{"s":0,"p":3,"j":"Neversink (Town)","n":"Neversink - Regulatory Difficulties","id":"2144254"}},{"type":"Feature","geometry":{"type":"Point","coordinates":[-74.59106,41.87202]},"properties":{"s":0,"p":3,"j":"Neversink (Town)","n":"Neversink - Vulnerable Population","id":"2144255"}},{"type":"Feature","geometry":{"type":"Point","coordinates":[-74.79697,41.9387]},"properties":{"s":0,"p":3,"j":"Rockland (Town)","n":"Rockland - Critical Facilities Located in Floodplain","id":"2144256"}},{"type":"Feature","geometry":{"type":"Point","coordinates":[-74.79697,41.9387]},"properties":{"s":0,"p":3,"j":"Rockland (Town)","n":"Rockland - Hamlet of Rockland Flooding","id":"2144257"}},{"type":"Feature","geometry":{"type":"Point","coordinates":[-74.79697,41.9387]},"properties":{"s":2,"p":3,"j":"Rockland (Town)","n":"Rockland - Highland Ave Catch Basin System","id":"2144258"}},{"type":"Feature","geometry":{"type":"Point","coordinates":[-74.79697,41.9387]},"properties":{"s":0,"p":3,"j":"Rockland (Town)","n":"Rockland - Issues with floodplain mapping","id":"2144259"}},{"type":"Feature","geometry":{"type":"Point","coordinates":[-74.79697,41.9387]},"properties":{"s":0,"p":3,"j":"Rockland (Town)","n":"Rockland - Livingston Manor - Finch St. Flooding","id":"2144260"}},{"type":"Feature","geometry":{"type":"Point","coordinates":[-74.79697,41.9387]},"properties":{"s":1,"p":3,"j":"Rockland (Town)","n":"Rockland - Livngston Manor LFA","id":"2144261"}},{"type":"Feature","geometry":{"type":"Point","coordinates":[-74.79697,41.9387]},"properties":{"s":0,"p":3,"j":"Rockland (Town)","n":"Rockland - Pearl Street Catch Basin System","id":"2144262"}},{"type":"Feature","geometry":{"type":"Point","coordinates":[-74.79697,41.9387]},"properties":{"s":0,"p":3,"j":"Rockland (Town)","n":"Rockland - Replace/Rehab Hardy St","id":"2144263"}},{"type":"Feature","geometry":{"type":"Point","coordinates":[-74.79697,41.9387]},"properties":{"s":0,"p":3,"j":"Rockland (Town)","n":"Rockland - Warning System Improvement","id":"2144264"}},{"type":"Feature","geometry":{"type":"Point","coordinates":[-74.79697,41.9387]},"properties":{"s":2,"p":3,"j":"Rockland (Town)","n":"Rockland - Willoemec Road Bank Stabilization","id":"2144265"}},{"type":"Feature","geometry":{"type":"Point","coordinates":[-74.79697,41.9387]},"properties":{"s":0,"p":3,"j":"Rockland (Town)","n":"Rockland, Livingston Manor - Vulnerable Population","id":"2144266"}},{"type":"Feature","geometry":{"type":"Point","coordinates":[-74.76811,41.71642]},"properties":{"s":1,"p":4,"j":"Sullivan (County)","n":"Continue to provide DEC stream permitting assistance to municipalities","id":"2144267"}},{"type":"Feature","geometry":{"type":"Point","coordinates":[-74.76811,41.71642]},"properties":{"s":0,"p":4,"j":"Sullivan (County)","n":"County Road 103 - Bridge #109 Replacement Including Flood Mit. Improvements","id":"2144268"}},{"type":"Feature","geometry":{"type":"Point","coordinates":[-74.76811,41.71642]},"properties":{"s":0,"p":4,"j":"Sullivan (County)","n":"County Road 105- Bridge #462 Replacement Including Flood Mit. Improvements","id":"2144269"}},{"type":"Feature","geometry":{"type":"Point","coordinates":[-74.76811,41.71642]},"properties":{"s":0,"p":4,"j":"Sullivan (County)","n":"County Road 113- Closed Drainage System Including Flood Mit. Improvements","id":"2144270"}},{"type":"Feature","geometry":{"type":"Point","coordinates":[-74.76811,41.71642]},"properties":{"s":0,"p":4,"j":"Sullivan (County)","n":"County Road 121 - Road/River Embankment Stabilization/Fortification","id":"2144271"}},{"type":"Feature","geometry":{"type":"Point","coordinates":[-74.76811,41.71642]},"properties":{"s":0,"p":4,"j":"Sullivan (County)","n":"County Road 121/122 - Closed Drainage System Including Flood Mit. Improvements","id":"2144272"}},{"type":"Feature","geometry":{"type":"Point","coordinates":[-74.76811,41.71642]},"properties":{"s":2,"p":4,"j":"Sullivan (County)","n":"County Road 123- Pipe Upgrades/Addit. Crossers/Debris Rack - Flood Mit Improvements","id":"2144273"}},{"type":"Feature","geometry":{"type":"Point","coordinates":[-74.76811,41.71642]},"properties":{"s":0,"p":4,"j":"Sullivan (County)","n":"County Road 134 - Road Embankment Stabilization","id":"2144274"}},{"type":"Feature","geometry":{"type":"Point","coordinates":[-74.76811,41.71642]},"properties":{"s":0,"p":4,"j":"Sullivan (County)","n":"County Road 14/141- Closed Drainage System Including Flood Mit. Improvements","id":"2144275"}},{"type":"Feature","geometry":{"type":"Point","coordinates":[-74.76811,41.71642]},"properties":{"s":0,"p":4,"j":"Sullivan (County)","n":"County Road 153- Road/River Embankment Stabilization/Fortification","id":"2144276"}},{"type":"Feature","geometry":{"type":"Point","coordinates":[-74.76811,41.71642]},"properties":{"s":0,"p":4,"j":"Sullivan (County)","n":"County Road 164- Closed Drainage System (Phase II) Incl. Flood Mit. Improvements","id":"2144277"}},{"type":"Feature","geometry":{"type":"Point","coordinates":[-74.76811,41.71642]},"properties":{"s":0,"p":4,"j":"Sullivan (County)","n":"County Road 17- Close Drainage System Including Flood Mit. Improvements","id":"2144278"}},{"type":"Feature","geometry":{"type":"Point","coordinates":[-74.76811,41.71642]},"properties":{"s":2,"p":4,"j":"Sullivan (County)","n":"County Road 176- Bridge #379 Replacement Including Flood Mit. Improvements","id":"2144279"}},{"type":"Feature","geometry":{"type":"Point","coordinates":[-74.76811,41.71642]},"properties":{"s":2,"p":4,"j":"Sullivan (County)","n":"County Road 178- Road/River Embankment Stabilization/Fortification (FEMA 1650)","id":"2144280"}},{"type":"Feature","geometry":{"type":"Point","coordinates":[-74.76811,41.71642]},"properties":{"s":0,"p":4,"j":"Sullivan (County)","n":"County Road 179- Road Embankment Stabilization","id":"2144281"}},{"type":"Feature","geometry":{"type":"Point","coordinates":[-74.76811,41.71642]},"properties":{"s":0,"p":4,"j":"Sullivan (County)","n":"County Road 47 - Closed Drainage System Including Flood Mit. Improvements","id":"2144282"}},{"type":"Feature","geometry":{"type":"Point","coordinates":[-74.76811,41.71642]},"properties":{"s":2,"p":4,"j":"Sullivan (County)","n":"County Road 53 - Bridge #47 Replacement Including Flood Mit. Improvements","id":"2144283"}},{"type":"Feature","geometry":{"type":"Point","coordinates":[-74.76811,41.71642]},"properties":{"s":2,"p":4,"j":"Sullivan (County)","n":"County Road 53- Bridge #45 Replacement Including Flood Mit. Improvements","id":"2144284"}},{"type":"Feature","geometry":{"type":"Point","coordinates":[-74.76811,41.71642]},"properties":{"s":2,"p":4,"j":"Sullivan (County)","n":"County Road 55 - Bridge #3 Replacement Including Flood Mit. Improvements","id":"2144285"}},{"type":"Feature","geometry":{"type":"Point","coordinates":[-74.76811,41.71642]},"properties":{"s":0,"p":4,"j":"Sullivan (County)","n":"County Road 55- Bridge #29 Replacement Including Flood Mit. Improvements","id":"2144286"}},{"type":"Feature","geometry":{"type":"Point","coordinates":[-74.76811,41.71642]},"properties":{"s":2,"p":4,"j":"Sullivan (County)","n":"County Road 55- Bridge #36 Replacement Including Flood Mit. Improvements","id":"2144287"}},{"type":"Feature","geometry":{"type":"Point","coordinates":[-74.76811,41.71642]},"properties":{"s":2,"p":4,"j":"Sullivan (County)","n":"County Road 56- Birdge #461 Replacement Including Flood Mit. Improvements","id":"2144288"}},{"type":"Feature","geometry":{"type":"Point","coordinates":[-74.76811,41.71642]},"properties":{"s":2,"p":4,"j":"Sullivan (County)","n":"County Road 73- Bridge #252 Replacement Including Flood Mit. Improvements","id":"2144289"}},{"type":"Feature","geometry":{"type":"Point","coordinates":[-74.76811,41.71642]},"properties":{"s":2,"p":4,"j":"Sullivan (County)","n":"County Road 92- Pipe Upgrades/Addit. Crossers/Debris Rack - Flood Mit. Improvements","id":"2144290"}},{"type":"Feature","geometry":{"type":"Point","coordinates":[-74.76811,41.71642]},"properties":{"s":0,"p":4,"j":"Sullivan (County)","n":"County Road 94 - Major Road/River Embankment Stabilization/Fortification","id":"2144291"}},{"type":"Feature","geometry":{"type":"Point","coordinates":[-74.76811,41.71642]},"properties":{"s":2,"p":4,"j":"Sullivan (County)","n":"Maple Ave - Bridge #22 Replacement Including Flood Mit. Improvements","id":"2144292"}},{"type":"Feature","geometry":{"type":"Point","coordinates":[-74.76811,41.71642]},"properties":{"s":0,"p":4,"j":"Sullivan (County)","n":"Regularly assess conditions of railroad infrastructure","id":"2144293"}},{"type":"Feature","geometry":{"type":"Point","coordinates":[-74.76811,41.71642]},"properties":{"s":1,"p":4,"j":"Sullivan (County)","n":"Stormwater training for planning boards","id":"2144294"}},{"type":"Feature","geometry":{"type":"Point","coordinates":[-74.76811,41.71642]},"properties":{"s":2,"p":4,"j":"Sullivan (County)","n":"Town Highway 1- Bridge #263 Replacement Including Flood Mit. Improvements","id":"2144295"}},{"type":"Feature","geometry":{"type":"Point","coordinates":[-74.76811,41.71642]},"properties":{"s":2,"p":4,"j":"Sullivan (County)","n":"Town Highway 13- Bridge #251 Replacement Including Flood Mit. Improvements","id":"2144296"}},{"type":"Feature","geometry":{"type":"Point","coordinates":[-74.76811,41.71642]},"properties":{"s":0,"p":4,"j":"Sullivan (County)","n":"Town Highway 28- Bridge #430 Replacement Including Flood Mit. Improvements","id":"2144297"}},{"type":"Feature","geometry":{"type":"Point","coordinates":[-74.76811,41.71642]},"properties":{"s":2,"p":4,"j":"Sullivan (County)","n":"Town Highway 32- Bridge #268 Replacement Including Flood Mit. Improvements","id":"2144298"}},{"type":"Feature","geometry":{"type":"Point","coordinates":[-74.76811,41.71642]},"properties":{"s":2,"p":4,"j":"Sullivan (County)","n":"Town Highway 39 - Bridge #293 Replacement Including Flood Mit. Improvements","id":"2144299"}},{"type":"Feature","geometry":{"type":"Point","coordinates":[-74.76811,41.71642]},"properties":{"s":2,"p":4,"j":"Sullivan (County)","n":"Town Highway 39- Bridge #192 Replacement Including Flood Mit. Improvements","id":"2144300"}},{"type":"Feature","geometry":{"type":"Point","coordinates":[-74.76811,41.71642]},"properties":{"s":0,"p":4,"j":"Sullivan (County)","n":"Town Highway 47- Bridge #228 Replacement Including Flood Mit. Improvements","id":"2144301"}},{"type":"Feature","geometry":{"type":"Point","coordinates":[-74.76811,41.71642]},"properties":{"s":2,"p":4,"j":"Sullivan (County)","n":"Town Highway 48- Bridge #98 Replacement Including Flood Mit. Improvements","id":"2144302"}},{"type":"Feature","geometry":{"type":"Point","coordinates":[-74.76811,41.71642]},"properties":{"s":0,"p":4,"j":"Sullivan (County)","n":"Town Highway 77- Bridge #427 Replacement Including Flood Mit. Improvements","id":"2144303"}},{"type":"Feature","geometry":{"type":"Point","coordinates":[-74.76811,41.71642]},"properties":{"s":0,"p":4,"j":"Sullivan (County)","n":"Town Highway 98- Bridge #428 Replacement Including Flood Mit. Improvements","id":"2144304"}},{"type":"Feature","geometry":{"type":"Point","coordinates":[-74.76811,41.71642]},"properties":{"s":3,"p":4,"j":"Sullivan (County)","n":"Bridge #139 Replacement Including flood Mit. Improvements","id":"2144305"}},{"type":"Feature","geometry":{"type":"Point","coordinates":[-74.76811,41.71642]},"properties":{"s":2,"p":4,"j":"Sullivan (County)","n":"County Road 23- Bridge #76 Replacement Including Flood Mit. Improvements","id":"2144306"}},{"type":"Feature","geometry":{"type":"Point","coordinates":[-74.76811,41.71642]},"properties":{"s":3,"p":4,"j":"Sullivan (County)","n":"Distribute information to public on ways to build homes to withstand tornados/high winds.","id":"2144307"}},{"type":"Feature","geometry":{"type":"Point","coordinates":[-74.76811,41.71642]},"properties":{"s":3,"p":4,"j":"Sullivan (County)","n":"Fremont - Neer Rd","id":"2144308"}},{"type":"Feature","geometry":{"type":"Point","coordinates":[-74.76811,41.71642]},"properties":{"s":3,"p":4,"j":"Sullivan (County)","n":"Rehab/replace Greenfield Rd","id":"2144309"}},{"type":"Feature","geometry":{"type":"Point","coordinates":[-74.76811,41.71642]},"properties":{"s":3,"p":4,"j":"Sullivan (County)","n":"Upgrade pipe culverts to improve drainage and reduce roadway flooding","id":"2144310"}},{"type":"Feature","geometry":{"type":"Point","coordinates":[-74.67386,41.64719]},"properties":{"s":3,"p":3,"j":"Thompson (Town)","n":"Acquire generator (s)","id":"2144311"}},{"type":"Feature","geometry":{"type":"Point","coordinates":[-74.67386,41.64719]},"properties":{"s":0,"p":3,"j":"Thompson (Town)","n":"Emergency backup power for pump stations.","id":"2144312"}},{"type":"Feature","geometry":{"type":"Point","coordinates":[-74.67386,41.64719]},"properties":{"s":0,"p":3,"j":"Thompson (Town)","n":"Establish Warming/Cooling Facilities","id":"2144313"}},{"type":"Feature","geometry":{"type":"Point","coordinates":[-74.67386,41.64719]},"properties":{"s":0,"p":3,"j":"Thompson (Town)","n":"Thompson - Backup Power at Critical Facilities","id":"2144314"}},{"type":"Feature","geometry":{"type":"Point","coordinates":[-74.67386,41.64719]},"properties":{"s":0,"p":3,"j":"Thompson (Town)","n":"Thompson - CSC Certification","id":"2144315"}},{"type":"Feature","geometry":{"type":"Point","coordinates":[-74.67386,41.64719]},"properties":{"s":0,"p":3,"j":"Thompson (Town)","n":"Thompson - Pump Backup Generation","id":"2144316"}},{"type":"Feature","geometry":{"type":"Point","coordinates":[-74.67386,41.64719]},"properties":{"s":0,"p":3,"j":"Thompson (Town)","n":"Upgrade Culverts at Tucci Road","id":"2144317"}},{"type":"Feature","geometry":{"type":"Point","coordinates":[-74.98297,41.58366]},"properties":{"s":2,"p":3,"j":"Tusten (Town)","n":"Tusten - Critical Facility Backup Generation","id":"2144318"}},{"type":"Feature","geometry":{"type":"Point","coordinates":[-74.98297,41.58366]},"properties":{"s":2,"p":3,"j":"Tusten (Town)","n":"Tusten - Erect Emergency Tower","id":"2144319"}},{"type":"Feature","geometry":{"type":"Point","coordinates":[-74.98297,41.58366]},"properties":{"s":0,"p":3,"j":"Tusten (Town)","n":"Tusten - Evacuation Protocol","id":"2144320"}},{"type":"Feature","geometry":{"type":"Point","coordinates":[-74.98297,41.58366]},"properties":{"s":1,"p":3,"j":"Tusten (Town)","n":"Tusten - Expand Public Water/ Narrowsburg District Project","id":"2144321"}},{"type":"Feature","geometry":{"type":"Point","coordinates":[-74.98297,41.58366]},"properties":{"s":2,"p":3,"j":"Tusten (Town)","n":"Tusten - Implement Stormwater Management Plan","id":"2144322"}},{"type":"Feature","geometry":{"type":"Point","coordinates":[-74.98297,41.58366]},"properties":{"s":3,"p":3,"j":"Tusten (Town)","n":"Tusten - Improve Emergency Response Communication","id":"2144323"}},{"type":"Feature","geometry":{"type":"Point","coordinates":[-74.98297,41.58366]},"properties":{"s":2,"p":3,"j":"Tusten (Town)","n":"Tusten - Protocol for Structures in Flood Area","id":"2144324"}},{"type":"Feature","geometry":{"type":"Point","coordinates":[-74.98297,41.58366]},"properties":{"s":0,"p":3,"j":"Tusten (Town)","n":"Tusten - Railway Conditions Assessment","id":"2144325"}},{"type":"Feature","geometry":{"type":"Point","coordinates":[-74.98297,41.58366]},"properties":{"s":0,"p":3,"j":"Tusten (Town)","n":"Tusten - Replace/Rehab Lake Erie Bridge","id":"2144326"}},{"type":"Feature","geometry":{"type":"Point","coordinates":[-74.98297,41.58366]},"properties":{"s":2,"p":3,"j":"Tusten (Town)","n":"Tusten - Replace/Rehab Swamp Pond Road","id":"2144327"}},{"type":"Feature","geometry":{"type":"Point","coordinates":[-74.98297,41.58366]},"properties":{"s":0,"p":3,"j":"Tusten (Town)","n":"Tusten - Stationary Generator at Well House","id":"2144328"}},{"type":"Feature","geometry":{"type":"Point","coordinates":[-74.57407,41.7121]},"properties":{"s":0,"p":3,"j":"Woodridge (Village)","n":"Woodridge - Deniston Hill Rd Flooding Issues/Road Damage","id":"2144329"}},{"type":"Feature","geometry":{"type":"Point","coordinates":[-74.57407,41.7121]},"properties":{"s":1,"p":3,"j":"Woodridge (Village)","n":"Woodridge - Upgrade Maple Ave Pipe Culvert","id":"2144330"}},{"type":"Feature","geometry":{"type":"Point","coordinates":[-74.57407,41.7121]},"properties":{"s":0,"p":3,"j":"Woodridge (Village)","n":"Woodridge - Acquire Backup Generator for DPW","id":"2144331"}},{"type":"Feature","geometry":{"type":"Point","coordinates":[-74.57407,41.7121]},"properties":{"s":0,"p":3,"j":"Woodridge (Village)","n":"Woodridge - Glen Wild Development/Rt 58 Problematic Culvert","id":"2144332"}},{"type":"Feature","geometry":{"type":"Point","coordinates":[-74.57407,41.7121]},"properties":{"s":0,"p":3,"j":"Woodridge (Village)","n":"Woodridge - Highland Rd Flooding Issues","id":"2144333"}},{"type":"Feature","geometry":{"type":"Point","coordinates":[-74.57407,41.7121]},"properties":{"s":0,"p":3,"j":"Woodridge (Village)","n":"Woodridge - Kreiger Park Improvements","id":"2144334"}},{"type":"Feature","geometry":{"type":"Point","coordinates":[-74.57407,41.7121]},"properties":{"s":0,"p":3,"j":"Woodridge (Village)","n":"Woodridge - Lake House Rd Pipe Failure/Issues","id":"2144335"}},{"type":"Feature","geometry":{"type":"Point","coordinates":[-74.57407,41.7121]},"properties":{"s":0,"p":3,"j":"Woodridge (Village)","n":"Woodridge - New housing development proposal located within floodplain","id":"2144336"}},{"type":"Feature","geometry":{"type":"Point","coordinates":[-74.57407,41.7121]},"properties":{"s":0,"p":3,"j":"Woodridge (Village)","n":"Woodridge - Tabaczynski Road Flooding Issues","id":"2144337"}},{"type":"Feature","geometry":{"type":"Point","coordinates":[-74.57407,41.7121]},"properties":{"s":2,"p":3,"j":"Woodridge (Village)","n":"Woodridge - Upgrade Dairyland Road Pipe Culvert","id":"2144338"}},{"type":"Feature","geometry":{"type":"Point","coordinates":[-74.57407,41.7121]},"properties":{"s":0,"p":3,"j":"Woodridge (Village)","n":"Woodridge - Upgrade Green Ave Pipe Culvert","id":"2144339"}},{"type":"Feature","geometry":{"type":"Point","coordinates":[-74.57407,41.7121]},"properties":{"s":0,"p":3,"j":"Woodridge (Village)","n":"Woodridge - Upgrade Greenfield Rd Pipe Culvert","id":"2144340"}},{"type":"Feature","geometry":{"type":"Point","coordinates":[-74.57407,41.7121]},"properties":{"s":2,"p":3,"j":"Woodridge (Village)","n":"Woodridge - Upgrade Novogrodaky Rd Pipe Culvert","id":"2144341"}},{"type":"Feature","geometry":{"type":"Point","coordinates":[-74.57407,41.7121]},"properties":{"s":0,"p":3,"j":"Woodridge (Village)","n":"Woodridge - Village Water Plant Grounding Mechanism","id":"2144342"}},{"type":"Feature","geometry":{"type":"Point","coordinates":[-74.48565,41.57609]},"properties":{"s":3,"p":3,"j":"Wurtsboro (Village)","n":"Complete Dam Assessment for Masten Lake Dam","id":"2144343"}},{"type":"Feature","geometry":{"type":"Point","coordinates":[-74.48565,41.57609]},"properties":{"s":3,"p":3,"j":"Wurtsboro (Village)","n":"Rehab/Replace Sullivan St Bridge","id":"2144344"}},{"type":"Feature","geometry":{"type":"Point","coordinates":[-74.85075,41.68771]},"properties":{"s":0,"p":3,"j":"Bethel (Town)","n":"Bethel - Repetitive Loss Properties","id":"2171370"}},{"type":"Feature","geometry":{"type":"Point","coordinates":[-74.85075,41.68771]},"properties":{"s":0,"p":3,"j":"Bethel (Town)","n":"Bethel - Toronto Lake Reservoir Dam Rehab","id":"2171371"}},{"type":"Feature","geometry":{"type":"Point","coordinates":[-74.85075,41.68771]},"properties":{"s":0,"p":3,"j":"Bethel (Town)","n":"Bethel - Floodprone Roads","id":"2171372"}},{"type":"Feature","geometry":{"type":"Point","coordinates":[-74.85075,41.68771]},"properties":{"s":0,"p":3,"j":"Bethel (Town)","n":"Bethel - Beaver Removal","id":"2171373"}},{"type":"Feature","geometry":{"type":"Point","coordinates":[-74.85075,41.68771]},"properties":{"s":0,"p":3,"j":"Bethel (Town)","n":"Bethel - Floodplain Management Training","id":"2171374"}},{"type":"Feature","geometry":{"type":"Point","coordinates":[-74.85075,41.68771]},"properties":{"s":0,"p":3,"j":"Bethel (Town)","n":"Bethel - Water System Upgrades","id":"2171375"}},{"type":"Feature","geometry":{"type":"Point","coordinates":[-74.85075,41.68771]},"properties":{"s":0,"p":3,"j":"Bethel (Town)","n":"Bethel - Sewerage Plant I&I Mitigation","id":"2171376"}},{"type":"Feature","geometry":{"type":"Point","coordinates":[-74.85075,41.68771]},"properties":{"s":0,"p":3,"j":"Bethel (Town)","n":"Bethel - Local Waterfront Revitalization Plan","id":"2171377"}},{"type":"Feature","geometry":{"type":"Point","coordinates":[-74.85075,41.68771]},"properties":{"s":0,"p":3,"j":"Bethel (Town)","n":"Bethel - Undersized Culverts","id":"2171378"}},{"type":"Feature","geometry":{"type":"Point","coordinates":[-74.85075,41.68771]},"properties":{"s":0,"p":3,"j":"Bethel (Town)","n":"Bethel - Private Property Tree Assessment","id":"2171379"}},{"type":"Feature","geometry":{"type":"Point","coordinates":[-74.85075,41.68771]},"properties":{"s":0,"p":3,"j":"Bethel (Town)","n":"Bethel - Fire Response Mutual Aid","id":"2171380"}},{"type":"Feature","geometry":{"type":"Point","coordinates":[-74.44376,41.55195]},"properties":{"s":0,"p":3,"j":"Bloomingburg (Village)","n":"Bloomingburg - Critical Facility Protection","id":"2171381"}},{"type":"Feature","geometry":{"type":"Point","coordinates":[-74.44376,41.55195]},"properties":{"s":0,"p":3,"j":"Bloomingburg (Village)","n":"Bloomingburg - Generators at Critical Facilities","id":"2171382"}},{"type":"Feature","geometry":{"type":"Point","coordinates":[-74.44376,41.55195]},"properties":{"s":0,"p":3,"j":"Bloomingburg (Village)","n":"Bloomingburg - Sewerage Plant I&I Mitigation","id":"2171383"}},{"type":"Feature","geometry":{"type":"Point","coordinates":[-74.44376,41.55195]},"properties":{"s":0,"p":3,"j":"Bloomingburg (Village)","n":"Bloomingburg - Zoning Code Review","id":"2171384"}},{"type":"Feature","geometry":{"type":"Point","coordinates":[-74.44376,41.55195]},"properties":{"s":0,"p":3,"j":"Bloomingburg (Village)","n":"Bloomingburg - Water Conservation Ordinance","id":"2171385"}},{"type":"Feature","geometry":{"type":"Point","coordinates":[-74.44376,41.55195]},"properties":{"s":0,"p":3,"j":"Bloomingburg (Village)","n":"Bloomingburg - Safe Drinking Water","id":"2171386"}},{"type":"Feature","geometry":{"type":"Point","coordinates":[-74.92118,41.83459]},"properties":{"s":0,"p":3,"j":"Callicoon (Town)","n":"Callicoon - Repetitive Loss Properties","id":"2171387"}},{"type":"Feature","geometry":{"type":"Point","coordinates":[-74.92118,41.83459]},"properties":{"s":0,"p":3,"j":"Callicoon (Town)","n":"Callicoon - Lake Jeffersonville Dam Rehab","id":"2171388"}},{"type":"Feature","geometry":{"type":"Point","coordinates":[-74.92118,41.83459]},"properties":{"s":0,"p":3,"j":"Callicoon (Town)","n":"Callicoon - Wellhead Protection Ordinance","id":"2171389"}},{"type":"Feature","geometry":{"type":"Point","coordinates":[-74.92118,41.83459]},"properties":{"s":0,"p":3,"j":"Callicoon (Town)","n":"Callicoon - East Branch of Callicoon Creek Erosion","id":"2171390"}},{"type":"Feature","geometry":{"type":"Point","coordinates":[-74.92118,41.83459]},"properties":{"s":0,"p":3,"j":"Callicoon (Town)","n":"Callicoon - Generators at Critical Facilities","id":"2171391"}},{"type":"Feature","geometry":{"type":"Point","coordinates":[-74.92118,41.83459]},"properties":{"s":0,"p":3,"j":"Callicoon (Town)","n":"Callicoon - Undersized Culverts","id":"2171392"}},{"type":"Feature","geometry":{"type":"Point","coordinates":[-74.92118,41.83459]},"properties":{"s":0,"p":3,"j":"Callicoon (Town)","n":"Callicoon - Floodplain Management Training","id":"2171393"}},{"type":"Feature","geometry":{"type":"Point","coordinates":[-74.92118,41.83459]},"properties":{"s":0,"p":3,"j":"Callicoon (Town)","n":"Callicoon - Beaver Removal","id":"2171394"}},{"type":"Feature","geometry":{"type":"Point","coordinates":[-74.99381,41.6794]},"properties":{"s":0,"p":3,"j":"Cochecton (Town)","n":"Cochecton - Repetitive Loss Properties","id":"2171395"}},{"type":"Feature","geometry":{"type":"Point","coordinates":[-74.99381,41.6794]},"properties":{"s":0,"p":3,"j":"Cochecton (Town)","n":"Cochecton - Critical Facility Protection","id":"2171396"}},{"type":"Feature","geometry":{"type":"Point","coordinates":[-74.99381,41.6794]},"properties":{"s":0,"p":3,"j":"Cochecton (Town)","n":"Cochecton - Safe Drinking Water","id":"2171397"}},{"type":"Feature","geometry":{"type":"Point","coordinates":[-74.99381,41.6794]},"properties":{"s":0,"p":3,"j":"Cochecton (Town)","n":"Cochecton - Flood Mitigation Along Primary Water Ways","id":"2171398"}},{"type":"Feature","geometry":{"type":"Point","coordinates":[-74.99381,41.6794]},"properties":{"s":0,"p":3,"j":"Cochecton (Town)","n":"Cochecton - Generators at Critical Facilities","id":"2171399"}},{"type":"Feature","geometry":{"type":"Point","coordinates":[-74.99381,41.6794]},"properties":{"s":0,"p":3,"j":"Cochecton (Town)","n":"Cochecton - Floodplain Management Training","id":"2171400"}},{"type":"Feature","geometry":{"type":"Point","coordinates":[-75.00357,41.75965]},"properties":{"s":0,"p":3,"j":"Delaware (Town)","n":"Delaware - Repetitive Loss Properties","id":"2171401"}},{"type":"Feature","geometry":{"type":"Point","coordinates":[-75.00357,41.75965]},"properties":{"s":0,"p":3,"j":"Delaware (Town)","n":"Delaware - Critical Facility Protection","id":"2171402"}},{"type":"Feature","geometry":{"type":"Point","coordinates":[-75.00357,41.75965]},"properties":{"s":0,"p":3,"j":"Delaware (Town)","n":"Delaware - Coon Rock Rod And Gun Club Dam Study","id":"2171403"}},{"type":"Feature","geometry":{"type":"Point","coordinates":[-75.00357,41.75965]},"properties":{"s":0,"p":3,"j":"Delaware (Town)","n":"Delaware - Tree Assessment","id":"2171404"}},{"type":"Feature","geometry":{"type":"Point","coordinates":[-75.00357,41.75965]},"properties":{"s":0,"p":3,"j":"Delaware (Town)","n":"Delaware - Flood Mitigation Along Water Ways","id":"2171405"}},{"type":"Feature","geometry":{"type":"Point","coordinates":[-75.00357,41.75965]},"properties":{"s":0,"p":3,"j":"Delaware (Town)","n":"Delaware - Floodplain Management Training","id":"2171406"}},{"type":"Feature","geometry":{"type":"Point","coordinates":[-75.00357,41.75965]},"properties":{"s":0,"p":3,"j":"Delaware (Town)","n":"Delaware - Generators at Critical Facilities","id":"2171407"}},{"type":"Feature","geometry":{"type":"Point","coordinates":[-74.60446,41.73971]},"properties":{"s":0,"p":3,"j":"Fallsburg (Town)","n":"Fallsburg - Repetitive Loss Properties","id":"2171408"}},{"type":"Feature","geometry":{"type":"Point","coordinates":[-74.60446,41.73971]},"properties":{"s":0,"p":3,"j":"Fallsburg (Town)","n":"Fallsburg - Pleasure Lake Dam Rehab","id":"2171409"}},{"type":"Feature","geometry":{"type":"Point","coordinates":[-74.60446,41.73971]},"properties":{"s":0,"p":3,"j":"Fallsburg (Town)","n":"Fallsburg - Beaver Removal","id":"2171410"}},{"type":"Feature","geometry":{"type":"Point","coordinates":[-74.60446,41.73971]},"properties":{"s":0,"p":3,"j":"Fallsburg (Town)","n":"Fallsburg - Safe Drinking Water","id":"2171411"}},{"type":"Feature","geometry":{"type":"Point","coordinates":[-74.60446,41.73971]},"properties":{"s":0,"p":3,"j":"Fallsburg (Town)","n":"Fallsburg - Undersized Culverts","id":"2171412"}},{"type":"Feature","geometry":{"type":"Point","coordinates":[-74.60446,41.73971]},"properties":{"s":0,"p":3,"j":"Fallsburg (Town)","n":"Fallsburg - Floodplain Management Training","id":"2171413"}},{"type":"Feature","geometry":{"type":"Point","coordinates":[-74.60446,41.73971]},"properties":{"s":0,"p":3,"j":"Fallsburg (Town)","n":"Fallsburg - Flood Mitigation Along Water Ways","id":"2171414"}},{"type":"Feature","geometry":{"type":"Point","coordinates":[-74.60446,41.73971]},"properties":{"s":0,"p":3,"j":"Fallsburg (Town)","n":"Fallsburg - Salt and Sand Storage Shed","id":"2171415"}},{"type":"Feature","geometry":{"type":"Point","coordinates":[-74.60446,41.73971]},"properties":{"s":0,"p":3,"j":"Fallsburg (Town)","n":"Fallsburg - Groos Pond Dam Rehab","id":"2171416"}},{"type":"Feature","geometry":{"type":"Point","coordinates":[-74.69666,41.54681]},"properties":{"s":0,"p":3,"j":"Forestburgh (Town)","n":"Forestburgh - Repetitive Loss Properties","id":"2171417"}},{"type":"Feature","geometry":{"type":"Point","coordinates":[-74.69666,41.54681]},"properties":{"s":0,"p":3,"j":"Forestburgh (Town)","n":"Forestburgh - Mongaup Falls Dam Rehab","id":"2171418"}},{"type":"Feature","geometry":{"type":"Point","coordinates":[-74.69666,41.54681]},"properties":{"s":0,"p":3,"j":"Forestburgh (Town)","n":"Forestburgh - St. Josephs Lake Dam Rehab","id":"2171419"}},{"type":"Feature","geometry":{"type":"Point","coordinates":[-74.69666,41.54681]},"properties":{"s":0,"p":3,"j":"Forestburgh (Town)","n":"Forestburgh - Swinging Bridge Dam Rehab","id":"2171420"}},{"type":"Feature","geometry":{"type":"Point","coordinates":[-74.69666,41.54681]},"properties":{"s":0,"p":3,"j":"Forestburgh (Town)","n":"Forestburgh - Landslide Mitigation","id":"2171421"}},{"type":"Feature","geometry":{"type":"Point","coordinates":[-74.69666,41.54681]},"properties":{"s":0,"p":3,"j":"Forestburgh (Town)","n":"Forestburgh - Flood Mitigation Along Water Ways","id":"2171422"}},{"type":"Feature","geometry":{"type":"Point","coordinates":[-74.69666,41.54681]},"properties":{"s":0,"p":3,"j":"Forestburgh (Town)","n":"Forestburgh - Undersized Culverts","id":"2171423"}},{"type":"Feature","geometry":{"type":"Point","coordinates":[-74.69666,41.54681]},"properties":{"s":0,"p":3,"j":"Forestburgh (Town)","n":"Forestburgh - Rockland County Power Diversion Dam Rehab","id":"2171424"}},{"type":"Feature","geometry":{"type":"Point","coordinates":[-74.69666,41.54681]},"properties":{"s":0,"p":3,"j":"Forestburgh (Town)","n":"Forestburgh - Wildfire Education and Outreach","id":"2171425"}},{"type":"Feature","geometry":{"type":"Point","coordinates":[-75.02816,41.85956]},"properties":{"s":0,"p":3,"j":"Fremont (Town)","n":"Fremont - Repetitive Loss Properties","id":"2171426"}},{"type":"Feature","geometry":{"type":"Point","coordinates":[-75.02816,41.85956]},"properties":{"s":0,"p":3,"j":"Fremont (Town)","n":"Fremont - Beaver Removal","id":"2171427"}},{"type":"Feature","geometry":{"type":"Point","coordinates":[-75.02816,41.85956]},"properties":{"s":0,"p":3,"j":"Fremont (Town)","n":"Fremont - Floodprone Roads","id":"2171428"}},{"type":"Feature","geometry":{"type":"Point","coordinates":[-75.02816,41.85956]},"properties":{"s":0,"p":3,"j":"Fremont (Town)","n":"Fremont - Landslide Mitigation","id":"2171429"}},{"type":"Feature","geometry":{"type":"Point","coordinates":[-75.02816,41.85956]},"properties":{"s":0,"p":3,"j":"Fremont (Town)","n":"Fremont - Highway Building Generator","id":"2171430"}},{"type":"Feature","geometry":{"type":"Point","coordinates":[-75.02816,41.85956]},"properties":{"s":0,"p":3,"j":"Fremont (Town)","n":"Fremont - Water System Improvements","id":"2171431"}},{"type":"Feature","geometry":{"type":"Point","coordinates":[-75.02816,41.85956]},"properties":{"s":1,"p":3,"j":"Fremont (Town)","n":"Fremont - Infrastructure Upgrades","id":"2171432"}},{"type":"Feature","geometry":{"type":"Point","coordinates":[-74.8891,41.5387]},"properties":{"s":0,"p":3,"j":"Highland (Town)","n":"Highland - Repetitive Loss Properties","id":"2171433"}},{"type":"Feature","geometry":{"type":"Point","coordinates":[-74.8891,41.5387]},"properties":{"s":0,"p":3,"j":"Highland (Town)","n":"Highland - Toasperns Pond Dam","id":"2171434"}},{"type":"Feature","geometry":{"type":"Point","coordinates":[-74.8891,41.5387]},"properties":{"s":0,"p":3,"j":"Highland (Town)","n":"Highland - White Crane Lake Dam","id":"2171435"}},{"type":"Feature","geometry":{"type":"Point","coordinates":[-74.8891,41.5387]},"properties":{"s":1,"p":3,"j":"Highland (Town)","n":"Highland - Sheltering Facility","id":"2171436"}},{"type":"Feature","geometry":{"type":"Point","coordinates":[-74.8891,41.5387]},"properties":{"s":0,"p":3,"j":"Highland (Town)","n":"Highland - Camp FIMFO Catskills Flood Study","id":"2171437"}},{"type":"Feature","geometry":{"type":"Point","coordinates":[-74.8891,41.5387]},"properties":{"s":0,"p":3,"j":"Highland (Town)","n":"Highland - Critical Facility Improvements","id":"2171438"}},{"type":"Feature","geometry":{"type":"Point","coordinates":[-74.8891,41.5387]},"properties":{"s":0,"p":3,"j":"Highland (Town)","n":"Highland - Beaver Removal","id":"2171439"}},{"type":"Feature","geometry":{"type":"Point","coordinates":[-74.8891,41.5387]},"properties":{"s":0,"p":3,"j":"Highland (Town)","n":"Highland - Floodplain Management Training","id":"2171440"}},{"type":"Feature","geometry":{"type":"Point","coordinates":[-74.9299,41.77989]},"properties":{"s":0,"p":3,"j":"Jeffersonville (Village)","n":"Jeffersonville - Critical Facility Protection","id":"2171441"}},{"type":"Feature","geometry":{"type":"Point","coordinates":[-74.9299,41.77989]},"properties":{"s":0,"p":3,"j":"Jeffersonville (Village)","n":"Jeffersonville - \"The Island\" Evacuation Route Evaluation","id":"2171442"}},{"type":"Feature","geometry":{"type":"Point","coordinates":[-74.9299,41.77989]},"properties":{"s":0,"p":3,"j":"Jeffersonville (Village)","n":"Jeffersonville - Nonstructural Flood Mitigation","id":"2171443"}},{"type":"Feature","geometry":{"type":"Point","coordinates":[-74.9299,41.77989]},"properties":{"s":0,"p":3,"j":"Jeffersonville (Village)","n":"Jeffersonville - Generators at Critical Facilities","id":"2171444"}},{"type":"Feature","geometry":{"type":"Point","coordinates":[-74.9299,41.77989]},"properties":{"s":0,"p":3,"j":"Jeffersonville (Village)","n":"Jeffersonville - Tree Maintenance Program","id":"2171445"}},{"type":"Feature","geometry":{"type":"Point","coordinates":[-74.9299,41.77989]},"properties":{"s":0,"p":3,"j":"Jeffersonville (Village)","n":"Jeffersonville - Lake Jeffersonville Dam Rehab","id":"2171446"}},{"type":"Feature","geometry":{"type":"Point","coordinates":[-74.77864,41.81376]},"properties":{"s":0,"p":3,"j":"Liberty (Town)","n":"Liberty (T) - Repetitive Loss Properties","id":"2171447"}},{"type":"Feature","geometry":{"type":"Point","coordinates":[-74.77864,41.81376]},"properties":{"s":0,"p":3,"j":"Liberty (Town)","n":"Liberty (T) - Generators at Critical Facilities","id":"2171448"}},{"type":"Feature","geometry":{"type":"Point","coordinates":[-74.77864,41.81376]},"properties":{"s":0,"p":3,"j":"Liberty (Town)","n":"Liberty (T) - Swan Lake Dam Study","id":"2171449"}},{"type":"Feature","geometry":{"type":"Point","coordinates":[-74.77864,41.81376]},"properties":{"s":1,"p":3,"j":"Liberty (Town)","n":"Liberty (T) - Floodprone Roads","id":"2171450"}},{"type":"Feature","geometry":{"type":"Point","coordinates":[-74.77864,41.81376]},"properties":{"s":0,"p":3,"j":"Liberty (Town)","n":"Liberty (T) - Tree Assessment","id":"2171451"}},{"type":"Feature","geometry":{"type":"Point","coordinates":[-74.74302,41.79627]},"properties":{"s":0,"p":3,"j":"Liberty (Village)","n":"Liberty (V) - Water System Upgrades","id":"2171452"}},{"type":"Feature","geometry":{"type":"Point","coordinates":[-74.74302,41.79627]},"properties":{"s":0,"p":3,"j":"Liberty (Village)","n":"Liberty (V) - Well Protection","id":"2171453"}},{"type":"Feature","geometry":{"type":"Point","coordinates":[-74.74302,41.79627]},"properties":{"s":0,"p":3,"j":"Liberty (Village)","n":"Liberty (V) - Safe Drinking Water","id":"2171454"}},{"type":"Feature","geometry":{"type":"Point","coordinates":[-74.74302,41.79627]},"properties":{"s":0,"p":3,"j":"Liberty (Village)","n":"Liberty (V) - Middle Mongaup River Mitigation","id":"2171455"}},{"type":"Feature","geometry":{"type":"Point","coordinates":[-74.74302,41.79627]},"properties":{"s":0,"p":3,"j":"Liberty (Village)","n":"Liberty (V) - Tree Assessment","id":"2171456"}},{"type":"Feature","geometry":{"type":"Point","coordinates":[-74.74302,41.79627]},"properties":{"s":0,"p":3,"j":"Liberty (Village)","n":"Liberty (V) - Undersized Culverts","id":"2171457"}},{"type":"Feature","geometry":{"type":"Point","coordinates":[-74.74302,41.79627]},"properties":{"s":0,"p":3,"j":"Liberty (Village)","n":"Liberty (V) - Dam Assessments","id":"2171458"}},{"type":"Feature","geometry":{"type":"Point","coordinates":[-74.74302,41.79627]},"properties":{"s":0,"p":3,"j":"Liberty (Village)","n":"Liberty (V) - Permit Tracking","id":"2171459"}},{"type":"Feature","geometry":{"type":"Point","coordinates":[-74.74302,41.79627]},"properties":{"s":0,"p":3,"j":"Liberty (Village)","n":"Liberty (V) - Floodplain Management Training","id":"2171460"}},{"type":"Feature","geometry":{"type":"Point","coordinates":[-74.81157,41.49371]},"properties":{"s":0,"p":3,"j":"Lumberland (Town)","n":"Lumberland - Repetitive Loss Properties","id":"2171461"}},{"type":"Feature","geometry":{"type":"Point","coordinates":[-74.81157,41.49371]},"properties":{"s":0,"p":3,"j":"Lumberland (Town)","n":"Lumberland - Cliff Lake Dam Rehab","id":"2171462"}},{"type":"Feature","geometry":{"type":"Point","coordinates":[-74.81157,41.49371]},"properties":{"s":0,"p":3,"j":"Lumberland (Town)","n":"Lumberland - Rio Dam Rehab","id":"2171463"}},{"type":"Feature","geometry":{"type":"Point","coordinates":[-74.81157,41.49371]},"properties":{"s":0,"p":3,"j":"Lumberland (Town)","n":"Lumberland - Undersized Culverts","id":"2171464"}},{"type":"Feature","geometry":{"type":"Point","coordinates":[-74.81157,41.49371]},"properties":{"s":0,"p":3,"j":"Lumberland (Town)","n":"Lumberland - Landslide Mitigation","id":"2171465"}},{"type":"Feature","geometry":{"type":"Point","coordinates":[-74.81157,41.49371]},"properties":{"s":0,"p":3,"j":"Lumberland (Town)","n":"Lumberland - Tree Assessment","id":"2171466"}},{"type":"Feature","geometry":{"type":"Point","coordinates":[-74.81157,41.49371]},"properties":{"s":0,"p":3,"j":"Lumberland (Town)","n":"Lumberland - Flood Mitigation Along Water Ways","id":"2171467"}},{"type":"Feature","geometry":{"type":"Point","coordinates":[-74.49556,41.58636]},"properties":{"s":0,"p":3,"j":"Mamakating (Town)","n":"Mamakating - Repetitive Loss Properties","id":"2171468"}},{"type":"Feature","geometry":{"type":"Point","coordinates":[-74.49556,41.58636]},"properties":{"s":0,"p":3,"j":"Mamakating (Town)","n":"Mamakating - Yankee Lake Dam Rehab","id":"2171469"}},{"type":"Feature","geometry":{"type":"Point","coordinates":[-74.49556,41.58636]},"properties":{"s":0,"p":3,"j":"Mamakating (Town)","n":"Mamakating - Beaver Removal","id":"2171470"}},{"type":"Feature","geometry":{"type":"Point","coordinates":[-74.49556,41.58636]},"properties":{"s":0,"p":3,"j":"Mamakating (Town)","n":"Mamakating - Hayven and South Road Assessment","id":"2171471"}},{"type":"Feature","geometry":{"type":"Point","coordinates":[-74.49556,41.58636]},"properties":{"s":0,"p":3,"j":"Mamakating (Town)","n":"Mamakating - Ski Run Road Flood Mitigation","id":"2171472"}},{"type":"Feature","geometry":{"type":"Point","coordinates":[-74.49556,41.58636]},"properties":{"s":0,"p":3,"j":"Mamakating (Town)","n":"Mamakating - Wildfire Mitigation","id":"2171473"}},{"type":"Feature","geometry":{"type":"Point","coordinates":[-74.49556,41.58636]},"properties":{"s":0,"p":3,"j":"Mamakating (Town)","n":"Mamakating - Generators at Critical Facilities","id":"2171474"}},{"type":"Feature","geometry":{"type":"Point","coordinates":[-74.49556,41.58636]},"properties":{"s":0,"p":3,"j":"Mamakating (Town)","n":"Mamakating - Floodplain Management Training","id":"2171475"}},{"type":"Feature","geometry":{"type":"Point","coordinates":[-74.68734,41.65214]},"properties":{"s":0,"p":3,"j":"Monticello (Village)","n":"Monticello - Safe Drinking Water","id":"2171476"}},{"type":"Feature","geometry":{"type":"Point","coordinates":[-74.68734,41.65214]},"properties":{"s":0,"p":3,"j":"Monticello (Village)","n":"Monticello - Floodprone Roads","id":"2171477"}},{"type":"Feature","geometry":{"type":"Point","coordinates":[-74.68734,41.65214]},"properties":{"s":0,"p":3,"j":"Monticello (Village)","n":"Monticello - Tree Assessment","id":"2171478"}},{"type":"Feature","geometry":{"type":"Point","coordinates":[-74.68734,41.65214]},"properties":{"s":0,"p":3,"j":"Monticello (Village)","n":"Monticello - Water System Upgrades","id":"2171479"}},{"type":"Feature","geometry":{"type":"Point","coordinates":[-74.68734,41.65214]},"properties":{"s":0,"p":3,"j":"Monticello (Village)","n":"Monticello - Bridge Evaluation","id":"2171480"}},{"type":"Feature","geometry":{"type":"Point","coordinates":[-74.68734,41.65214]},"properties":{"s":1,"p":3,"j":"Monticello (Village)","n":"Monticello - Generators at Critical Facilities","id":"2171481"}},{"type":"Feature","geometry":{"type":"Point","coordinates":[-74.68734,41.65214]},"properties":{"s":0,"p":3,"j":"Monticello (Village)","n":"Monticello - Floodplain Management Training","id":"2171482"}},{"type":"Feature","geometry":{"type":"Point","coordinates":[-74.68734,41.65214]},"properties":{"s":0,"p":3,"j":"Monticello (Village)","n":"Monticello - Highway Garage","id":"2171483"}},{"type":"Feature","geometry":{"type":"Point","coordinates":[-74.59106,41.87202]},"properties":{"s":0,"p":3,"j":"Neversink (Town)","n":"Neversink - Repetitive Loss Properties","id":"2171484"}},{"type":"Feature","geometry":{"type":"Point","coordinates":[-74.59106,41.87202]},"properties":{"s":0,"p":3,"j":"Neversink (Town)","n":"Neversink - Critical Facility Protection","id":"2171485"}},{"type":"Feature","geometry":{"type":"Point","coordinates":[-74.59106,41.87202]},"properties":{"s":0,"p":3,"j":"Neversink (Town)","n":"Neversink - Neversink Reservoir Dam Rehab","id":"2171486"}},{"type":"Feature","geometry":{"type":"Point","coordinates":[-74.59106,41.87202]},"properties":{"s":0,"p":3,"j":"Neversink (Town)","n":"Neversink - Relocate Town Hall","id":"2171487"}},{"type":"Feature","geometry":{"type":"Point","coordinates":[-74.59106,41.87202]},"properties":{"s":0,"p":3,"j":"Neversink (Town)","n":"Neversink - Landslide Mitigation","id":"2171488"}},{"type":"Feature","geometry":{"type":"Point","coordinates":[-74.59106,41.87202]},"properties":{"s":0,"p":3,"j":"Neversink (Town)","n":"Neversink - Route 55 Flood Mitigation","id":"2171489"}},{"type":"Feature","geometry":{"type":"Point","coordinates":[-74.59106,41.87202]},"properties":{"s":0,"p":3,"j":"Neversink (Town)","n":"Neversink - Water System Generator","id":"2171490"}},{"type":"Feature","geometry":{"type":"Point","coordinates":[-74.59106,41.87202]},"properties":{"s":0,"p":3,"j":"Neversink (Town)","n":"Neversink - Bridge Evaluation","id":"2171491"}},{"type":"Feature","geometry":{"type":"Point","coordinates":[-74.59106,41.87202]},"properties":{"s":0,"p":3,"j":"Neversink (Town)","n":"Neversink - Floodplain Management Training","id":"2171492"}},{"type":"Feature","geometry":{"type":"Point","coordinates":[-74.59106,41.87202]},"properties":{"s":0,"p":3,"j":"Neversink (Town)","n":"Neversink - Wildfire Mitigation","id":"2171493"}},{"type":"Feature","geometry":{"type":"Point","coordinates":[-74.59106,41.87202]},"properties":{"s":0,"p":3,"j":"Neversink (Town)","n":"Neversink - Generators at Critical Facilities","id":"2171494"}},{"type":"Feature","geometry":{"type":"Point","coordinates":[-74.79697,41.9387]},"properties":{"s":0,"p":3,"j":"Rockland (Town)","n":"Rockland - Repetitive Loss Properties","id":"2171495"}},{"type":"Feature","geometry":{"type":"Point","coordinates":[-74.79697,41.9387]},"properties":{"s":0,"p":3,"j":"Rockland (Town)","n":"Rockland - Critical Facility Protection","id":"2171496"}},{"type":"Feature","geometry":{"type":"Point","coordinates":[-74.79697,41.9387]},"properties":{"s":0,"p":3,"j":"Rockland (Town)","n":"Rockland - Backup Power at Critical Facilities","id":"2171497"}},{"type":"Feature","geometry":{"type":"Point","coordinates":[-74.79697,41.9387]},"properties":{"s":0,"p":3,"j":"Rockland (Town)","n":"Rockland - Beaver Kill River Mitigation","id":"2171498"}},{"type":"Feature","geometry":{"type":"Point","coordinates":[-74.79697,41.9387]},"properties":{"s":0,"p":3,"j":"Rockland (Town)","n":"Rockland - Highway Garage","id":"2171499"}},{"type":"Feature","geometry":{"type":"Point","coordinates":[-74.79697,41.9387]},"properties":{"s":0,"p":3,"j":"Rockland (Town)","n":"Rockland - Dam Owner Partnership and Inspections","id":"2171500"}},{"type":"Feature","geometry":{"type":"Point","coordinates":[-74.79697,41.9387]},"properties":{"s":0,"p":3,"j":"Rockland (Town)","n":"Rockland - Beaver Dam Mitigation","id":"2171501"}},{"type":"Feature","geometry":{"type":"Point","coordinates":[-74.79697,41.9387]},"properties":{"s":0,"p":3,"j":"Rockland (Town)","n":"Rockland - Bridge Mitigation","id":"2171502"}},{"type":"Feature","geometry":{"type":"Point","coordinates":[-74.79697,41.9387]},"properties":{"s":0,"p":3,"j":"Rockland (Town)","n":"Rockland - Bank Stabilization","id":"2171503"}},{"type":"Feature","geometry":{"type":"Point","coordinates":[-74.79697,41.9387]},"properties":{"s":1,"p":3,"j":"Rockland (Town)","n":"Rockland - Roscoe and Livingston Manor Mitigation","id":"2171504"}},{"type":"Feature","geometry":{"type":"Point","coordinates":[-74.79697,41.9387]},"properties":{"s":0,"p":3,"j":"Rockland (Town)","n":"Rockland - Cottage Street","id":"2171505"}},{"type":"Feature","geometry":{"type":"Point","coordinates":[-74.79697,41.9387]},"properties":{"s":0,"p":3,"j":"Rockland (Town)","n":"Rockland - Sewer Plant Mitigation","id":"2171506"}},{"type":"Feature","geometry":{"type":"Point","coordinates":[-74.79697,41.9387]},"properties":{"s":0,"p":3,"j":"Rockland (Town)","n":"Rockland - Stormwater Pipe","id":"2171507"}},{"type":"Feature","geometry":{"type":"Point","coordinates":[-74.76811,41.71642]},"properties":{"s":0,"p":4,"j":"Sullivan (County)","n":"Sullivan County - High Hazard Potential Dams","id":"2171508"}},{"type":"Feature","geometry":{"type":"Point","coordinates":[-74.76811,41.71642]},"properties":{"s":0,"p":4,"j":"Sullivan (County)","n":"Sullivan County - County Government Center","id":"2171509"}},{"type":"Feature","geometry":{"type":"Point","coordinates":[-74.76811,41.71642]},"properties":{"s":0,"p":4,"j":"Sullivan (County)","n":"Sullivan County - Agriculture and Farmland Protection Plan Update","id":"2171510"}},{"type":"Feature","geometry":{"type":"Point","coordinates":[-74.76811,41.71642]},"properties":{"s":0,"p":4,"j":"Sullivan (County)","n":"Sullivan County - Salt Shed Improvements","id":"2171511"}},{"type":"Feature","geometry":{"type":"Point","coordinates":[-74.76811,41.71642]},"properties":{"s":0,"p":4,"j":"Sullivan (County)","n":"Sullivan County - State Route 52","id":"2171512"}},{"type":"Feature","geometry":{"type":"Point","coordinates":[-74.76811,41.71642]},"properties":{"s":0,"p":4,"j":"Sullivan (County)","n":"Sullivan County - Lake Jefferson Dam and Swan Lake Dam","id":"2171513"}},{"type":"Feature","geometry":{"type":"Point","coordinates":[-74.76811,41.71642]},"properties":{"s":0,"p":4,"j":"Sullivan (County)","n":"Sullivan County - Repetitive Loss Properties","id":"2171514"}},{"type":"Feature","geometry":{"type":"Point","coordinates":[-74.76811,41.71642]},"properties":{"s":0,"p":4,"j":"Sullivan (County)","n":"Sullivan County - Callicoon Creek Watershed","id":"2171515"}},{"type":"Feature","geometry":{"type":"Point","coordinates":[-74.67386,41.64719]},"properties":{"s":0,"p":3,"j":"Thompson (Town)","n":"Thompson - Repetitive Loss Properties","id":"2171516"}},{"type":"Feature","geometry":{"type":"Point","coordinates":[-74.67386,41.64719]},"properties":{"s":0,"p":3,"j":"Thompson (Town)","n":"Thompson - Critical Facility Protection","id":"2171517"}},{"type":"Feature","geometry":{"type":"Point","coordinates":[-74.67386,41.64719]},"properties":{"s":0,"p":3,"j":"Thompson (Town)","n":"Thompson - Lake Louise Marie Dam Rehab","id":"2171518"}},{"type":"Feature","geometry":{"type":"Point","coordinates":[-74.67386,41.64719]},"properties":{"s":0,"p":3,"j":"Thompson (Town)","n":"Thompson - Wanaksink Lake Dam Rehab","id":"2171519"}},{"type":"Feature","geometry":{"type":"Point","coordinates":[-74.67386,41.64719]},"properties":{"s":0,"p":3,"j":"Thompson (Town)","n":"Thompson - Highway Garage","id":"2171520"}},{"type":"Feature","geometry":{"type":"Point","coordinates":[-74.67386,41.64719]},"properties":{"s":0,"p":3,"j":"Thompson (Town)","n":"Thompson - Neversink Riverbank Stabilization","id":"2171521"}},{"type":"Feature","geometry":{"type":"Point","coordinates":[-74.67386,41.64719]},"properties":{"s":0,"p":3,"j":"Thompson (Town)","n":"Thompson - Salt Shed Improvements","id":"2171522"}},{"type":"Feature","geometry":{"type":"Point","coordinates":[-74.67386,41.64719]},"properties":{"s":0,"p":3,"j":"Thompson (Town)","n":"Thompson - DEC Dam Owner Communication","id":"2171523"}},{"type":"Feature","geometry":{"type":"Point","coordinates":[-74.98297,41.58366]},"properties":{"s":0,"p":3,"j":"Tusten (Town)","n":"Tusten - Repetitive Loss Properties","id":"2171524"}},{"type":"Feature","geometry":{"type":"Point","coordinates":[-74.98297,41.58366]},"properties":{"s":0,"p":3,"j":"Tusten (Town)","n":"Tusten - Critical Facility Protection","id":"2171525"}},{"type":"Feature","geometry":{"type":"Point","coordinates":[-74.98297,41.58366]},"properties":{"s":0,"p":3,"j":"Tusten (Town)","n":"Tusten - Highway Garage","id":"2171526"}},{"type":"Feature","geometry":{"type":"Point","coordinates":[-74.98297,41.58366]},"properties":{"s":0,"p":3,"j":"Tusten (Town)","n":"Tusten - Salt Shed Improvements","id":"2171527"}},{"type":"Feature","geometry":{"type":"Point","coordinates":[-74.98297,41.58366]},"properties":{"s":0,"p":3,"j":"Tusten (Town)","n":"Tusten - Backup Power at Critical Facilities","id":"2171528"}},{"type":"Feature","geometry":{"type":"Point","coordinates":[-74.98297,41.58366]},"properties":{"s":1,"p":3,"j":"Tusten (Town)","n":"Tusten - Bridge Mitigation","id":"2171529"}},{"type":"Feature","geometry":{"type":"Point","coordinates":[-74.98297,41.58366]},"properties":{"s":0,"p":3,"j":"Tusten (Town)","n":"Tusten - Ryer Road","id":"2171530"}},{"type":"Feature","geometry":{"type":"Point","coordinates":[-74.98297,41.58366]},"properties":{"s":1,"p":3,"j":"Tusten (Town)","n":"Tusten - Flood Study","id":"2171531"}},{"type":"Feature","geometry":{"type":"Point","coordinates":[-74.98297,41.58366]},"properties":{"s":0,"p":3,"j":"Tusten (Town)","n":"Tusten - County Route 111 and Lovelace Dam","id":"2171532"}},{"type":"Feature","geometry":{"type":"Point","coordinates":[-74.57407,41.7121]},"properties":{"s":0,"p":3,"j":"Woodridge (Village)","n":"Woodridge - Floodprone Roads","id":"2171533"}},{"type":"Feature","geometry":{"type":"Point","coordinates":[-74.57407,41.7121]},"properties":{"s":0,"p":3,"j":"Woodridge (Village)","n":"Woodridge - Undersized Culverts","id":"2171534"}},{"type":"Feature","geometry":{"type":"Point","coordinates":[-74.57407,41.7121]},"properties":{"s":0,"p":3,"j":"Woodridge (Village)","n":"Woodridge - Generators at Critical Facilities","id":"2171535"}},{"type":"Feature","geometry":{"type":"Point","coordinates":[-74.57407,41.7121]},"properties":{"s":0,"p":3,"j":"Woodridge (Village)","n":"Woodridge - Silver Lake Flood Mitigation","id":"2171536"}},{"type":"Feature","geometry":{"type":"Point","coordinates":[-74.57407,41.7121]},"properties":{"s":0,"p":3,"j":"Woodridge (Village)","n":"Woodridge - Public Works Garage","id":"2171537"}},{"type":"Feature","geometry":{"type":"Point","coordinates":[-74.57407,41.7121]},"properties":{"s":0,"p":3,"j":"Woodridge (Village)","n":"Woodridge - Salt and Sand Storage Shed","id":"2171538"}},{"type":"Feature","geometry":{"type":"Point","coordinates":[-74.57407,41.7121]},"properties":{"s":0,"p":3,"j":"Woodridge (Village)","n":"Woodridge - Floodplain Management Training","id":"2171539"}},{"type":"Feature","geometry":{"type":"Point","coordinates":[-74.48565,41.57609]},"properties":{"s":0,"p":3,"j":"Wurtsboro (Village)","n":"Wurtsboro - Repetitive Loss Properties","id":"2171540"}},{"type":"Feature","geometry":{"type":"Point","coordinates":[-74.48565,41.57609]},"properties":{"s":0,"p":3,"j":"Wurtsboro (Village)","n":"Wurtsboro - Critical Facility Protection","id":"2171541"}},{"type":"Feature","geometry":{"type":"Point","coordinates":[-74.48565,41.57609]},"properties":{"s":1,"p":3,"j":"Wurtsboro (Village)","n":"Wurtsboro - Village Culvert Inventory","id":"2171542"}},{"type":"Feature","geometry":{"type":"Point","coordinates":[-74.48565,41.57609]},"properties":{"s":0,"p":3,"j":"Wurtsboro (Village)","n":"Wurtsboro - Sullivan Street and US Route 209","id":"2171543"}},{"type":"Feature","geometry":{"type":"Point","coordinates":[-74.48565,41.57609]},"properties":{"s":0,"p":3,"j":"Wurtsboro (Village)","n":"Wurtsboro - Beaver Dam Mitigation","id":"2171544"}},{"type":"Feature","geometry":{"type":"Point","coordinates":[-74.48565,41.57609]},"properties":{"s":0,"p":3,"j":"Wurtsboro (Village)","n":"Wurtsboro - Water Main Mitigation","id":"2171545"}},{"type":"Feature","geometry":{"type":"Point","coordinates":[-74.48565,41.57609]},"properties":{"s":0,"p":3,"j":"Wurtsboro (Village)","n":"Wurtsboro - Water System Backup Power","id":"2171546"}},{"type":"Feature","geometry":{"type":"Point","coordinates":[-74.48565,41.57609]},"properties":{"s":0,"p":3,"j":"Wurtsboro (Village)","n":"Wurtsboro - Village Garage","id":"2171547"}},{"type":"Feature","geometry":{"type":"Point","coordinates":[-74.76811,41.71642]},"properties":{"s":0,"p":4,"j":"Ateres (Village)","n":"Ateres - Comprehensive Plan","id":"2171548"}},{"type":"Feature","geometry":{"type":"Point","coordinates":[-74.76811,41.71642]},"properties":{"s":0,"p":4,"j":"Ateres (Village)","n":"Ateres - Transportation and Growth Plan","id":"2171549"}},{"type":"Feature","geometry":{"type":"Point","coordinates":[-74.76811,41.71642]},"properties":{"s":0,"p":4,"j":"Ateres (Village)","n":"Ateres - Undersized Drainage","id":"2171550"}},{"type":"Feature","geometry":{"type":"Point","coordinates":[-74.76811,41.71642]},"properties":{"s":0,"p":4,"j":"Ateres (Village)","n":"Ateres - Village Hall Generator","id":"2171551"}},{"type":"Feature","geometry":{"type":"Point","coordinates":[-74.76811,41.71642]},"properties":{"s":0,"p":4,"j":"Ateres (Village)","n":"Ateres - Building Code Development","id":"2171552"}},{"type":"Feature","geometry":{"type":"Point","coordinates":[-74.76811,41.71642]},"properties":{"s":0,"p":4,"j":"Ateres (Village)","n":"Ateres - NFIP Participation","id":"2171553"}},{"type":"Feature","geometry":{"type":"Point","coordinates":[-74.76811,41.71642]},"properties":{"s":0,"p":4,"j":"Ateres (Village)","n":"Ateres - Flood Damage Prevention Ordinance","id":"2171554"}},{"type":"Feature","geometry":{"type":"Point","coordinates":[-74.76811,41.71642]},"properties":{"s":0,"p":4,"j":"Ateres (Village)","n":"Ateres - Floodplain Management Training","id":"2171555"}},{"type":"Feature","geometry":{"type":"Point","coordinates":[-74.76811,41.71642]},"properties":{"s":0,"p":4,"j":"Ateres (Village)","n":"Ateres - Zoning Code Development","id":"2171556"}},{"type":"Feature","geometry":{"type":"Point","coordinates":[-74.76811,41.71642]},"properties":{"s":0,"p":4,"j":"Ateres (Village)","n":"Ateres - Comprehensive Emergency Management Plan","id":"2171557"}},{"type":"Feature","geometry":{"type":"Point","coordinates":[-74.76811,41.71642]},"properties":{"s":0,"p":4,"j":"Ateres (Village)","n":"Ateres - Wildfire Education and Outreach","id":"2171558"}}]}