{"type":"FeatureCollection","features":[{"type":"Feature","geometry":{"type":"Polygon","coordinates":[[[-75.053958,41.730087],[-75.05484,41.735428],[-75.052653,41.743922],[-75.053088,41.748252],[-75.052969,41.751793],[-75.054815,41.755016],[-75.056167,41.756355],[-75.057007,41.758555],[-75.059633,41.762994],[-75.061237,41.76479],[-75.064758,41.766687],[-75.069043,41.76744],[-75.072464,41.768548],[-75.074099,41.77091],[-75.076386,41.771743],[-75.079156,41.771607],[-75.087182,41.769392],[-75.09281,41.768361],[-75.100627,41.769086],[-75.101895,41.769609],[-75.103492,41.771238],[-75.104625,41.7738],[-75.104676,41.774731],[-75.103879,41.776048],[-75.103822,41.780703],[-75.102352,41.786067],[-75.100874,41.788882],[-75.096236,41.792496],[-75.092883,41.796457],[-75.091954,41.796976],[-75.087939,41.797717],[-75.082126,41.796496],[-75.07907,41.79704],[-75.076675,41.798537],[-75.074956,41.800659],[-75.072515,41.805999],[-75.071509,41.811304],[-75.071643,41.812782],[-75.072248,41.814131],[-75.073351,41.814914],[-75.07476,41.815294],[-75.078769,41.81521],[-75.080912,41.814572],[-75.085525,41.811712],[-75.08988,41.811701],[-75.091863,41.812537],[-75.096343,41.815241],[-75.100565,41.818927],[-75.103886,41.819669],[-75.109085,41.821617],[-75.112677,41.822395],[-75.113646,41.823477],[-75.115068,41.827546],[-75.114401,41.831731],[-75.113087,41.83706],[-75.113405,41.84214],[-75.114983,41.84447],[-75.116595,41.845449],[-75.119372,41.846184],[-75.122667,41.84599],[-75.126919,41.84506],[-75.130991,41.845261],[-75.131993,41.845755],[-75.133747,41.847571],[-75.138474,41.850721],[-75.139876,41.852058],[-75.14144,41.852209],[-75.144744,41.851677],[-75.093738,41.875087],[-75.001668,41.916393],[-74.920547,41.953489],[-74.828708,41.994017],[-74.780693,42.016375],[-74.749602,42.002937],[-74.6246,41.951112],[-74.514684,41.902157],[-74.453685,41.875595],[-74.45382,41.875092],[-74.486924,41.835264],[-74.544402,41.778023],[-74.563309,41.757364],[-74.575086,41.745258],[-74.499602,41.701898],[-74.423814,41.659739],[-74.395071,41.644876],[-74.395272,41.644649],[-74.394322,41.643337],[-74.394373,41.642562],[-74.392502,41.64124],[-74.393242,41.640503],[-74.39224,41.639295],[-74.391551,41.637101],[-74.391457,41.633455],[-74.38879,41.629768],[-74.388303,41.629285],[-74.387069,41.628947],[-74.386842,41.628559],[-74.387162,41.62753],[-74.386624,41.627009],[-74.386717,41.626532],[-74.386306,41.625886],[-74.386723,41.625014],[-74.386503,41.623987],[-74.387193,41.622749],[-74.386723,41.622448],[-74.386841,41.621024],[-74.386203,41.620183],[-74.386362,41.619372],[-74.385954,41.617911],[-74.384197,41.615901],[-74.38411,41.615261],[-74.382124,41.614892],[-74.38152,41.614235],[-74.380724,41.614125],[-74.381024,41.612066],[-74.37933,41.61027],[-74.379308,41.609686],[-74.379816,41.609022],[-74.379275,41.606586],[-74.378565,41.605496],[-74.377566,41.605701],[-74.375937,41.604574],[-74.376267,41.603941],[-74.375332,41.602929],[-74.376501,41.601682],[-74.37617,41.599388],[-74.375679,41.59887],[-74.376139,41.598399],[-74.376009,41.597972],[-74.375251,41.596971],[-74.373958,41.596831],[-74.372921,41.596213],[-74.370313,41.596507],[-74.367454,41.595963],[-74.366966,41.595372],[-74.365911,41.595588],[-74.364334,41.59395],[-74.365261,41.593623],[-74.365052,41.593197],[-74.365995,41.592401],[-74.366979,41.592334],[-74.368272,41.591701],[-74.36829,41.59138],[-74.367055,41.590977],[-74.369136,41.590182],[-74.370089,41.58859],[-74.37215,41.587936],[-74.374145,41.587751],[-74.377974,41.586385],[-74.37865,41.586477],[-74.379334,41.58734],[-74.379951,41.587416],[-74.380756,41.586158],[-74.383234,41.584088],[-74.3849,41.583433],[-74.386149,41.583132],[-74.388122,41.583333],[-74.389153,41.585479],[-74.389931,41.586309],[-74.390496,41.586315],[-74.391452,41.584039],[-74.391414,41.58348],[-74.39066,41.582839],[-74.390709,41.5823],[-74.393423,41.582],[-74.395429,41.580693],[-74.396045,41.579662],[-74.395702,41.578074],[-74.395856,41.576861],[-74.397346,41.575741],[-74.397614,41.575094],[-74.399345,41.575495],[-74.400102,41.575168],[-74.401796,41.575365],[-74.403836,41.57425],[-74.404464,41.573101],[-74.405854,41.5729],[-74.40656,41.57222],[-74.407176,41.572497],[-74.40823,41.573914],[-74.407602,41.574971],[-74.408076,41.575235],[-74.408554,41.574906],[-74.409091,41.573842],[-74.409801,41.573291],[-74.409696,41.571914],[-74.411085,41.571012],[-74.41045,41.570488],[-74.408092,41.570394],[-74.407605,41.568965],[-74.408251,41.568311],[-74.409894,41.568217],[-74.412931,41.56878],[-74.413517,41.567905],[-74.41414,41.567803],[-74.416223,41.568648],[-74.416126,41.569294],[-74.416386,41.569584],[-74.417575,41.569932],[-74.418302,41.569651],[-74.41841,41.568928],[-74.417781,41.567911],[-74.419406,41.565426],[-74.418836,41.564529],[-74.418836,41.563767],[-74.419733,41.562426],[-74.420763,41.562236],[-74.421768,41.562942],[-74.423101,41.562969],[-74.42344,41.562643],[-74.423004,41.561275],[-74.423113,41.559979],[-74.429823,41.558459],[-74.429826,41.557694],[-74.429172,41.557018],[-74.426577,41.556606],[-74.426131,41.556161],[-74.426919,41.555925],[-74.430275,41.555988],[-74.431438,41.554577],[-74.430416,41.554174],[-74.430288,41.553842],[-74.434139,41.553622],[-74.434877,41.552166],[-74.436174,41.551075],[-74.436044,41.549923],[-74.435036,41.548497],[-74.434847,41.546389],[-74.435514,41.546117],[-74.438593,41.547387],[-74.438339,41.546262],[-74.438836,41.545191],[-74.437696,41.54383],[-74.438072,41.543341],[-74.439199,41.543023],[-74.441248,41.543576],[-74.4432,41.543468],[-74.445431,41.544012],[-74.446039,41.540981],[-74.443917,41.540993],[-74.443691,41.540738],[-74.444187,41.539438],[-74.443647,41.538962],[-74.444602,41.537233],[-74.446109,41.536497],[-74.447078,41.535607],[-74.447959,41.53536],[-74.447939,41.534353],[-74.450277,41.53302],[-74.453361,41.532581],[-74.45454,41.533369],[-74.45604,41.531884],[-74.45583,41.531007],[-74.455319,41.530589],[-74.45545,41.530112],[-74.457127,41.529573],[-74.457877,41.52886],[-74.457725,41.528412],[-74.457097,41.528292],[-74.457148,41.527502],[-74.458792,41.526963],[-74.459719,41.525861],[-74.460037,41.524829],[-74.461329,41.52468],[-74.462733,41.523332],[-74.465661,41.523014],[-74.464792,41.519693],[-74.465729,41.518326],[-74.465616,41.516882],[-74.466977,41.515983],[-74.468254,41.515841],[-74.468121,41.514965],[-74.46889,41.514042],[-74.470371,41.513549],[-74.471397,41.51279],[-74.472535,41.512659],[-74.4724,41.511486],[-74.476092,41.510399],[-74.47473,41.509053],[-74.474111,41.508945],[-74.474224,41.507723],[-74.475068,41.507227],[-74.473886,41.506664],[-74.47457,41.506092],[-74.475746,41.506231],[-74.475805,41.505517],[-74.475458,41.504952],[-74.475619,41.503953],[-74.48246,41.503963],[-74.483152,41.504427],[-74.483353,41.504046],[-74.484367,41.504235],[-74.484937,41.503791],[-74.485886,41.504017],[-74.487029,41.503616],[-74.487574,41.504375],[-74.488352,41.503735],[-74.491162,41.504155],[-74.491691,41.503495],[-74.493801,41.504447],[-74.494148,41.504089],[-74.495358,41.504447],[-74.496341,41.503669],[-74.557366,41.50125],[-74.560763,41.500609],[-74.571897,41.500093],[-74.752399,41.493743],[-74.753115,41.492389],[-74.754132,41.491676],[-74.760911,41.49067],[-74.761715,41.489755],[-74.762105,41.488508],[-74.761894,41.487839],[-74.759846,41.48544],[-74.760039,41.482856],[-74.759648,41.481856],[-74.7542,41.478502],[-74.754343,41.476294],[-74.753948,41.475379],[-74.752975,41.474385],[-74.752344,41.472643],[-74.752864,41.467578],[-74.750853,41.465698],[-74.750412,41.46433],[-74.750832,41.463713],[-74.753227,41.462398],[-74.75984,41.46079],[-74.759759,41.458893],[-74.758575,41.454476],[-74.7613,41.450012],[-74.762466,41.449525],[-74.762623,41.445528],[-74.762309,41.444352],[-74.759483,41.442588],[-74.758897,41.440743],[-74.756578,41.436827],[-74.756107,41.433947],[-74.755087,41.433182],[-74.752575,41.433241],[-74.751868,41.432477],[-74.752025,41.431595],[-74.752889,41.430302],[-74.754145,41.430184],[-74.755479,41.429479],[-74.756421,41.428009],[-74.755323,41.425669],[-74.754606,41.424883],[-74.758587,41.423287],[-74.762401,41.423328],[-74.765937,41.424252],[-74.770502,41.42611],[-74.772707,41.426342],[-74.777774,41.425299],[-74.782713,41.422849],[-74.788286,41.421491],[-74.790848,41.42168],[-74.793115,41.422356],[-74.794545,41.423102],[-74.796227,41.425223],[-74.799256,41.430806],[-74.800095,41.43343],[-74.800253,41.436274],[-74.801403,41.43867],[-74.805158,41.441853],[-74.807483,41.442767],[-74.809426,41.443063],[-74.812488,41.442802],[-74.817995,41.440505],[-74.822584,41.437014],[-74.823582,41.435805],[-74.824877,41.433173],[-74.826341,41.431646],[-74.829256,41.430691],[-74.832032,41.430391],[-74.834846,41.430771],[-74.837477,41.431897],[-74.840801,41.434515],[-74.842997,41.435679],[-74.846072,41.437887],[-74.847869,41.439619],[-74.853909,41.443146],[-74.857653,41.444156],[-74.863142,41.444387],[-74.878303,41.44],[-74.885718,41.438988],[-74.88901,41.438165],[-74.892625,41.438617],[-74.89566,41.439688],[-74.896427,41.440911],[-74.896399,41.442179],[-74.894855,41.446191],[-74.8934,41.447742],[-74.889936,41.450092],[-74.889156,41.451072],[-74.889351,41.453137],[-74.890169,41.455558],[-74.891199,41.456544],[-74.894768,41.458145],[-74.904039,41.459846],[-74.906553,41.460876],[-74.907939,41.463849],[-74.908163,41.46567],[-74.907964,41.467404],[-74.909181,41.472436],[-74.910209,41.473961],[-74.913035,41.476017],[-74.917966,41.477173],[-74.921629,41.476921],[-74.924092,41.477138],[-74.926835,41.478327],[-74.933125,41.482577],[-74.936961,41.483215],[-74.942869,41.483647],[-74.944391,41.483582],[-74.946041,41.483087],[-74.94808,41.480625],[-74.955375,41.477177],[-74.95823,41.476581],[-74.966984,41.477037],[-74.976513,41.479173],[-74.981804,41.479949],[-74.982821,41.480508],[-74.984856,41.483191],[-74.985645,41.485865],[-74.984979,41.490633],[-74.982816,41.495605],[-74.98227,41.498685],[-74.982609,41.501382],[-74.98424,41.506509],[-74.985907,41.508157],[-74.988004,41.508879],[-74.993795,41.508886],[-75.000255,41.507375],[-75.003041,41.507886],[-75.003578,41.508277],[-75.003903,41.510111],[-75.003668,41.511808],[-75.000956,41.517593],[-75.000749,41.518597],[-75.001297,41.52065],[-75.003212,41.523481],[-75.007516,41.527122],[-75.011139,41.529318],[-75.016797,41.532195],[-75.023217,41.533171],[-75.024087,41.53374],[-75.024543,41.534593],[-75.025024,41.537929],[-75.0247,41.540131],[-75.022226,41.541756],[-75.017503,41.542642],[-75.016466,41.543346],[-75.015976,41.544205],[-75.016128,41.546592],[-75.018804,41.552436],[-75.021018,41.555194],[-75.022608,41.556642],[-75.028055,41.564339],[-75.029201,41.564783],[-75.031455,41.564805],[-75.033592,41.565238],[-75.037792,41.567598],[-75.04049,41.569688],[-75.043904,41.574702],[-75.045143,41.579672],[-75.046178,41.582233],[-75.047246,41.583682],[-75.052934,41.587894],[-75.05627,41.588988],[-75.060012,41.590813],[-75.062718,41.593799],[-75.067714,41.600249],[-75.073144,41.604664],[-75.074577,41.606263],[-75.074809,41.60729],[-75.074475,41.608125],[-75.069721,41.610114],[-75.06823,41.61022],[-75.063698,41.609271],[-75.059728,41.610415],[-75.059598,41.611443],[-75.061103,41.614009],[-75.061565,41.6158],[-75.061329,41.616685],[-75.059731,41.617556],[-75.05582,41.618486],[-75.05302,41.618515],[-75.048381,41.615922],[-75.046745,41.615621],[-75.045323,41.61615],[-75.044469,41.61717],[-75.044181,41.618063],[-75.044477,41.620749],[-75.04361,41.623322],[-75.044102,41.624555],[-75.045274,41.6257],[-75.048617,41.633013],[-75.048867,41.638979],[-75.049497,41.641562],[-75.049188,41.642979],[-75.047708,41.645851],[-75.048797,41.647534],[-75.049192,41.650055],[-75.048839,41.657291],[-75.049464,41.660277],[-75.050472,41.663093],[-75.052967,41.665898],[-75.053996,41.668074],[-75.05474,41.668631],[-75.057533,41.668844],[-75.059041,41.670445],[-75.059516,41.672255],[-75.059425,41.673537],[-75.058418,41.6749],[-75.053334,41.677987],[-75.051252,41.680018],[-75.051121,41.681955],[-75.052295,41.684991],[-75.052627,41.68811],[-75.056032,41.694629],[-75.058723,41.698469],[-75.060334,41.700333],[-75.067068,41.705145],[-75.068683,41.708021],[-75.068957,41.709327],[-75.06873,41.710472],[-75.067828,41.71179],[-75.066222,41.71276],[-75.063394,41.713058],[-75.059203,41.71281],[-75.052359,41.711484],[-75.050959,41.7118],[-75.049848,41.713066],[-75.049719,41.715909],[-75.051831,41.719921],[-75.05208,41.721958],[-75.053675,41.727346],[-75.053958,41.730087]]]},"properties":{"kind":"county","name":"Sullivan County","geoid":"36105","sqmi":996.6,"n":475}},{"type":"Feature","geometry":{"type":"Polygon","coordinates":[[[-74.943887,41.625196],[-74.942777,41.634571],[-74.924705,41.749491],[-74.923093,41.766369],[-74.922284,41.770216],[-74.921903,41.77528],[-74.783156,41.749201],[-74.762102,41.744819],[-74.74963,41.742596],[-74.747691,41.739901],[-74.746679,41.737569],[-74.74564,41.73704],[-74.746405,41.73525],[-74.745548,41.734786],[-74.745482,41.734456],[-74.745906,41.734126],[-74.745348,41.733555],[-74.745513,41.73302],[-74.746071,41.732645],[-74.745826,41.731628],[-74.746099,41.730229],[-74.745874,41.727396],[-74.746349,41.726038],[-74.745547,41.725005],[-74.745314,41.723767],[-74.744416,41.722687],[-74.744934,41.720318],[-74.744356,41.718453],[-74.743742,41.717553],[-74.744038,41.716637],[-74.745317,41.715609],[-74.74418,41.714287],[-74.744669,41.713212],[-74.744416,41.711792],[-74.741299,41.709727],[-74.741202,41.708011],[-74.740635,41.706657],[-74.739964,41.705947],[-74.74001,41.705027],[-74.738696,41.703709],[-74.739992,41.703066],[-74.741408,41.701186],[-74.742139,41.700983],[-74.74258,41.700432],[-74.746031,41.699506],[-74.746258,41.699093],[-74.746105,41.69777],[-74.746455,41.697278],[-74.747695,41.697112],[-74.749318,41.696114],[-74.750003,41.696428],[-74.750368,41.696238],[-74.750403,41.695831],[-74.749844,41.695389],[-74.751336,41.695133],[-74.751185,41.693748],[-74.751448,41.693306],[-74.752769,41.693237],[-74.754073,41.694656],[-74.755732,41.695685],[-74.757419,41.695616],[-74.758,41.695305],[-74.758242,41.694476],[-74.757377,41.693576],[-74.757459,41.692863],[-74.758255,41.692103],[-74.759612,41.692208],[-74.7599,41.69122],[-74.758938,41.690031],[-74.756776,41.689292],[-74.757502,41.688269],[-74.759481,41.686866],[-74.760584,41.685672],[-74.760114,41.683341],[-74.76366,41.680072],[-74.763991,41.678591],[-74.765108,41.678284],[-74.767079,41.677107],[-74.771677,41.67757],[-74.776183,41.676971],[-74.775738,41.675338],[-74.77434,41.673668],[-74.779391,41.668861],[-74.780729,41.668405],[-74.782323,41.666871],[-74.783632,41.666544],[-74.784076,41.665865],[-74.78541,41.665109],[-74.786769,41.663121],[-74.78676,41.662296],[-74.785763,41.659925],[-74.784279,41.657983],[-74.785117,41.654977],[-74.784876,41.652961],[-74.783412,41.649915],[-74.782594,41.646667],[-74.783908,41.63477],[-74.785138,41.630023],[-74.782977,41.625097],[-74.783923,41.622115],[-74.784031,41.617429],[-74.784737,41.611974],[-74.784565,41.609187],[-74.78384,41.606203],[-74.783831,41.604143],[-74.944505,41.618265],[-74.943887,41.625196]]]},"properties":{"kind":"juris","name":"Bethel (Town)","geoid":"3610506310","type":"Town","n":25,"p0":25,"p1":0,"p2":0,"p3":0,"matched":true}},{"type":"Feature","geometry":{"type":"Polygon","coordinates":[[[-74.452816,41.548255],[-74.450074,41.550758],[-74.453176,41.552599],[-74.450499,41.554642],[-74.450978,41.55533],[-74.448591,41.557545],[-74.449968,41.558074],[-74.448974,41.558982],[-74.450143,41.559679],[-74.449619,41.560015],[-74.448049,41.559659],[-74.447266,41.55867],[-74.445403,41.560371],[-74.438798,41.556519],[-74.437732,41.556906],[-74.434938,41.555036],[-74.434079,41.555735],[-74.433662,41.555427],[-74.430583,41.557347],[-74.429416,41.556739],[-74.429149,41.557009],[-74.428662,41.55686],[-74.428865,41.556079],[-74.430275,41.555988],[-74.431417,41.554665],[-74.433096,41.553846],[-74.433556,41.554392],[-74.434519,41.554288],[-74.434151,41.553855],[-74.434393,41.552976],[-74.434877,41.552166],[-74.436174,41.551075],[-74.436152,41.550699],[-74.44183,41.551549],[-74.44149,41.55194],[-74.443103,41.552502],[-74.444031,41.551372],[-74.445206,41.551277],[-74.44389,41.549904],[-74.44212,41.548815],[-74.439848,41.548124],[-74.439925,41.547916],[-74.438616,41.54733],[-74.438339,41.546262],[-74.438836,41.545191],[-74.437732,41.543994],[-74.438072,41.543341],[-74.439551,41.543023],[-74.441248,41.543576],[-74.444485,41.543676],[-74.445611,41.545134],[-74.44815,41.546606],[-74.450645,41.545446],[-74.453725,41.547373],[-74.452816,41.548255]]]},"properties":{"kind":"juris","name":"Bloomingburg (Village)","geoid":"3606959","type":"Village","n":12,"p0":12,"p1":0,"p2":0,"p3":0,"matched":true}},{"type":"Feature","geometry":{"type":"Polygon","coordinates":[[[-75.016947,41.793428],[-75.008334,41.819334],[-74.994429,41.816644],[-74.986136,41.841242],[-74.967774,41.83714],[-74.963091,41.852369],[-74.961298,41.852214],[-74.955711,41.865139],[-74.954019,41.864769],[-74.949279,41.875721],[-74.946627,41.875162],[-74.941598,41.886791],[-74.93734,41.886047],[-74.930716,41.909012],[-74.845519,41.885639],[-74.854266,41.865583],[-74.84798,41.863942],[-74.863178,41.829436],[-74.865207,41.830017],[-74.874301,41.802011],[-74.874733,41.801464],[-74.878485,41.790593],[-74.885743,41.768449],[-74.919519,41.774836],[-74.918118,41.779144],[-74.931253,41.783165],[-74.931105,41.783651],[-74.931706,41.783768],[-74.931286,41.785207],[-74.931931,41.786975],[-74.933276,41.785147],[-74.93394,41.7853],[-74.939479,41.782518],[-74.940788,41.780677],[-74.94126,41.779033],[-75.016947,41.793428]]]},"properties":{"kind":"juris","name":"Callicoon (Town)","geoid":"3610511759","type":"Town","n":25,"p0":22,"p1":1,"p2":2,"p3":0,"matched":true}},{"type":"Feature","geometry":{"type":"Polygon","coordinates":[[[-75.068917,41.709794],[-75.068569,41.710777],[-75.067507,41.71214],[-75.065625,41.712865],[-75.063394,41.713058],[-75.059203,41.71281],[-75.052359,41.711484],[-75.050959,41.7118],[-75.049848,41.713066],[-75.049719,41.715909],[-75.051831,41.719921],[-75.05208,41.721958],[-75.053675,41.727346],[-75.053958,41.730087],[-75.015856,41.725507],[-74.967305,41.720521],[-74.968044,41.718028],[-74.930185,41.713708],[-74.942777,41.634571],[-74.944505,41.618265],[-74.981175,41.621574],[-74.979261,41.634246],[-75.011362,41.641202],[-75.049192,41.650055],[-75.04888,41.657808],[-75.050207,41.662534],[-75.0508,41.663616],[-75.052967,41.665898],[-75.054194,41.668269],[-75.055113,41.668712],[-75.057238,41.668715],[-75.058448,41.669686],[-75.059177,41.670785],[-75.059571,41.672744],[-75.059425,41.673537],[-75.058418,41.6749],[-75.053334,41.677987],[-75.051252,41.680018],[-75.051121,41.681955],[-75.052295,41.684991],[-75.052627,41.68811],[-75.056032,41.694629],[-75.057763,41.6972],[-75.060334,41.700333],[-75.067068,41.705145],[-75.068683,41.708021],[-75.068917,41.709794]]]},"properties":{"kind":"juris","name":"Cochecton (Town)","geoid":"3610516661","type":"Town","n":9,"p0":9,"p1":0,"p2":0,"p3":0,"matched":true}},{"type":"Feature","geometry":{"type":"Polygon","coordinates":[[[-75.104711,41.774384],[-75.103879,41.776048],[-75.103948,41.78015],[-75.101726,41.787504],[-75.100538,41.789276],[-75.095784,41.792949],[-75.092883,41.796457],[-75.091263,41.797207],[-75.088497,41.797707],[-75.086684,41.797575],[-75.082662,41.796506],[-75.07907,41.79704],[-75.077234,41.798109],[-75.075652,41.799555],[-75.073515,41.803509],[-75.030383,41.795493],[-75.002025,41.790676],[-74.980385,41.786348],[-74.933872,41.777799],[-74.921903,41.77528],[-74.922284,41.770216],[-74.923093,41.766369],[-74.924705,41.749491],[-74.930185,41.713708],[-74.968044,41.718028],[-74.967305,41.720521],[-75.015856,41.725507],[-75.053958,41.730087],[-75.05484,41.735428],[-75.052653,41.743922],[-75.053088,41.748252],[-75.052969,41.751793],[-75.054815,41.755016],[-75.056167,41.756355],[-75.057007,41.758555],[-75.059633,41.762994],[-75.061237,41.76479],[-75.064758,41.766687],[-75.069043,41.76744],[-75.072464,41.768548],[-75.074099,41.77091],[-75.076386,41.771743],[-75.079156,41.771607],[-75.087182,41.769392],[-75.09281,41.768361],[-75.100627,41.769086],[-75.101895,41.769609],[-75.103492,41.771238],[-75.104334,41.772693],[-75.104711,41.774384]]]},"properties":{"kind":"juris","name":"Delaware (Town)","geoid":"3610520104","type":"Town","n":20,"p0":18,"p1":2,"p2":0,"p3":0,"matched":true}},{"type":"Feature","geometry":{"type":"MultiPolygon","coordinates":[[[[-74.701679,41.74238],[-74.687254,41.785229],[-74.704411,41.789549],[-74.6889,41.824258],[-74.662644,41.820811],[-74.629819,41.811581],[-74.618827,41.822816],[-74.572283,41.809856],[-74.568163,41.808668],[-74.568226,41.808261],[-74.567926,41.808602],[-74.525506,41.796817],[-74.544402,41.778023],[-74.563309,41.757364],[-74.575086,41.745258],[-74.507667,41.706452],[-74.491062,41.697185],[-74.496674,41.690235],[-74.500971,41.684189],[-74.517383,41.663694],[-74.525057,41.653373],[-74.531097,41.646019],[-74.608951,41.656841],[-74.609391,41.656945],[-74.609257,41.6604],[-74.608139,41.661319],[-74.60835,41.662232],[-74.607691,41.663222],[-74.606692,41.664288],[-74.605237,41.665114],[-74.600784,41.666172],[-74.600483,41.667312],[-74.599983,41.66761],[-74.599493,41.669211],[-74.600463,41.670045],[-74.601187,41.671717],[-74.601246,41.67303],[-74.623818,41.677352],[-74.653557,41.681959],[-74.646629,41.722776],[-74.704549,41.733988],[-74.701679,41.74238]],[[-74.592653,41.716723],[-74.588812,41.715853],[-74.590459,41.711283],[-74.586169,41.710412],[-74.586435,41.710047],[-74.578796,41.707022],[-74.580291,41.707284],[-74.581299,41.705919],[-74.582,41.70604],[-74.582429,41.705291],[-74.577081,41.705365],[-74.576629,41.704378],[-74.57592,41.704657],[-74.575219,41.704346],[-74.575411,41.704016],[-74.574391,41.70349],[-74.574845,41.701942],[-74.568131,41.699063],[-74.568187,41.699472],[-74.565488,41.698598],[-74.56551,41.69778],[-74.563718,41.697005],[-74.561491,41.702749],[-74.562071,41.704101],[-74.562494,41.70425],[-74.561564,41.70573],[-74.558909,41.704748],[-74.558647,41.705073],[-74.556698,41.704446],[-74.556936,41.703897],[-74.552864,41.701776],[-74.551591,41.702113],[-74.55147,41.702613],[-74.550414,41.701635],[-74.549925,41.701937],[-74.551009,41.703499],[-74.552435,41.703799],[-74.551731,41.705877],[-74.560406,41.707501],[-74.55889,41.709827],[-74.559391,41.709923],[-74.55921,41.711225],[-74.558985,41.711263],[-74.559005,41.710574],[-74.558354,41.710009],[-74.558442,41.709715],[-74.558102,41.709626],[-74.556905,41.712092],[-74.558335,41.713831],[-74.56123,41.714429],[-74.561478,41.713701],[-74.564133,41.714217],[-74.564622,41.712802],[-74.567048,41.713885],[-74.568266,41.713042],[-74.568461,41.713117],[-74.566606,41.714626],[-74.567743,41.714942],[-74.567913,41.714604],[-74.570397,41.714754],[-74.56993,41.715523],[-74.56849,41.715206],[-74.568212,41.715935],[-74.579914,41.718419],[-74.578699,41.721904],[-74.574441,41.721041],[-74.573073,41.725042],[-74.588609,41.728347],[-74.588836,41.727324],[-74.586403,41.726559],[-74.586611,41.726054],[-74.583329,41.725311],[-74.584268,41.723032],[-74.587803,41.723701],[-74.591786,41.718465],[-74.592653,41.716723]]],[[[-74.586304,41.716187],[-74.586398,41.716409],[-74.585809,41.716516],[-74.585617,41.716057],[-74.584905,41.71614],[-74.584593,41.715441],[-74.583429,41.715931],[-74.582888,41.716661],[-74.582133,41.716375],[-74.584028,41.713804],[-74.585624,41.714961],[-74.586304,41.716187]]],[[[-74.575833,41.704668],[-74.575722,41.704972],[-74.575084,41.704701],[-74.575192,41.704393],[-74.575833,41.704668]]],[[[-74.575078,41.704728],[-74.574849,41.705545],[-74.574282,41.70532],[-74.574594,41.704578],[-74.575078,41.704728]]],[[[-74.570555,41.713864],[-74.570249,41.714033],[-74.569882,41.713652],[-74.569383,41.714086],[-74.568928,41.713799],[-74.569359,41.713442],[-74.570555,41.713864]]],[[[-74.56674,41.702416],[-74.565396,41.701899],[-74.565044,41.699318],[-74.566344,41.69986],[-74.56674,41.702416]]]]},"properties":{"kind":"juris","name":"Fallsburg (Town)","geoid":"3610525241","type":"Town","n":30,"p0":28,"p1":1,"p2":1,"p3":0,"matched":true}},{"type":"Feature","geometry":{"type":"Polygon","coordinates":[[[-74.786854,41.559615],[-74.786316,41.562202],[-74.785222,41.563048],[-74.784689,41.565954],[-74.781873,41.568959],[-74.78171,41.570211],[-74.78301,41.573706],[-74.782338,41.575836],[-74.782181,41.57928],[-74.778625,41.583624],[-74.777996,41.585633],[-74.778217,41.58798],[-74.777691,41.590345],[-74.778862,41.594301],[-74.778236,41.596513],[-74.778476,41.59707],[-74.783292,41.601298],[-74.78392,41.602321],[-74.783831,41.604143],[-74.650526,41.59213],[-74.630536,41.577487],[-74.616552,41.566679],[-74.61022,41.562482],[-74.602271,41.55657],[-74.620742,41.533363],[-74.597403,41.520617],[-74.620472,41.498421],[-74.752399,41.493743],[-74.752568,41.495438],[-74.754291,41.496588],[-74.756689,41.499504],[-74.756932,41.500916],[-74.757669,41.502474],[-74.758146,41.505689],[-74.761212,41.510494],[-74.762133,41.517296],[-74.762331,41.52645],[-74.762919,41.527744],[-74.763133,41.530185],[-74.766439,41.534944],[-74.770214,41.53724],[-74.771643,41.537299],[-74.772989,41.538522],[-74.773547,41.539744],[-74.773575,41.54218],[-74.774222,41.544451],[-74.775214,41.546026],[-74.779688,41.550506],[-74.781528,41.552881],[-74.782324,41.553686],[-74.786089,41.554296],[-74.786927,41.557663],[-74.786854,41.559615]]]},"properties":{"kind":"juris","name":"Forestburgh (Town)","geoid":"3610526528","type":"Town","n":21,"p0":18,"p1":0,"p2":2,"p3":1,"matched":true}},{"type":"Feature","geometry":{"type":"Polygon","coordinates":[[[-75.144489,41.851794],[-75.093738,41.875087],[-74.985156,41.924007],[-74.930716,41.909012],[-74.93734,41.886047],[-74.941598,41.886791],[-74.946627,41.875162],[-74.949279,41.875721],[-74.954019,41.864769],[-74.955711,41.865139],[-74.961298,41.852214],[-74.963091,41.852369],[-74.967774,41.83714],[-74.986136,41.841242],[-74.994429,41.816644],[-75.008334,41.819334],[-75.017002,41.793283],[-75.030383,41.795493],[-75.073515,41.803509],[-75.072343,41.806644],[-75.071509,41.811304],[-75.071977,41.813685],[-75.073351,41.814914],[-75.075531,41.815366],[-75.079362,41.8151],[-75.081577,41.814225],[-75.085525,41.811712],[-75.08988,41.811701],[-75.091863,41.812537],[-75.096343,41.815241],[-75.100565,41.818927],[-75.103886,41.819669],[-75.108331,41.821391],[-75.113045,41.822644],[-75.114032,41.824372],[-75.115068,41.827546],[-75.114401,41.831731],[-75.113145,41.836165],[-75.113332,41.841667],[-75.1137,41.842749],[-75.115324,41.844717],[-75.117969,41.845943],[-75.120117,41.846217],[-75.122667,41.84599],[-75.126919,41.84506],[-75.130991,41.845261],[-75.131993,41.845755],[-75.133747,41.847571],[-75.138474,41.850721],[-75.139876,41.852058],[-75.14144,41.852209],[-75.144744,41.851677],[-75.144489,41.851794]]]},"properties":{"kind":"juris","name":"Fremont (Town)","geoid":"3610527573","type":"Town","n":19,"p0":14,"p1":1,"p2":4,"p3":0,"matched":true}},{"type":"Feature","geometry":{"type":"Polygon","coordinates":[[[-74.985665,41.486359],[-74.984979,41.490633],[-74.982816,41.495605],[-74.98227,41.498685],[-74.982609,41.501382],[-74.983734,41.505463],[-74.978097,41.511311],[-74.969654,41.519041],[-74.961912,41.52537],[-74.938547,41.545627],[-74.913742,41.568482],[-74.880522,41.595467],[-74.893863,41.604028],[-74.910481,41.611768],[-74.917163,41.615882],[-74.790473,41.604722],[-74.834948,41.56735],[-74.808438,41.550516],[-74.817758,41.541828],[-74.820673,41.538393],[-74.858567,41.500911],[-74.882843,41.478718],[-74.888534,41.474073],[-74.893728,41.468773],[-74.904124,41.459867],[-74.906143,41.460597],[-74.907054,41.461619],[-74.907939,41.463849],[-74.908163,41.46567],[-74.907964,41.467404],[-74.909543,41.473235],[-74.913694,41.47628],[-74.917966,41.477173],[-74.921629,41.476921],[-74.924092,41.477138],[-74.926835,41.478327],[-74.933125,41.482577],[-74.936961,41.483215],[-74.943415,41.483681],[-74.946041,41.483087],[-74.94808,41.480625],[-74.956702,41.476771],[-74.958981,41.4766],[-74.966984,41.477037],[-74.976513,41.479173],[-74.982115,41.480039],[-74.983201,41.480908],[-74.984716,41.482931],[-74.985665,41.486359]]]},"properties":{"kind":"juris","name":"Highland (Town)","geoid":"3610534473","type":"Town","n":13,"p0":10,"p1":1,"p2":0,"p3":2,"matched":true}},{"type":"Feature","geometry":{"type":"Polygon","coordinates":[[[-74.940842,41.780484],[-74.939479,41.782518],[-74.93394,41.7853],[-74.933276,41.785147],[-74.931931,41.786975],[-74.931286,41.785207],[-74.931706,41.783768],[-74.931105,41.783651],[-74.931253,41.783165],[-74.918118,41.779144],[-74.919519,41.774836],[-74.94126,41.779033],[-74.940842,41.780484]]]},"properties":{"kind":"juris","name":"Jeffersonville (Village)","geoid":"3638506","type":"Village","n":13,"p0":12,"p1":0,"p2":1,"p3":0,"matched":true}},{"type":"Feature","geometry":{"type":"MultiPolygon","coordinates":[[[[-74.885743,41.768449],[-74.878485,41.790593],[-74.874733,41.801464],[-74.874301,41.802011],[-74.865207,41.830017],[-74.863178,41.829436],[-74.84798,41.863942],[-74.854266,41.865583],[-74.845519,41.885639],[-74.785795,41.868751],[-74.771468,41.896602],[-74.751636,41.890832],[-74.749604,41.890478],[-74.739757,41.887509],[-74.696733,41.87566],[-74.709773,41.848377],[-74.68159,41.840608],[-74.704411,41.789549],[-74.687254,41.785229],[-74.704549,41.733988],[-74.762102,41.744819],[-74.783156,41.749201],[-74.885743,41.768449]],[[-74.767698,41.808039],[-74.768645,41.805938],[-74.760011,41.803717],[-74.759333,41.804658],[-74.757567,41.804241],[-74.760561,41.800464],[-74.761272,41.800516],[-74.761136,41.799988],[-74.761634,41.799866],[-74.761526,41.799602],[-74.761158,41.799693],[-74.762457,41.798012],[-74.764334,41.79824],[-74.765326,41.797108],[-74.764834,41.79692],[-74.766594,41.792005],[-74.760983,41.790632],[-74.75997,41.793647],[-74.73756,41.788191],[-74.737043,41.789658],[-74.735253,41.783739],[-74.733947,41.78155],[-74.733742,41.780513],[-74.734411,41.778926],[-74.736782,41.777336],[-74.737917,41.775906],[-74.737738,41.774014],[-74.737459,41.774033],[-74.737389,41.775781],[-74.736975,41.776643],[-74.73449,41.778479],[-74.733692,41.779518],[-74.733447,41.780934],[-74.733966,41.782226],[-74.732495,41.781875],[-74.733236,41.78009],[-74.732327,41.779817],[-74.731306,41.78302],[-74.730184,41.782917],[-74.730324,41.782391],[-74.728817,41.782251],[-74.729156,41.780688],[-74.729553,41.780755],[-74.730099,41.780261],[-74.731334,41.780993],[-74.731726,41.779763],[-74.729773,41.779371],[-74.730826,41.777019],[-74.728968,41.776596],[-74.728014,41.779264],[-74.723974,41.77844],[-74.724027,41.7771],[-74.718919,41.77673],[-74.718656,41.777901],[-74.715902,41.777204],[-74.715468,41.778412],[-74.714657,41.778243],[-74.713255,41.781314],[-74.714774,41.782164],[-74.714348,41.782629],[-74.714081,41.782494],[-74.711016,41.791282],[-74.714871,41.792279],[-74.71526,41.790055],[-74.720914,41.786764],[-74.722788,41.786112],[-74.723209,41.784676],[-74.724094,41.785036],[-74.725477,41.786414],[-74.72782,41.786965],[-74.7291,41.787625],[-74.731147,41.789903],[-74.730317,41.790444],[-74.730811,41.790762],[-74.732058,41.790298],[-74.730015,41.786055],[-74.729744,41.784684],[-74.730553,41.78461],[-74.731019,41.786982],[-74.733707,41.788965],[-74.734936,41.792496],[-74.735708,41.793544],[-74.734828,41.793928],[-74.734493,41.79493],[-74.734757,41.795992],[-74.734418,41.796651],[-74.734988,41.799192],[-74.735546,41.799311],[-74.736059,41.801726],[-74.736277,41.801963],[-74.736747,41.801264],[-74.737151,41.799654],[-74.739862,41.800233],[-74.740504,41.801708],[-74.738293,41.806964],[-74.739823,41.808716],[-74.739578,41.808639],[-74.739347,41.809091],[-74.739621,41.809173],[-74.738593,41.811413],[-74.741511,41.812173],[-74.742047,41.811172],[-74.741648,41.811061],[-74.741782,41.810676],[-74.743577,41.8125],[-74.745821,41.812996],[-74.754593,41.810722],[-74.756228,41.811815],[-74.759527,41.812372],[-74.761101,41.808783],[-74.759574,41.808478],[-74.759937,41.807668],[-74.763099,41.808259],[-74.764035,41.80885],[-74.764383,41.809543],[-74.765257,41.80972],[-74.765539,41.809113],[-74.767115,41.80935],[-74.767698,41.808039]]],[[[-74.757875,41.806362],[-74.757559,41.806825],[-74.756048,41.806259],[-74.756616,41.805442],[-74.757677,41.805843],[-74.75745,41.806212],[-74.757875,41.806362]]],[[[-74.736892,41.790178],[-74.736202,41.792683],[-74.735594,41.792459],[-74.735178,41.790721],[-74.733983,41.788207],[-74.73295,41.787125],[-74.736137,41.787877],[-74.736892,41.790178]]],[[[-74.733594,41.784915],[-74.733531,41.786024],[-74.732623,41.785844],[-74.732848,41.784922],[-74.733594,41.784915]]],[[[-74.724445,41.782733],[-74.723816,41.783484],[-74.723144,41.783304],[-74.723415,41.782503],[-74.72079,41.781836],[-74.720933,41.780609],[-74.724127,41.78094],[-74.724006,41.782609],[-74.724445,41.782733]]],[[[-74.72398,41.77962],[-74.721511,41.779394],[-74.721526,41.77884],[-74.723969,41.779407],[-74.72398,41.77962]]],[[[-74.722855,41.784592],[-74.722721,41.785056],[-74.722493,41.785911],[-74.722167,41.785748],[-74.722457,41.784602],[-74.722855,41.784592]]],[[[-74.721893,41.784383],[-74.721407,41.785526],[-74.720745,41.785578],[-74.719822,41.786861],[-74.719334,41.78538],[-74.719908,41.784447],[-74.719824,41.784094],[-74.721893,41.784383]]],[[[-74.719427,41.784052],[-74.718967,41.785179],[-74.718673,41.78502],[-74.71863,41.784136],[-74.719427,41.784052]]],[[[-74.718587,41.781293],[-74.71743,41.783576],[-74.716302,41.782969],[-74.714308,41.784819],[-74.714052,41.784393],[-74.714405,41.783501],[-74.714772,41.78342],[-74.714603,41.782731],[-74.714912,41.782601],[-74.714839,41.782316],[-74.716053,41.782837],[-74.716543,41.782315],[-74.715962,41.781972],[-74.717009,41.780903],[-74.718587,41.781293]]]]},"properties":{"kind":"juris","name":"Liberty (Town)","geoid":"3610542235","type":"Town","n":17,"p0":14,"p1":1,"p2":2,"p3":0,"matched":true}},{"type":"Feature","geometry":{"type":"Polygon","coordinates":[[[-74.767698,41.808039],[-74.767115,41.80935],[-74.765539,41.809113],[-74.765257,41.80972],[-74.764383,41.809543],[-74.764035,41.80885],[-74.763099,41.808259],[-74.759937,41.807668],[-74.759574,41.808478],[-74.761101,41.808783],[-74.759527,41.812372],[-74.756228,41.811815],[-74.754593,41.810722],[-74.745821,41.812996],[-74.743577,41.8125],[-74.741782,41.810676],[-74.741648,41.811061],[-74.742047,41.811172],[-74.741511,41.812173],[-74.738593,41.811413],[-74.739621,41.809173],[-74.739347,41.809091],[-74.739578,41.808639],[-74.739823,41.808716],[-74.738293,41.806964],[-74.740504,41.801708],[-74.739862,41.800233],[-74.737151,41.799654],[-74.736747,41.801264],[-74.736277,41.801963],[-74.736059,41.801726],[-74.735546,41.799311],[-74.734988,41.799192],[-74.734418,41.796651],[-74.734757,41.795992],[-74.734493,41.79493],[-74.734828,41.793928],[-74.735708,41.793544],[-74.734936,41.792496],[-74.733707,41.788965],[-74.731019,41.786982],[-74.730553,41.78461],[-74.729744,41.784684],[-74.730015,41.786055],[-74.732058,41.790298],[-74.730811,41.790762],[-74.730317,41.790444],[-74.731147,41.789903],[-74.7291,41.787625],[-74.72782,41.786965],[-74.725477,41.786414],[-74.724094,41.785036],[-74.723209,41.784676],[-74.722788,41.786112],[-74.720914,41.786764],[-74.71526,41.790055],[-74.714871,41.792279],[-74.711016,41.791282],[-74.714081,41.782494],[-74.714348,41.782629],[-74.714774,41.782164],[-74.713255,41.781314],[-74.714657,41.778243],[-74.715468,41.778412],[-74.715902,41.777204],[-74.718656,41.777901],[-74.718919,41.77673],[-74.724027,41.7771],[-74.723974,41.77844],[-74.728014,41.779264],[-74.728968,41.776596],[-74.730826,41.777019],[-74.729773,41.779371],[-74.731726,41.779763],[-74.731334,41.780993],[-74.730099,41.780261],[-74.729553,41.780755],[-74.729156,41.780688],[-74.728817,41.782251],[-74.730324,41.782391],[-74.730184,41.782917],[-74.731306,41.78302],[-74.732327,41.779817],[-74.733236,41.78009],[-74.732495,41.781875],[-74.733966,41.782226],[-74.733447,41.780934],[-74.733692,41.779518],[-74.73449,41.778479],[-74.736975,41.776643],[-74.737389,41.775781],[-74.737459,41.774033],[-74.737738,41.774014],[-74.737917,41.775906],[-74.736782,41.777336],[-74.734411,41.778926],[-74.733742,41.780513],[-74.733947,41.78155],[-74.735253,41.783739],[-74.737043,41.789658],[-74.73756,41.788191],[-74.75997,41.793647],[-74.760983,41.790632],[-74.766594,41.792005],[-74.764834,41.79692],[-74.765326,41.797108],[-74.764334,41.79824],[-74.762457,41.798012],[-74.761158,41.799693],[-74.761526,41.799602],[-74.761634,41.799866],[-74.761136,41.799988],[-74.761272,41.800516],[-74.760561,41.800464],[-74.757567,41.804241],[-74.759333,41.804658],[-74.760011,41.803717],[-74.768645,41.805938],[-74.767698,41.808039]],[[-74.757875,41.806362],[-74.75745,41.806212],[-74.757677,41.805843],[-74.756616,41.805442],[-74.756048,41.806259],[-74.757559,41.806825],[-74.757875,41.806362]],[[-74.736892,41.790178],[-74.736137,41.787877],[-74.73295,41.787125],[-74.733983,41.788207],[-74.735178,41.790721],[-74.735594,41.792459],[-74.736202,41.792683],[-74.736892,41.790178]],[[-74.733594,41.784915],[-74.732848,41.784922],[-74.732623,41.785844],[-74.733531,41.786024],[-74.733594,41.784915]],[[-74.724445,41.782733],[-74.724006,41.782609],[-74.724127,41.78094],[-74.720933,41.780609],[-74.72079,41.781836],[-74.723415,41.782503],[-74.723144,41.783304],[-74.723816,41.783484],[-74.724445,41.782733]],[[-74.72398,41.77962],[-74.723969,41.779407],[-74.721526,41.77884],[-74.721511,41.779394],[-74.72398,41.77962]],[[-74.722855,41.784592],[-74.722457,41.784602],[-74.722167,41.785748],[-74.722493,41.785911],[-74.722855,41.784592]],[[-74.721893,41.784383],[-74.719824,41.784094],[-74.719908,41.784447],[-74.719334,41.78538],[-74.719822,41.786861],[-74.720745,41.785578],[-74.721407,41.785526],[-74.721893,41.784383]],[[-74.719427,41.784052],[-74.71863,41.784136],[-74.718673,41.78502],[-74.718967,41.785179],[-74.719427,41.784052]],[[-74.718587,41.781293],[-74.717009,41.780903],[-74.715962,41.781972],[-74.716543,41.782315],[-74.716053,41.782837],[-74.714839,41.782316],[-74.714912,41.782601],[-74.714603,41.782731],[-74.714772,41.78342],[-74.714405,41.783501],[-74.714052,41.784393],[-74.714308,41.784819],[-74.716302,41.782969],[-74.71743,41.783576],[-74.718587,41.781293]]]},"properties":{"kind":"juris","name":"Liberty (Village)","geoid":"3642224","type":"Village","n":20,"p0":19,"p1":0,"p2":0,"p3":1,"matched":true}},{"type":"Feature","geometry":{"type":"Polygon","coordinates":[[[-74.904124,41.459867],[-74.893728,41.468773],[-74.888534,41.474073],[-74.882843,41.478718],[-74.858567,41.500911],[-74.820673,41.538393],[-74.817758,41.541828],[-74.808438,41.550516],[-74.834948,41.56735],[-74.790473,41.604722],[-74.783831,41.604143],[-74.78392,41.602321],[-74.783292,41.601298],[-74.778476,41.59707],[-74.778244,41.59576],[-74.778862,41.594301],[-74.777691,41.590345],[-74.778217,41.58798],[-74.778092,41.5847],[-74.780078,41.581536],[-74.782181,41.57928],[-74.782338,41.575836],[-74.78301,41.573706],[-74.781704,41.569854],[-74.782,41.568674],[-74.784689,41.565954],[-74.785222,41.563048],[-74.786422,41.56194],[-74.786927,41.557663],[-74.786495,41.55526],[-74.785811,41.554091],[-74.782324,41.553686],[-74.781528,41.552881],[-74.779688,41.550506],[-74.775214,41.546026],[-74.774222,41.544451],[-74.773575,41.54218],[-74.773547,41.539744],[-74.772989,41.538522],[-74.771643,41.537299],[-74.770214,41.53724],[-74.766439,41.534944],[-74.763133,41.530185],[-74.762919,41.527744],[-74.762331,41.52645],[-74.762133,41.517296],[-74.761212,41.510494],[-74.758146,41.505689],[-74.757669,41.502474],[-74.756932,41.500916],[-74.756689,41.499504],[-74.754291,41.496588],[-74.75278,41.495697],[-74.752377,41.495092],[-74.752535,41.493264],[-74.753587,41.491964],[-74.755008,41.491405],[-74.760654,41.49079],[-74.761435,41.490245],[-74.762105,41.488508],[-74.761894,41.487839],[-74.759846,41.48544],[-74.760039,41.482856],[-74.759648,41.481856],[-74.7542,41.478502],[-74.754343,41.476294],[-74.753948,41.475379],[-74.752975,41.474385],[-74.752344,41.472643],[-74.752864,41.467578],[-74.750486,41.465056],[-74.750545,41.463961],[-74.752003,41.462956],[-74.755025,41.461784],[-74.75984,41.46079],[-74.759759,41.458893],[-74.758575,41.454476],[-74.7613,41.450012],[-74.762466,41.449525],[-74.762623,41.445528],[-74.762309,41.444352],[-74.759483,41.442588],[-74.758897,41.440743],[-74.756578,41.436827],[-74.756107,41.433947],[-74.755087,41.433182],[-74.752575,41.433241],[-74.751868,41.432477],[-74.752025,41.431595],[-74.752889,41.430302],[-74.754145,41.430184],[-74.755479,41.429479],[-74.756421,41.428009],[-74.755323,41.425669],[-74.754606,41.424883],[-74.757926,41.423437],[-74.76156,41.423183],[-74.765937,41.424252],[-74.770502,41.42611],[-74.772707,41.426342],[-74.777774,41.425299],[-74.782713,41.422849],[-74.788286,41.421491],[-74.790848,41.42168],[-74.79259,41.422167],[-74.794545,41.423102],[-74.796925,41.426414],[-74.799698,41.431918],[-74.800095,41.43343],[-74.800253,41.436274],[-74.801403,41.43867],[-74.805158,41.441853],[-74.807483,41.442767],[-74.809426,41.443063],[-74.812488,41.442802],[-74.817995,41.440505],[-74.822584,41.437014],[-74.823582,41.435805],[-74.824877,41.433173],[-74.826341,41.431646],[-74.829256,41.430691],[-74.832032,41.430391],[-74.834846,41.430771],[-74.837477,41.431897],[-74.840801,41.434515],[-74.842997,41.435679],[-74.846072,41.437887],[-74.847869,41.439619],[-74.853909,41.443146],[-74.857653,41.444156],[-74.863142,41.444387],[-74.878303,41.44],[-74.885718,41.438988],[-74.88901,41.438165],[-74.892625,41.438617],[-74.89566,41.439688],[-74.896427,41.440911],[-74.896399,41.442179],[-74.894855,41.446191],[-74.8934,41.447742],[-74.889936,41.450092],[-74.889156,41.451072],[-74.889351,41.453137],[-74.890169,41.455558],[-74.891199,41.456544],[-74.894768,41.458145],[-74.904124,41.459867]]]},"properties":{"kind":"juris","name":"Lumberland (Town)","geoid":"3610543786","type":"Town","n":16,"p0":12,"p1":1,"p2":0,"p3":3,"matched":true}},{"type":"Feature","geometry":{"type":"MultiPolygon","coordinates":[[[[-74.619076,41.535253],[-74.601086,41.558212],[-74.525057,41.653373],[-74.517383,41.663694],[-74.500971,41.684189],[-74.496674,41.690235],[-74.491062,41.697185],[-74.423814,41.659739],[-74.395071,41.644876],[-74.395272,41.644649],[-74.394322,41.643337],[-74.394373,41.642562],[-74.392502,41.64124],[-74.393242,41.640503],[-74.39224,41.639295],[-74.391551,41.637101],[-74.391457,41.633455],[-74.38879,41.629768],[-74.388303,41.629285],[-74.387069,41.628947],[-74.386842,41.628559],[-74.387162,41.62753],[-74.386624,41.627009],[-74.386717,41.626532],[-74.386306,41.625886],[-74.386723,41.625014],[-74.386503,41.623987],[-74.387193,41.622749],[-74.386723,41.622448],[-74.386841,41.621024],[-74.386203,41.620183],[-74.386362,41.619372],[-74.385954,41.617911],[-74.384197,41.615901],[-74.38411,41.615261],[-74.382124,41.614892],[-74.38152,41.614235],[-74.380724,41.614125],[-74.381024,41.612066],[-74.37933,41.61027],[-74.379308,41.609686],[-74.379816,41.609022],[-74.379275,41.606586],[-74.378565,41.605496],[-74.377566,41.605701],[-74.375937,41.604574],[-74.376267,41.603941],[-74.375332,41.602929],[-74.376501,41.601682],[-74.37617,41.599388],[-74.375679,41.59887],[-74.376139,41.598399],[-74.376009,41.597972],[-74.375251,41.596971],[-74.373958,41.596831],[-74.372921,41.596213],[-74.370313,41.596507],[-74.367454,41.595963],[-74.366966,41.595372],[-74.365911,41.595588],[-74.364334,41.59395],[-74.365261,41.593623],[-74.365052,41.593197],[-74.365995,41.592401],[-74.366979,41.592334],[-74.368272,41.591701],[-74.36829,41.59138],[-74.367055,41.590977],[-74.369136,41.590182],[-74.370089,41.58859],[-74.37215,41.587936],[-74.374145,41.587751],[-74.377974,41.586385],[-74.37865,41.586477],[-74.379334,41.58734],[-74.379951,41.587416],[-74.380756,41.586158],[-74.383234,41.584088],[-74.3849,41.583433],[-74.386149,41.583132],[-74.388122,41.583333],[-74.389153,41.585479],[-74.389931,41.586309],[-74.390496,41.586315],[-74.391452,41.584039],[-74.391414,41.58348],[-74.39066,41.582839],[-74.390709,41.5823],[-74.393423,41.582],[-74.395429,41.580693],[-74.396045,41.579662],[-74.395702,41.578074],[-74.395856,41.576861],[-74.397346,41.575741],[-74.397614,41.575094],[-74.399345,41.575495],[-74.400102,41.575168],[-74.401796,41.575365],[-74.403836,41.57425],[-74.404464,41.573101],[-74.405854,41.5729],[-74.40656,41.57222],[-74.407176,41.572497],[-74.40823,41.573914],[-74.40758,41.574803],[-74.407831,41.575199],[-74.408278,41.575175],[-74.409091,41.573842],[-74.409801,41.573291],[-74.409696,41.571914],[-74.411085,41.571012],[-74.41045,41.570488],[-74.408092,41.570394],[-74.407605,41.568965],[-74.408353,41.568274],[-74.409894,41.568217],[-74.412931,41.56878],[-74.413517,41.567905],[-74.41414,41.567803],[-74.416223,41.568648],[-74.416126,41.569294],[-74.416386,41.569584],[-74.417575,41.569932],[-74.418145,41.569769],[-74.41841,41.568928],[-74.417781,41.567911],[-74.419406,41.565426],[-74.418836,41.564529],[-74.418836,41.563767],[-74.419733,41.562426],[-74.420763,41.562236],[-74.421768,41.562942],[-74.423259,41.562879],[-74.423113,41.559979],[-74.429579,41.558594],[-74.429959,41.557993],[-74.429149,41.557009],[-74.429416,41.556739],[-74.430583,41.557347],[-74.433662,41.555427],[-74.434079,41.555735],[-74.434938,41.555036],[-74.437732,41.556906],[-74.438798,41.556519],[-74.445403,41.560371],[-74.447266,41.55867],[-74.447834,41.559501],[-74.448617,41.559955],[-74.449512,41.560038],[-74.450143,41.559679],[-74.448974,41.558982],[-74.449968,41.558074],[-74.448591,41.557545],[-74.450978,41.55533],[-74.450499,41.554642],[-74.453176,41.552599],[-74.450074,41.550758],[-74.453725,41.547373],[-74.450645,41.545446],[-74.44815,41.546606],[-74.445611,41.545134],[-74.444776,41.543912],[-74.445176,41.544094],[-74.445564,41.543867],[-74.446094,41.541095],[-74.443787,41.540923],[-74.444187,41.539438],[-74.443702,41.539106],[-74.443716,41.538775],[-74.444602,41.537233],[-74.446109,41.536497],[-74.447078,41.535607],[-74.447959,41.53536],[-74.447939,41.534353],[-74.450277,41.53302],[-74.453361,41.532581],[-74.45454,41.533369],[-74.45604,41.531884],[-74.45583,41.531007],[-74.455319,41.530589],[-74.45545,41.530112],[-74.457127,41.529573],[-74.457877,41.52886],[-74.457725,41.528412],[-74.457097,41.528292],[-74.457148,41.527502],[-74.458792,41.526963],[-74.459719,41.525861],[-74.460037,41.524829],[-74.461329,41.52468],[-74.462733,41.523332],[-74.465661,41.523014],[-74.464792,41.519693],[-74.465729,41.518326],[-74.465616,41.516882],[-74.466977,41.515983],[-74.468254,41.515841],[-74.468121,41.514965],[-74.46889,41.514042],[-74.470371,41.513549],[-74.471397,41.51279],[-74.472535,41.512659],[-74.4724,41.511486],[-74.476092,41.510399],[-74.47473,41.509053],[-74.474111,41.508945],[-74.474224,41.507723],[-74.475068,41.507227],[-74.473886,41.506664],[-74.47457,41.506092],[-74.475746,41.506231],[-74.475805,41.505517],[-74.475458,41.504952],[-74.475619,41.503953],[-74.48246,41.503963],[-74.483152,41.504427],[-74.483353,41.504046],[-74.484367,41.504235],[-74.484937,41.503791],[-74.485886,41.504017],[-74.487029,41.503616],[-74.487574,41.504375],[-74.488352,41.503735],[-74.491162,41.504155],[-74.491691,41.503495],[-74.493801,41.504447],[-74.494148,41.504089],[-74.495358,41.504447],[-74.496341,41.503669],[-74.557366,41.50125],[-74.560763,41.500609],[-74.571897,41.500093],[-74.620472,41.498421],[-74.597403,41.520617],[-74.620742,41.533363],[-74.619076,41.535253]],[[-74.50072,41.574838],[-74.500932,41.574636],[-74.480474,41.565168],[-74.470336,41.577498],[-74.490873,41.587005],[-74.498709,41.57772],[-74.50072,41.574838]]],[[[-74.428662,41.55686],[-74.426577,41.556606],[-74.426131,41.556161],[-74.426919,41.555925],[-74.428865,41.556079],[-74.428662,41.55686]]],[[[-74.431417,41.554665],[-74.43124,41.554322],[-74.430259,41.55407],[-74.430288,41.553842],[-74.434171,41.553541],[-74.434171,41.55406],[-74.434519,41.554288],[-74.433556,41.554392],[-74.433096,41.553846],[-74.431417,41.554665]]],[[[-74.436152,41.550699],[-74.436044,41.549923],[-74.434888,41.547886],[-74.434811,41.546507],[-74.435259,41.546135],[-74.44212,41.548815],[-74.44389,41.549904],[-74.445206,41.551277],[-74.444031,41.551372],[-74.443103,41.552502],[-74.44149,41.55194],[-74.44183,41.551549],[-74.436152,41.550699]]]]},"properties":{"kind":"juris","name":"Mamakating (Town)","geoid":"3610544809","type":"Town","n":16,"p0":15,"p1":0,"p2":0,"p3":1,"matched":true}},{"type":"Feature","geometry":{"type":"MultiPolygon","coordinates":[[[[-74.727018,41.663094],[-74.726986,41.663308],[-74.724478,41.66307],[-74.724353,41.665197],[-74.723178,41.665052],[-74.723102,41.665537],[-74.722753,41.665454],[-74.722813,41.665074],[-74.7217,41.664952],[-74.721486,41.666319],[-74.722073,41.666453],[-74.721947,41.667673],[-74.720193,41.667288],[-74.720323,41.666062],[-74.720048,41.665993],[-74.720416,41.664756],[-74.719386,41.664629],[-74.719313,41.664991],[-74.718958,41.664918],[-74.718786,41.66571],[-74.719164,41.665794],[-74.718984,41.66668],[-74.71871,41.666654],[-74.718029,41.671866],[-74.718502,41.673398],[-74.712895,41.672584],[-74.710456,41.670415],[-74.706089,41.668133],[-74.707223,41.666712],[-74.705694,41.666408],[-74.704349,41.665093],[-74.70236,41.66465],[-74.701984,41.664963],[-74.701133,41.664285],[-74.700468,41.664422],[-74.699352,41.665289],[-74.6945,41.663544],[-74.694108,41.664519],[-74.678798,41.660352],[-74.677786,41.660798],[-74.675306,41.66011],[-74.67538,41.659736],[-74.676026,41.659832],[-74.676079,41.659602],[-74.670805,41.658246],[-74.670749,41.658476],[-74.67009,41.658375],[-74.670221,41.658081],[-74.666717,41.657103],[-74.672451,41.644555],[-74.669728,41.644281],[-74.669395,41.645595],[-74.668315,41.645738],[-74.667324,41.64543],[-74.667633,41.643803],[-74.66018,41.642709],[-74.659844,41.64476],[-74.658239,41.644324],[-74.657803,41.64689],[-74.654613,41.645983],[-74.654547,41.646275],[-74.653608,41.645462],[-74.65357,41.645724],[-74.652386,41.645037],[-74.65246,41.644412],[-74.653857,41.644566],[-74.653933,41.643048],[-74.652663,41.642954],[-74.652543,41.643887],[-74.648941,41.643668],[-74.64763,41.643248],[-74.648348,41.638831],[-74.64053,41.637822],[-74.640627,41.637343],[-74.638824,41.637138],[-74.639279,41.634487],[-74.638812,41.633767],[-74.661175,41.636088],[-74.661111,41.636825],[-74.667595,41.637607],[-74.666941,41.6412],[-74.6701,41.641601],[-74.66973,41.642976],[-74.672674,41.64322],[-74.672614,41.643545],[-74.67447,41.644156],[-74.675207,41.643459],[-74.677615,41.64393],[-74.677472,41.644943],[-74.679364,41.645441],[-74.679648,41.64426],[-74.681498,41.644617],[-74.681332,41.645699],[-74.686184,41.646471],[-74.686199,41.647392],[-74.686983,41.647312],[-74.689533,41.648024],[-74.690769,41.645408],[-74.690474,41.645282],[-74.691548,41.643853],[-74.689839,41.643381],[-74.689272,41.642269],[-74.688772,41.64223],[-74.688864,41.641037],[-74.689516,41.640788],[-74.688819,41.63976],[-74.688167,41.640009],[-74.688553,41.640578],[-74.685035,41.640389],[-74.685769,41.635941],[-74.694861,41.637041],[-74.694323,41.640745],[-74.697163,41.641092],[-74.69729,41.640034],[-74.706097,41.64107],[-74.704647,41.644073],[-74.714416,41.645197],[-74.71419,41.647052],[-74.712473,41.646859],[-74.712073,41.649631],[-74.705393,41.648924],[-74.705101,41.6497],[-74.702476,41.649422],[-74.701741,41.650711],[-74.702335,41.650863],[-74.701449,41.651211],[-74.701958,41.651495],[-74.701374,41.651339],[-74.699676,41.653106],[-74.698967,41.653086],[-74.698728,41.653656],[-74.699497,41.653777],[-74.699186,41.654129],[-74.700702,41.654815],[-74.70112,41.654364],[-74.70568,41.654956],[-74.705005,41.657782],[-74.705436,41.658295],[-74.705565,41.659292],[-74.704704,41.660071],[-74.706546,41.661262],[-74.706781,41.662202],[-74.707333,41.662014],[-74.707555,41.662333],[-74.710653,41.660932],[-74.711352,41.66156],[-74.712373,41.660967],[-74.713557,41.662001],[-74.712638,41.663607],[-74.718026,41.664725],[-74.718803,41.658889],[-74.720061,41.65895],[-74.720111,41.658527],[-74.725034,41.659304],[-74.724768,41.661122],[-74.727282,41.661485],[-74.727018,41.663094]],[[-74.693363,41.641164],[-74.690999,41.640962],[-74.690895,41.641709],[-74.691949,41.643103],[-74.692222,41.642591],[-74.693169,41.642717],[-74.693363,41.641164]]],[[[-74.711182,41.672303],[-74.695011,41.669891],[-74.694785,41.665871],[-74.695111,41.665491],[-74.697394,41.665534],[-74.697668,41.66567],[-74.697851,41.667126],[-74.698334,41.667596],[-74.705534,41.668731],[-74.705002,41.669123],[-74.706297,41.67034],[-74.707944,41.670916],[-74.708526,41.670312],[-74.71047,41.671329],[-74.711182,41.672303]]],[[[-74.662697,41.647072],[-74.661893,41.649248],[-74.66236,41.649315],[-74.662303,41.649675],[-74.660253,41.649379],[-74.660296,41.649013],[-74.661016,41.649112],[-74.66218,41.646673],[-74.659618,41.646083],[-74.659844,41.64476],[-74.66344,41.64547],[-74.662697,41.647072]]],[[[-74.710381,41.654207],[-74.709454,41.655512],[-74.70653,41.655083],[-74.706642,41.653898],[-74.710213,41.653269],[-74.710381,41.654207]]],[[[-74.657205,41.647201],[-74.656614,41.648563],[-74.654724,41.64833],[-74.654067,41.647912],[-74.654267,41.646428],[-74.655501,41.646747],[-74.655207,41.647603],[-74.656245,41.647894],[-74.65662,41.647049],[-74.657205,41.647201]]],[[[-74.679328,41.660651],[-74.679303,41.660749],[-74.678776,41.660651],[-74.679234,41.660646],[-74.679328,41.660651]]]]},"properties":{"kind":"juris","name":"Monticello (Village)","geoid":"3648175","type":"Village","n":19,"p0":17,"p1":1,"p2":1,"p3":0,"matched":true}},{"type":"Feature","geometry":{"type":"Polygon","coordinates":[[[-74.708047,41.85183],[-74.655032,41.963676],[-74.6246,41.951112],[-74.514684,41.902157],[-74.453685,41.875595],[-74.45382,41.875092],[-74.486924,41.835264],[-74.525506,41.796817],[-74.567926,41.808602],[-74.568226,41.808261],[-74.568163,41.808668],[-74.572283,41.809856],[-74.618827,41.822816],[-74.629819,41.811581],[-74.662644,41.820811],[-74.6889,41.824258],[-74.68159,41.840608],[-74.709773,41.848377],[-74.708047,41.85183]]]},"properties":{"kind":"juris","name":"Neversink (Town)","geoid":"3610549847","type":"Town","n":21,"p0":18,"p1":0,"p2":0,"p3":3,"matched":true}},{"type":"Feature","geometry":{"type":"Polygon","coordinates":[[[-74.985156,41.924007],[-74.913302,41.956742],[-74.828708,41.994017],[-74.780693,42.016375],[-74.749602,42.002937],[-74.655032,41.963676],[-74.696733,41.87566],[-74.739757,41.887509],[-74.749604,41.890478],[-74.751636,41.890832],[-74.771468,41.896602],[-74.785795,41.868751],[-74.835265,41.882885],[-74.985156,41.924007]]]},"properties":{"kind":"juris","name":"Rockland (Town)","geoid":"3610563176","type":"Town","n":27,"p0":23,"p1":2,"p2":2,"p3":0,"matched":true}},{"type":"Feature","geometry":{"type":"MultiPolygon","coordinates":[[[[-74.7868,41.663001],[-74.78541,41.665109],[-74.784076,41.665865],[-74.783632,41.666544],[-74.782323,41.666871],[-74.780729,41.668405],[-74.779391,41.668861],[-74.77434,41.673668],[-74.775738,41.675338],[-74.776183,41.676971],[-74.771677,41.67757],[-74.767079,41.677107],[-74.765108,41.678284],[-74.763991,41.678591],[-74.76366,41.680072],[-74.760114,41.683341],[-74.760584,41.685672],[-74.759481,41.686866],[-74.757502,41.688269],[-74.756776,41.689292],[-74.758938,41.690031],[-74.7599,41.69122],[-74.759612,41.692208],[-74.758255,41.692103],[-74.757459,41.692863],[-74.757377,41.693576],[-74.758242,41.694476],[-74.758,41.695305],[-74.757419,41.695616],[-74.755732,41.695685],[-74.754073,41.694656],[-74.752769,41.693237],[-74.751448,41.693306],[-74.751185,41.693748],[-74.751336,41.695133],[-74.749844,41.695389],[-74.750403,41.695831],[-74.750368,41.696238],[-74.750003,41.696428],[-74.749318,41.696114],[-74.747695,41.697112],[-74.746455,41.697278],[-74.746105,41.69777],[-74.746258,41.699093],[-74.746031,41.699506],[-74.74258,41.700432],[-74.742139,41.700983],[-74.741408,41.701186],[-74.739992,41.703066],[-74.738696,41.703709],[-74.74001,41.705027],[-74.739964,41.705947],[-74.740635,41.706657],[-74.741202,41.708011],[-74.741299,41.709727],[-74.744416,41.711792],[-74.744669,41.713212],[-74.74418,41.714287],[-74.745317,41.715609],[-74.744038,41.716637],[-74.743742,41.717553],[-74.744356,41.718453],[-74.744934,41.720318],[-74.744377,41.722514],[-74.745314,41.723767],[-74.745406,41.724676],[-74.746358,41.726219],[-74.745874,41.727396],[-74.746099,41.730229],[-74.745826,41.731628],[-74.746071,41.732645],[-74.745513,41.73302],[-74.745348,41.733555],[-74.745906,41.734126],[-74.745482,41.734456],[-74.745548,41.734786],[-74.746405,41.73525],[-74.745632,41.737003],[-74.746679,41.737569],[-74.747822,41.740122],[-74.749524,41.742193],[-74.749351,41.742527],[-74.646629,41.722776],[-74.653557,41.681959],[-74.623818,41.677352],[-74.601246,41.67303],[-74.601187,41.671717],[-74.600463,41.670045],[-74.599445,41.668995],[-74.599983,41.66761],[-74.600524,41.66723],[-74.600616,41.666347],[-74.604953,41.665234],[-74.606546,41.664392],[-74.607355,41.663595],[-74.608309,41.662392],[-74.608139,41.661319],[-74.609257,41.6604],[-74.609391,41.656945],[-74.531097,41.646019],[-74.602271,41.55657],[-74.61022,41.562482],[-74.616552,41.566679],[-74.630536,41.577487],[-74.650526,41.59213],[-74.783831,41.604143],[-74.78384,41.606203],[-74.784565,41.609187],[-74.784737,41.611974],[-74.784031,41.617429],[-74.783923,41.622115],[-74.782977,41.625097],[-74.785138,41.630023],[-74.783908,41.63477],[-74.782594,41.646667],[-74.783412,41.649915],[-74.784876,41.652961],[-74.785117,41.654977],[-74.784279,41.657983],[-74.785763,41.659925],[-74.7868,41.663001]],[[-74.659844,41.64476],[-74.659618,41.646083],[-74.66218,41.646673],[-74.661016,41.649112],[-74.660296,41.649013],[-74.660253,41.649379],[-74.662303,41.649675],[-74.66236,41.649315],[-74.661893,41.649248],[-74.662266,41.64854],[-74.662028,41.648478],[-74.66344,41.64547],[-74.659844,41.64476]],[[-74.659844,41.64476],[-74.66018,41.642709],[-74.667633,41.643803],[-74.667324,41.64543],[-74.668315,41.645738],[-74.669395,41.645595],[-74.669728,41.644281],[-74.672451,41.644555],[-74.666717,41.657103],[-74.670221,41.658081],[-74.67009,41.658375],[-74.670749,41.658476],[-74.670805,41.658246],[-74.676079,41.659602],[-74.676026,41.659832],[-74.67538,41.659736],[-74.675306,41.66011],[-74.677238,41.66069],[-74.678182,41.660753],[-74.678798,41.660352],[-74.694108,41.664519],[-74.6945,41.663544],[-74.699352,41.665289],[-74.700468,41.664422],[-74.701133,41.664285],[-74.701984,41.664963],[-74.70236,41.66465],[-74.704349,41.665093],[-74.705694,41.666408],[-74.707223,41.666712],[-74.706089,41.668133],[-74.710456,41.670415],[-74.712895,41.672584],[-74.718502,41.673398],[-74.718029,41.671866],[-74.71871,41.666654],[-74.718984,41.66668],[-74.719164,41.665794],[-74.718786,41.66571],[-74.718958,41.664918],[-74.719313,41.664991],[-74.719386,41.664629],[-74.720416,41.664756],[-74.720048,41.665993],[-74.720323,41.666062],[-74.720193,41.667288],[-74.721947,41.667673],[-74.722073,41.666453],[-74.721486,41.666319],[-74.7217,41.664952],[-74.722813,41.665074],[-74.722753,41.665454],[-74.723102,41.665537],[-74.723178,41.665052],[-74.724353,41.665197],[-74.724478,41.66307],[-74.726986,41.663308],[-74.727282,41.661485],[-74.724768,41.661122],[-74.725034,41.659304],[-74.720111,41.658527],[-74.720061,41.65895],[-74.718803,41.658889],[-74.718026,41.664725],[-74.712638,41.663607],[-74.713557,41.662001],[-74.712373,41.660967],[-74.711352,41.66156],[-74.710653,41.660932],[-74.707555,41.662333],[-74.707333,41.662014],[-74.706781,41.662202],[-74.706546,41.661262],[-74.704704,41.660071],[-74.705565,41.659292],[-74.705436,41.658295],[-74.705005,41.657782],[-74.70568,41.654956],[-74.70112,41.654364],[-74.700702,41.654815],[-74.699186,41.654129],[-74.699497,41.653777],[-74.698728,41.653656],[-74.698967,41.653086],[-74.699676,41.653106],[-74.701374,41.651339],[-74.701958,41.651495],[-74.701449,41.651211],[-74.702335,41.650863],[-74.701741,41.650711],[-74.702476,41.649422],[-74.705101,41.6497],[-74.705393,41.648924],[-74.712073,41.649631],[-74.712473,41.646859],[-74.71419,41.647052],[-74.714416,41.645197],[-74.704647,41.644073],[-74.706097,41.64107],[-74.69729,41.640034],[-74.697163,41.641092],[-74.694323,41.640745],[-74.694861,41.637041],[-74.685769,41.635941],[-74.685035,41.640389],[-74.688553,41.640578],[-74.688167,41.640009],[-74.688819,41.63976],[-74.689516,41.640788],[-74.688864,41.641037],[-74.688772,41.64223],[-74.689272,41.642269],[-74.689839,41.643381],[-74.691548,41.643853],[-74.690474,41.645282],[-74.690769,41.645408],[-74.689533,41.648024],[-74.686983,41.647312],[-74.686199,41.647392],[-74.686184,41.646471],[-74.681332,41.645699],[-74.681498,41.644617],[-74.679648,41.64426],[-74.679364,41.645441],[-74.677472,41.644943],[-74.677615,41.64393],[-74.675207,41.643459],[-74.67447,41.644156],[-74.672614,41.643545],[-74.672674,41.64322],[-74.66973,41.642976],[-74.6701,41.641601],[-74.666941,41.6412],[-74.667595,41.637607],[-74.661111,41.636825],[-74.661175,41.636088],[-74.638812,41.633767],[-74.639279,41.634487],[-74.638824,41.637138],[-74.640627,41.637343],[-74.64053,41.637822],[-74.648348,41.638831],[-74.64763,41.643248],[-74.648941,41.643668],[-74.652543,41.643887],[-74.652663,41.642954],[-74.653933,41.643048],[-74.653857,41.644566],[-74.65246,41.644412],[-74.652386,41.645037],[-74.65357,41.645724],[-74.653608,41.645462],[-74.654547,41.646275],[-74.654613,41.645983],[-74.657604,41.646868],[-74.658239,41.644324],[-74.659844,41.64476]],[[-74.657205,41.647201],[-74.65662,41.647049],[-74.656245,41.647894],[-74.655207,41.647603],[-74.655501,41.646747],[-74.654267,41.646428],[-74.654067,41.647912],[-74.654724,41.64833],[-74.656614,41.648563],[-74.657205,41.647201]],[[-74.710381,41.654207],[-74.710213,41.653269],[-74.706642,41.653898],[-74.70653,41.655083],[-74.709454,41.655512],[-74.710381,41.654207]],[[-74.679328,41.660651],[-74.679234,41.660646],[-74.678776,41.660651],[-74.679303,41.660749],[-74.679328,41.660651]],[[-74.711182,41.672303],[-74.71047,41.671329],[-74.708526,41.670312],[-74.707944,41.670916],[-74.706297,41.67034],[-74.705002,41.669123],[-74.705534,41.668731],[-74.698334,41.667596],[-74.697851,41.667126],[-74.697668,41.66567],[-74.697394,41.665534],[-74.695111,41.665491],[-74.694785,41.665871],[-74.695011,41.669891],[-74.711182,41.672303]]],[[[-74.693363,41.641164],[-74.693169,41.642717],[-74.692222,41.642591],[-74.691949,41.643103],[-74.690895,41.641709],[-74.690999,41.640962],[-74.693363,41.641164]]]]},"properties":{"kind":"juris","name":"Thompson (Town)","geoid":"3610573627","type":"Town","n":17,"p0":15,"p1":1,"p2":0,"p3":1,"matched":true}},{"type":"Feature","geometry":{"type":"Polygon","coordinates":[[[-75.074777,41.607555],[-75.074077,41.608378],[-75.069721,41.610114],[-75.06823,41.61022],[-75.063698,41.609271],[-75.059728,41.610415],[-75.059598,41.611443],[-75.061103,41.614009],[-75.061565,41.6158],[-75.061329,41.616685],[-75.059731,41.617556],[-75.05582,41.618486],[-75.05302,41.618515],[-75.048381,41.615922],[-75.046745,41.615621],[-75.045323,41.61615],[-75.044469,41.61717],[-75.04415,41.618522],[-75.044477,41.620749],[-75.04361,41.623322],[-75.044102,41.624555],[-75.045274,41.6257],[-75.048617,41.633013],[-75.048867,41.638979],[-75.049497,41.641562],[-75.049188,41.642979],[-75.047708,41.645851],[-75.048797,41.647534],[-75.049192,41.650055],[-75.011362,41.641202],[-74.979261,41.634246],[-74.981175,41.621574],[-74.917163,41.615882],[-74.910481,41.611768],[-74.893863,41.604028],[-74.880522,41.595467],[-74.913742,41.568482],[-74.938547,41.545627],[-74.961912,41.52537],[-74.969654,41.519041],[-74.978097,41.511311],[-74.983734,41.505463],[-74.98424,41.506509],[-74.985443,41.507834],[-74.987491,41.508819],[-74.99291,41.508987],[-75.000255,41.507375],[-75.003041,41.507886],[-75.003578,41.508277],[-75.003903,41.510111],[-75.003668,41.511808],[-75.000956,41.517593],[-75.000749,41.518597],[-75.001297,41.52065],[-75.003212,41.523481],[-75.007516,41.527122],[-75.011139,41.529318],[-75.016797,41.532195],[-75.023217,41.533171],[-75.024087,41.53374],[-75.024543,41.534593],[-75.025024,41.537929],[-75.0247,41.540131],[-75.022226,41.541756],[-75.017503,41.542642],[-75.016466,41.543346],[-75.015976,41.544205],[-75.016128,41.546592],[-75.018804,41.552436],[-75.021018,41.555194],[-75.022608,41.556642],[-75.028055,41.564339],[-75.029201,41.564783],[-75.031455,41.564805],[-75.033592,41.565238],[-75.037792,41.567598],[-75.04049,41.569688],[-75.043904,41.574702],[-75.044915,41.579027],[-75.046825,41.583225],[-75.052934,41.587894],[-75.05627,41.588988],[-75.060012,41.590813],[-75.062718,41.593799],[-75.067714,41.600249],[-75.074354,41.605911],[-75.074777,41.607555]]]},"properties":{"kind":"juris","name":"Tusten (Town)","geoid":"3610575759","type":"Town","n":23,"p0":14,"p1":3,"p2":5,"p3":1,"matched":true}},{"type":"Feature","geometry":{"type":"Polygon","coordinates":[[[-74.592653,41.716723],[-74.591786,41.718465],[-74.587803,41.723701],[-74.584268,41.723032],[-74.583329,41.725311],[-74.586611,41.726054],[-74.586403,41.726559],[-74.588836,41.727324],[-74.588609,41.728347],[-74.573073,41.725042],[-74.574441,41.721041],[-74.578699,41.721904],[-74.579914,41.718419],[-74.568212,41.715935],[-74.56849,41.715206],[-74.56993,41.715523],[-74.570397,41.714754],[-74.567913,41.714604],[-74.567743,41.714942],[-74.566606,41.714626],[-74.568461,41.713117],[-74.568266,41.713042],[-74.567048,41.713885],[-74.564622,41.712802],[-74.564133,41.714217],[-74.561478,41.713701],[-74.56123,41.714429],[-74.558335,41.713831],[-74.556905,41.712092],[-74.558102,41.709626],[-74.558442,41.709715],[-74.558354,41.710009],[-74.559005,41.710574],[-74.558985,41.711263],[-74.55921,41.711225],[-74.559391,41.709923],[-74.55889,41.709827],[-74.560406,41.707501],[-74.551731,41.705877],[-74.552435,41.703799],[-74.551009,41.703499],[-74.549925,41.701937],[-74.550414,41.701635],[-74.55147,41.702613],[-74.551591,41.702113],[-74.552864,41.701776],[-74.556936,41.703897],[-74.556698,41.704446],[-74.558647,41.705073],[-74.558909,41.704748],[-74.561564,41.70573],[-74.562494,41.70425],[-74.562071,41.704101],[-74.561491,41.702749],[-74.563718,41.697005],[-74.56551,41.69778],[-74.565488,41.698598],[-74.568187,41.699472],[-74.568131,41.699063],[-74.574845,41.701942],[-74.574391,41.70349],[-74.575411,41.704016],[-74.575219,41.704346],[-74.57592,41.704657],[-74.576629,41.704378],[-74.577081,41.705365],[-74.582429,41.705291],[-74.582,41.70604],[-74.581299,41.705919],[-74.580291,41.707284],[-74.578796,41.707022],[-74.586435,41.710047],[-74.586169,41.710412],[-74.590459,41.711283],[-74.588812,41.715853],[-74.592653,41.716723]],[[-74.586304,41.716187],[-74.585624,41.714961],[-74.584028,41.713804],[-74.582133,41.716375],[-74.582888,41.716661],[-74.583429,41.715931],[-74.584593,41.715441],[-74.584905,41.71614],[-74.585617,41.716057],[-74.585809,41.716516],[-74.586398,41.716409],[-74.586304,41.716187]],[[-74.575833,41.704668],[-74.575192,41.704393],[-74.575084,41.704701],[-74.575722,41.704972],[-74.575833,41.704668]],[[-74.575078,41.704728],[-74.574594,41.704578],[-74.574282,41.70532],[-74.574849,41.705545],[-74.575078,41.704728]],[[-74.570555,41.713864],[-74.569359,41.713442],[-74.568928,41.713799],[-74.569383,41.714086],[-74.569882,41.713652],[-74.570249,41.714033],[-74.570555,41.713864]],[[-74.56674,41.702416],[-74.566344,41.69986],[-74.565044,41.699318],[-74.565396,41.701899],[-74.56674,41.702416]]]},"properties":{"kind":"juris","name":"Woodridge (Village)","geoid":"3682953","type":"Village","n":23,"p0":20,"p1":1,"p2":2,"p3":0,"matched":true}},{"type":"Feature","geometry":{"type":"Polygon","coordinates":[[[-74.50072,41.574838],[-74.498709,41.57772],[-74.490873,41.587005],[-74.470336,41.577498],[-74.480474,41.565168],[-74.500932,41.574636],[-74.50072,41.574838]]]},"properties":{"kind":"juris","name":"Wurtsboro (Village)","geoid":"3683272","type":"Village","n":13,"p0":10,"p1":1,"p2":0,"p3":2,"matched":true}}]}